{"type": "FeatureCollection", "features": [{"type": "Feature", "geometry": {"type": "Point", "coordinates": [100.43542, 13.56701], "crs": null}, "properties": {"gate_name": "ประตูระบายน้ำคลองรางยายเพียร", "hy_lname": "คลองศาลเตี้ย", "district_t": "บางขุนเทียน", "type": "ทั่วไป"}}, {"type": "Feature", "geometry": {"type": "Point", "coordinates": [100.4365, 13.56815], "crs": null}, "properties": {"gate_name": "ประตูระบายน้ำคลองแยกคลองเชิงตาแพ", "hy_lname": "คลองหนองพงไหม้", "district_t": "บางขุนเทียน", "type": "ทั่วไป"}}, {"type": "Feature", "geometry": {"type": "Point", "coordinates": [100.41862, 13.56877], "crs": null}, "properties": {"gate_name": "ประตูระบายน้ำคลองรางยายคง", "hy_lname": "-", "district_t": "บางขุนเทียน", "type": "ทั่วไป"}}, {"type": "Feature", "geometry": {"type": "Point", "coordinates": [100.39897, 13.57044], "crs": null}, "properties": {"gate_name": "ประตูระบายน้ำคลองหัวกระบือ", "hy_lname": "คลองรางยายคง", "district_t": "บางขุนเทียน", "type": "ทั่วไป"}}, {"type": "Feature", "geometry": {"type": "Point", "coordinates": [100.442, 13.5706], "crs": null}, "properties": {"gate_name": "ประตูระบายน้ำประตูเรือสัญจรคลองลูกวัวเก่า", "hy_lname": "คลองลูกวัวเก่า", "district_t": "บางขุนเทียน", "type": "ทั่วไป"}}, {"type": "Feature", "geometry": {"type": "Point", "coordinates": [100.3904, 13.5972], "crs": null}, "properties": {"gate_name": "ประตูระบายน้ำคลองบางขนุน", "hy_lname": "คลองบางขนุน", "district_t": "บางขุนเทียน", "type": "ทั่วไป"}}, {"type": "Feature", "geometry": {"type": "Point", "coordinates": [100.40187, 13.60534], "crs": null}, "properties": {"gate_name": "ประตูระบายน้ำคลองม่วง", "hy_lname": "คลองหน้าวัด", "district_t": "บางขุนเทียน", "type": "ทั่วไป"}}, {"type": "Feature", "geometry": {"type": "Point", "coordinates": [100.45486, 13.60503], "crs": null}, "properties": {"gate_name": "ประตูระบายน้ำคลองนา", "hy_lname": "คลองนา", "district_t": "บางขุนเทียน", "type": "ทั่วไป"}}, {"type": "Feature", "geometry": {"type": "Point", "coordinates": [100.453, 13.61434], "crs": null}, "properties": {"gate_name": "ประตูระบายน้ำคลองรางสะแก", "hy_lname": "คลองรางสะแก", "district_t": "บางขุนเทียน", "type": "ทั่วไป"}}, {"type": "Feature", "geometry": {"type": "Point", "coordinates": [100.51124, 13.61826], "crs": null}, "properties": {"gate_name": "ประตูระบายน้ำคลองหนองรี  (ตอนแนวถนนประชาอุทิศ)", "hy_lname": "คลองหนองรี", "district_t": "ทุ่งครุ", "type": "ทั่วไป"}}, {"type": "Feature", "geometry": {"type": "Point", "coordinates": [100.45226, 13.61937], "crs": null}, "properties": {"gate_name": "ประตูระบายน้ำคลองบุญสุข", "hy_lname": "คลองบุญสุข", "district_t": "บางขุนเทียน", "type": "ทั่วไป"}}, {"type": "Feature", "geometry": {"type": "Point", "coordinates": [100.42018, 13.62013], "crs": null}, "properties": {"gate_name": "ประตูระบายน้ำคลองตรง", "hy_lname": "คลองตรง", "district_t": "บางขุนเทียน", "type": "ทั่วไป"}}, {"type": "Feature", "geometry": {"type": "Point", "coordinates": [100.50866, 13.62383], "crs": null}, "properties": {"gate_name": "ประตูระบายน้ำคลองรางตรง (ตอนแนวถนนประชาอุทิศ)", "hy_lname": "คลองรางตรง", "district_t": "ทุ่งครุ", "type": "ทั่วไป"}}, {"type": "Feature", "geometry": {"type": "Point", "coordinates": [100.44949, 13.63176], "crs": null}, "properties": {"gate_name": "ประตูระบายน้ำคลองรางโพธิ์", "hy_lname": "คลองรางโพธิ์บน", "district_t": "บางขุนเทียน", "type": "ทั่วไป"}}, {"type": "Feature", "geometry": {"type": "Point", "coordinates": [100.64933, 13.65936], "crs": null}, "properties": {"gate_name": "ประตูระบายน้ำคลองบางนา", "hy_lname": "คลองบางนา", "district_t": "บางนา", "type": "ทั่วไป (เหล็ก)"}}, {"type": "Feature", "geometry": {"type": "Point", "coordinates": [100.64671, 13.6691], "crs": null}, "properties": {"gate_name": "ประตูระบายน้ำคลองเคล็ด (ถ.ศรีนครินทร์)", "hy_lname": "คลองเคล็ด", "district_t": "ประเวศ", "type": "ทั่วไป (เหล็ก)"}}, {"type": "Feature", "geometry": {"type": "Point", "coordinates": [100.53691, 13.6709], "crs": null}, "properties": {"gate_name": "ประตูระบายน้ำคลองวัดด่านเหนือ", "hy_lname": "คลองวัดด่านเหนือ", "district_t": "ยานนาวา", "type": "ทั่วไป"}}, {"type": "Feature", "geometry": {"type": "Point", "coordinates": [100.5351, 13.6713], "crs": null}, "properties": {"gate_name": "ประตูระบายน้ำคลองหลัง รร.เจ้าพระยาวิทยาคม", "hy_lname": "-", "district_t": "ยานนาวา", "type": "ทั่วไป"}}, {"type": "Feature", "geometry": {"type": "Point", "coordinates": [100.54107, 13.67085], "crs": null}, "properties": {"gate_name": "ประตูระบายน้ำคลองโบสถ์", "hy_lname": "คลองโบสถ์", "district_t": "ยานนาวา", "type": "ทั่วไป"}}, {"type": "Feature", "geometry": {"type": "Point", "coordinates": [100.54561, 13.67304], "crs": null}, "properties": {"gate_name": "ประตูระบายน้ำคลองสาน", "hy_lname": "คลองสาน", "district_t": "ยานนาวา", "type": "ทั่วไป"}}, {"type": "Feature", "geometry": {"type": "Point", "coordinates": [100.53229, 13.67338], "crs": null}, "properties": {"gate_name": "ประตูระบายน้ำคลองปริวาส", "hy_lname": "คลองวัดปริวาส", "district_t": "ยานนาวา", "type": "ทั่วไป"}}, {"type": "Feature", "geometry": {"type": "Point", "coordinates": [100.70427, 13.67246], "crs": null}, "properties": {"gate_name": "ประตูระบายน้ำคลองอ้ายสลุด", "hy_lname": "คลองอ้ายสลุด", "district_t": "ประเวศ", "type": "ทั่วไป"}}, {"type": "Feature", "geometry": {"type": "Point", "coordinates": [100.5294, 13.6758], "crs": null}, "properties": {"gate_name": "ประตูระบายน้ำคลองบางโพงพางใต้", "hy_lname": "คลองบางโพงพางใต้", "district_t": "ยานนาวา", "type": "ทั่วไป"}}, {"type": "Feature", "geometry": {"type": "Point", "coordinates": [100.52807, 13.67694], "crs": null}, "properties": {"gate_name": "ประตูระบายน้ำคลองบางโพงพางเหนือ", "hy_lname": "คลองบางโพงพางเหนือ", "district_t": "ยานนาวา", "type": "ทั่วไป"}}, {"type": "Feature", "geometry": {"type": "Point", "coordinates": [100.6632, 13.6779], "crs": null}, "properties": {"gate_name": "ประตูระบายน้ำคลองหนองบอน", "hy_lname": "คลองหนองบอน", "district_t": "ประเวศ", "type": "ทั่วไป"}}, {"type": "Feature", "geometry": {"type": "Point", "coordinates": [100.52563, 13.67923], "crs": null}, "properties": {"gate_name": "ประตูระบายน้ำคลองวัดทองบน", "hy_lname": "คลองวัดทองบน", "district_t": "ยานนาวา", "type": "ทั่วไป"}}, {"type": "Feature", "geometry": {"type": "Point", "coordinates": [100.70529, 13.67886], "crs": null}, "properties": {"gate_name": "ประตูระบายน้ำคลองปากน้ำ", "hy_lname": "คลองปากน้ำ", "district_t": "ประเวศ", "type": "ทั่วไป"}}, {"type": "Feature", "geometry": {"type": "Point", "coordinates": [100.35047, 13.68151], "crs": null}, "properties": {"gate_name": "ประตูระบายน้ำคลองมหาศร", "hy_lname": "คลองมหาศร", "district_t": "หนองแขม", "type": "ทั่วไป"}}, {"type": "Feature", "geometry": {"type": "Point", "coordinates": [100.52404, 13.6807], "crs": null}, "properties": {"gate_name": "ประตูระบายน้ำคลองวัดดอกไม้", "hy_lname": "คลองวัดดอกไม้", "district_t": "ยานนาวา", "type": "ทั่วไป"}}, {"type": "Feature", "geometry": {"type": "Point", "coordinates": [100.51386, 13.68163], "crs": null}, "properties": {"gate_name": "ประตูระบายน้ำคลองบางบูน", "hy_lname": "คลองบางบูน", "district_t": "ราษฎร์บูรณะ", "type": "ทั่วไป"}}, {"type": "Feature", "geometry": {"type": "Point", "coordinates": [100.52276, 13.68174], "crs": null}, "properties": {"gate_name": "ประตูระบายน้ำคลองโรงกลั่นน้ำมัน", "hy_lname": "คลองโรงน้ำมัน", "district_t": "ยานนาวา", "type": "ทั่วไป"}}, {"type": "Feature", "geometry": {"type": "Point", "coordinates": [100.51223, 13.68204], "crs": null}, "properties": {"gate_name": "ประตูระบายน้ำคลองข้างโรงแก้ว", "hy_lname": "คลองผู้ใหญ่สังข์", "district_t": "ราษฎร์บูรณะ", "type": "ทั่วไป"}}, {"type": "Feature", "geometry": {"type": "Point", "coordinates": [100.67337, 13.68125], "crs": null}, "properties": {"gate_name": "ประตูระบายน้ำคลองปลัดเปรียง", "hy_lname": "คลองปลัดเปรียง", "district_t": "ประเวศ", "type": "ทั่วไป"}}, {"type": "Feature", "geometry": {"type": "Point", "coordinates": [100.55059, 13.68343], "crs": null}, "properties": {"gate_name": "ประตูระบายน้ำคลองหีบ", "hy_lname": "คลองหีบ", "district_t": "ยานนาวา", "type": "ทั่วไป"}}, {"type": "Feature", "geometry": {"type": "Point", "coordinates": [100.6462, 13.6835], "crs": null}, "properties": {"gate_name": "ประตูระบายน้ำคลองตาช้าง (ขาเข้า)", "hy_lname": "คลองตาช้าง", "district_t": "ประเวศ", "type": "ทั่วไป"}}, {"type": "Feature", "geometry": {"type": "Point", "coordinates": [100.64676, 13.68354], "crs": null}, "properties": {"gate_name": "ประตูระบายน้ำคลองตาช้าง (ขาออก)", "hy_lname": "คลองตาช้าง", "district_t": "ประเวศ", "type": "ทั่วไป (เหล็ก)"}}, {"type": "Feature", "geometry": {"type": "Point", "coordinates": [100.52131, 13.68466], "crs": null}, "properties": {"gate_name": "ประตูระบายน้ำคลองเสาหิน", "hy_lname": "คลองเสาหิน", "district_t": "ยานนาวา", "type": "ทั่วไป"}}, {"type": "Feature", "geometry": {"type": "Point", "coordinates": [100.51945, 13.68587], "crs": null}, "properties": {"gate_name": "ประตูระบายน้ำคลองมะนาว (ตอนสวนเฉลิมพระเกียรติ)", "hy_lname": "คลองมะนาว", "district_t": "บางคอแหลม", "type": "ทั่วไป"}}, {"type": "Feature", "geometry": {"type": "Point", "coordinates": [100.33086, 13.71374], "crs": null}, "properties": {"gate_name": "ประตูระบายน้ำคลองแสงศิริ", "hy_lname": "-", "district_t": "หนองแขม", "type": "ทั่วไป"}}, {"type": "Feature", "geometry": {"type": "Point", "coordinates": [100.51306, 13.6869], "crs": null}, "properties": {"gate_name": "ประตูระบายน้ำคลองลำกระโดง 8", "hy_lname": "-", "district_t": "บางคอแหลม", "type": "ทั่วไป"}}, {"type": "Feature", "geometry": {"type": "Point", "coordinates": [100.51338, 13.68687], "crs": null}, "properties": {"gate_name": "ประตูระบายน้ำคลองลำกระโดง 9 (คลองตาเหล็ก)", "hy_lname": "คลองตาเหล็ก", "district_t": "บางคอแหลม", "type": "ทั่วไป"}}, {"type": "Feature", "geometry": {"type": "Point", "coordinates": [100.51111, 13.68714], "crs": null}, "properties": {"gate_name": "ประตูระบายน้ำคลองบางโคล่วัด", "hy_lname": "คลองบางโคล่วัด", "district_t": "บางคอแหลม", "type": "ทั่วไป"}}, {"type": "Feature", "geometry": {"type": "Point", "coordinates": [100.54807, 13.68691], "crs": null}, "properties": {"gate_name": "ประตูระบายน้ำคลองตาห่วง", "hy_lname": "คลองถนนพระราม 3", "district_t": "ยานนาวา", "type": "ทั่วไป"}}, {"type": "Feature", "geometry": {"type": "Point", "coordinates": [100.50805, 13.68787], "crs": null}, "properties": {"gate_name": "ประตูระบายน้ำคลองบางโคล่สาร", "hy_lname": "คลองบางโคล่สาร", "district_t": "บางคอแหลม", "type": "ทั่วไป"}}, {"type": "Feature", "geometry": {"type": "Point", "coordinates": [100.5092, 13.68782], "crs": null}, "properties": {"gate_name": "ประตูระบายน้ำคลองบางโคล่ใหญ่", "hy_lname": "คลองบางโคล่ใหญ่", "district_t": "บางคอแหลม", "type": "ทั่วไป"}}, {"type": "Feature", "geometry": {"type": "Point", "coordinates": [100.50447, 13.68792], "crs": null}, "properties": {"gate_name": "ประตูระบายน้ำคลองบางโคล่น้อย", "hy_lname": "คลองบางโคล่น้อย", "district_t": "บางคอแหลม", "type": "ทั่วไป"}}, {"type": "Feature", "geometry": {"type": "Point", "coordinates": [100.50356, 13.68804], "crs": null}, "properties": {"gate_name": "ประตูระบายน้ำคลองข้างโรงเหล็ก", "hy_lname": "คูน้ำแยกคูข้างหมู่บ้านภักดี", "district_t": "บางคอแหลม", "type": "ทั่วไป"}}, {"type": "Feature", "geometry": {"type": "Point", "coordinates": [100.50056, 13.68854], "crs": null}, "properties": {"gate_name": "ประตูระบายน้ำคลองวัดจันทร์นอก", "hy_lname": "คลองวัดจันทร์ใน", "district_t": "บางคอแหลม", "type": "ทั่วไป"}}, {"type": "Feature", "geometry": {"type": "Point", "coordinates": [100.5505, 13.68824], "crs": null}, "properties": {"gate_name": "ประตูระบายน้ำคลองลำกระโดงข้างเชียงกง", "hy_lname": "-", "district_t": "ยานนาวา", "type": "ทั่วไป"}}, {"type": "Feature", "geometry": {"type": "Point", "coordinates": [100.49846, 13.68927], "crs": null}, "properties": {"gate_name": "ประตูระบายน้ำคลองภาษี", "hy_lname": "-", "district_t": "บางคอแหลม", "type": "ทั่วไป"}}, {"type": "Feature", "geometry": {"type": "Point", "coordinates": [100.55036, 13.68898], "crs": null}, "properties": {"gate_name": "ประตูระบายน้ำคลองยายหรั่ง", "hy_lname": "คลองยายหรั่ง", "district_t": "ยานนาวา", "type": "ทั่วไป"}}, {"type": "Feature", "geometry": {"type": "Point", "coordinates": [100.48842, 13.76961], "crs": null}, "properties": {"gate_name": "ประตูระบายน้ำคลองวัดดาวดึง", "hy_lname": "-", "district_t": "บางพลัด", "type": "ทั่วไป"}}, {"type": "Feature", "geometry": {"type": "Point", "coordinates": [100.49727, 13.68984], "crs": null}, "properties": {"gate_name": "ประตูระบายน้ำคลองลำกระโดงสาธารณะ 7", "hy_lname": "-", "district_t": "บางคอแหลม", "type": "ทั่วไป"}}, {"type": "Feature", "geometry": {"type": "Point", "coordinates": [100.50358, 13.6902], "crs": null}, "properties": {"gate_name": "ประตูระบายน้ำคลองหน้าหมู่บ้านภักดี", "hy_lname": "คลองถนนพระราม 3", "district_t": "บางคอแหลม", "type": "ทั่วไป"}}, {"type": "Feature", "geometry": {"type": "Point", "coordinates": [100.49594, 13.69045], "crs": null}, "properties": {"gate_name": "ประตูระบายน้ำคลองบางคอแหลม", "hy_lname": "คลองบางคอแหลม", "district_t": "บางคอแหลม", "type": "ทั่วไป"}}, {"type": "Feature", "geometry": {"type": "Point", "coordinates": [100.49421, 13.69143], "crs": null}, "properties": {"gate_name": "ประตูระบายน้ำคลองสวน", "hy_lname": "-", "district_t": "บางคอแหลม", "type": "ทั่วไป"}}, {"type": "Feature", "geometry": {"type": "Point", "coordinates": [100.49329, 13.69215], "crs": null}, "properties": {"gate_name": "ประตูระบายน้ำคลองถนนตก", "hy_lname": "คลองโรงฆ่าสัตว์", "district_t": "บางคอแหลม", "type": "ทั่วไป"}}, {"type": "Feature", "geometry": {"type": "Point", "coordinates": [100.54968, 13.69268], "crs": null}, "properties": {"gate_name": "ประตูระบายน้ำคลองวัดช่องนนทรี", "hy_lname": "คลองวัดช่องนนทรี", "district_t": "ยานนาวา", "type": "ทั่วไป"}}, {"type": "Feature", "geometry": {"type": "Point", "coordinates": [100.49191, 13.69375], "crs": null}, "properties": {"gate_name": "ประตูระบายน้ำคลองลำกระโดงสาธารณะ 4", "hy_lname": "ลำกระโดง", "district_t": "บางคอแหลม", "type": "ทั่วไป"}}, {"type": "Feature", "geometry": {"type": "Point", "coordinates": [100.54725, 13.69382], "crs": null}, "properties": {"gate_name": "ประตูระบายน้ำคลองเกาะกลางถนนพระราม 3", "hy_lname": "คลองถนนพระราม 3", "district_t": "ยานนาวา", "type": "ทั่วไป"}}, {"type": "Feature", "geometry": {"type": "Point", "coordinates": [100.49174, 13.69501], "crs": null}, "properties": {"gate_name": "ประตูระบายน้ำคลองลำกระโดงสาธารณะ 3", "hy_lname": "คูน้ำมไหสวรรย์ ", "district_t": "บางคอแหลม", "type": "ทั่วไป"}}, {"type": "Feature", "geometry": {"type": "Point", "coordinates": [100.70965, 13.69519], "crs": null}, "properties": {"gate_name": "ประตูระบายน้ำคลองขันแตก", "hy_lname": "คลองขันแตก", "district_t": "ประเวศ", "type": "ทั่วไป"}}, {"type": "Feature", "geometry": {"type": "Point", "coordinates": [100.49169, 13.69669], "crs": null}, "properties": {"gate_name": "ประตูระบายน้ำคลองลำกระโดงสาธารณะ 2", "hy_lname": "คูน้ำซอยมาตานุสรณ์", "district_t": "บางคอแหลม", "type": "ทั่วไป"}}, {"type": "Feature", "geometry": {"type": "Point", "coordinates": [100.4892, 13.69928], "crs": null}, "properties": {"gate_name": "ประตูระบายน้ำคลองบุคคโล", "hy_lname": "คลองข้างวัดบุคคโล", "district_t": "ธนบุรี", "type": "ทั่วไป"}}, {"type": "Feature", "geometry": {"type": "Point", "coordinates": [100.49299, 13.69917], "crs": null}, "properties": {"gate_name": "ประตูระบายน้ำคลองลำกระโดงสาธารณะ 1", "hy_lname": "คูน้ำข้างกองฝึกกรมศุลกากร", "district_t": "บางคอแหลม", "type": "ทั่วไป"}}, {"type": "Feature", "geometry": {"type": "Point", "coordinates": [100.48988, 13.70067], "crs": null}, "properties": {"gate_name": "ประตูระบายน้ำคลองข้างโกดังหวั่งหลี", "hy_lname": "-", "district_t": "ธนบุรี", "type": "ทั่วไป"}}, {"type": "Feature", "geometry": {"type": "Point", "coordinates": [100.54912, 13.70033], "crs": null}, "properties": {"gate_name": "ประตูระบายน้ำคลองขุด", "hy_lname": "คลองขุด", "district_t": "ยานนาวา", "type": "ทั่วไป"}}, {"type": "Feature", "geometry": {"type": "Point", "coordinates": [100.54097, 13.70035], "crs": null}, "properties": {"gate_name": "ประตูระบายน้ำคลองมะนาว (ตอนถนนนราธิวาสราชนครินทร์)", "hy_lname": "คลองมะนาว", "district_t": "ยานนาวา", "type": "ทั่วไป"}}, {"type": "Feature", "geometry": {"type": "Point", "coordinates": [100.50911, 13.70107], "crs": null}, "properties": {"gate_name": "ประตูระบายน้ำคลองวัดทองนพคุณ", "hy_lname": "-", "district_t": "บางคอแหลม", "type": "ทั่วไป"}}, {"type": "Feature", "geometry": {"type": "Point", "coordinates": [100.46828, 13.70164], "crs": null}, "properties": {"gate_name": "ประตูระบายน้ำคลองบางค้อ (ตอนถนนวุฒากาศ)", "hy_lname": "คลองบางค้อ", "district_t": "จอมทอง", "type": "ทั่วไป"}}, {"type": "Feature", "geometry": {"type": "Point", "coordinates": [100.46485, 13.70182], "crs": null}, "properties": {"gate_name": "ประตูระบายน้ำคลองวัดราชโอรส", "hy_lname": "-", "district_t": "จอมทอง", "type": "ทั่วไป"}}, {"type": "Feature", "geometry": {"type": "Point", "coordinates": [100.64636, 13.70261], "crs": null}, "properties": {"gate_name": "ประตูระบายน้ำคลองตาสาด", "hy_lname": "คลองตาสาด", "district_t": "ประเวศ", "type": "ทั่วไป (เหล็ก)"}}, {"type": "Feature", "geometry": {"type": "Point", "coordinates": [100.58692, 13.70445], "crs": null}, "properties": {"gate_name": "ประตูระบายน้ำคลองพลับ", "hy_lname": "คลองพลับ", "district_t": "คลองเตย", "type": "ทั่วไป"}}, {"type": "Feature", "geometry": {"type": "Point", "coordinates": [100.49651, 13.70661], "crs": null}, "properties": {"gate_name": "ประตูระบายน้ำคลองสะพานพลอย", "hy_lname": "-", "district_t": "ธนบุรี", "type": "ทั่วไป"}}, {"type": "Feature", "geometry": {"type": "Point", "coordinates": [100.59031, 13.70647], "crs": null}, "properties": {"gate_name": "ประตูระบายน้ำโรงฟอกหนัง", "hy_lname": "คลองพระโขนง", "district_t": "คลองเตย", "type": "ทั่วไป"}}, {"type": "Feature", "geometry": {"type": "Point", "coordinates": [100.50128, 13.70846], "crs": null}, "properties": {"gate_name": "ประตูระบายน้ำคลองโรงปลา (เจริญนคร 49)", "hy_lname": "คลองโรงปลา", "district_t": "คลองสาน", "type": "ทั่วไป"}}, {"type": "Feature", "geometry": {"type": "Point", "coordinates": [100.5063, 13.70831], "crs": null}, "properties": {"gate_name": "ประตูระบายน้ำคลองบ้านใหม่", "hy_lname": "คลองขวางบ้านใหม่", "district_t": "บางคอแหลม", "type": "ทั่วไป"}}, {"type": "Feature", "geometry": {"type": "Point", "coordinates": [100.49941, 13.70872], "crs": null}, "properties": {"gate_name": "ประตูระบายน้ำคลองโรงภาษี (เจริญนคร 53)", "hy_lname": "คลองโรงภาษี", "district_t": "คลองสาน", "type": "ทั่วไป"}}, {"type": "Feature", "geometry": {"type": "Point", "coordinates": [100.46668, 13.70924], "crs": null}, "properties": {"gate_name": "ประตูระบายน้ำคลองต้นไทร(ตอนถนนวุฒากาศ)", "hy_lname": "คลองต้นไทร", "district_t": "จอมทอง", "type": "ทั่วไป"}}, {"type": "Feature", "geometry": {"type": "Point", "coordinates": [100.59152, 13.70847], "crs": null}, "properties": {"gate_name": "ประตูระบายน้ำคลองยายสร้อย", "hy_lname": "คลองยายสร้อย", "district_t": "คลองเตย", "type": "ทั่วไป"}}, {"type": "Feature", "geometry": {"type": "Point", "coordinates": [100.50282, 13.70957], "crs": null}, "properties": {"gate_name": "ประตูระบายน้ำคลองหลังซอยจำเริญ(เจริญนคร 39)", "hy_lname": "คลองโรงหนัง", "district_t": "คลองสาน", "type": "ทั่วไป"}}, {"type": "Feature", "geometry": {"type": "Point", "coordinates": [100.37149, 13.71093], "crs": null}, "properties": {"gate_name": "ประตูระบายน้ำคลองบางจาก", "hy_lname": "คลองบางจาก", "district_t": "หนองแขม", "type": "ทั่วไป"}}, {"type": "Feature", "geometry": {"type": "Point", "coordinates": [100.5943, 13.7096], "crs": null}, "properties": {"gate_name": "ประตูระบายน้ำปิยวัชร", "hy_lname": "คลองพระโขนง", "district_t": "คลองเตย", "type": "ทั่วไป"}}, {"type": "Feature", "geometry": {"type": "Point", "coordinates": [100.46707, 13.71062], "crs": null}, "properties": {"gate_name": "ประตูระบายน้ำคลองจีน (ตอนถนนวุฒากาศ)", "hy_lname": "คลองจีน", "district_t": "จอมทอง", "type": "ทั่วไป"}}, {"type": "Feature", "geometry": {"type": "Point", "coordinates": [100.46767, 13.71046], "crs": null}, "properties": {"gate_name": "ประตูระบายน้ำคลองวัดใหม่ยายนุ้ย 1 (คลองด่าน)", "hy_lname": "-", "district_t": "จอมทอง", "type": "ทั่วไป"}}, {"type": "Feature", "geometry": {"type": "Point", "coordinates": [100.46631, 13.71095], "crs": null}, "properties": {"gate_name": "ประตูระบายน้ำคลองตาแผลง", "hy_lname": "คลองตาแผลง", "district_t": "จอมทอง", "type": "ทั่วไป"}}, {"type": "Feature", "geometry": {"type": "Point", "coordinates": [100.50053, 13.71073], "crs": null}, "properties": {"gate_name": "ประตูระบายน้ำคลองโรงน้ำแข็ง (เจริญนคร 41)", "hy_lname": "คลองข้างโรงน้ำแข็ง", "district_t": "คลองสาน", "type": "ทั่วไป"}}, {"type": "Feature", "geometry": {"type": "Point", "coordinates": [100.46919, 13.7121], "crs": null}, "properties": {"gate_name": "ประตูระบายน้ำคลองวัดใหม่ยายนุ้ย 2 (คลองด่าน)", "hy_lname": "คลองศาลเจ้าต้นโพธิ์", "district_t": "ธนบุรี", "type": "ทั่วไป"}}, {"type": "Feature", "geometry": {"type": "Point", "coordinates": [100.63691, 13.71115], "crs": null}, "properties": {"gate_name": "ประตูระบายน้ำคลองศาลเจ้า", "hy_lname": "คลองศาลเจ้า", "district_t": "สวนหลวง", "type": "ทั่วไป (เหล็ก)"}}, {"type": "Feature", "geometry": {"type": "Point", "coordinates": [100.46961, 13.71267], "crs": null}, "properties": {"gate_name": "ประตูระบายน้ำคลองห้าเจดีย์", "hy_lname": "คลองศิริจันทร์", "district_t": "ธนบุรี", "type": "ทั่วไป"}}, {"type": "Feature", "geometry": {"type": "Point", "coordinates": [100.46863, 13.71309], "crs": null}, "properties": {"gate_name": "ประตูระบายน้ำคลองตาม่วง", "hy_lname": "คลองด่าน", "district_t": "จอมทอง", "type": "ทั่วไป"}}, {"type": "Feature", "geometry": {"type": "Point", "coordinates": [100.50722, 13.71335], "crs": null}, "properties": {"gate_name": "ประตูระบายน้ำปากคลองบางลำภูล่าง", "hy_lname": "คลองบางลำภูล่าง", "district_t": "คลองสาน", "type": "ทั่วไป"}}, {"type": "Feature", "geometry": {"type": "Point", "coordinates": [100.46897, 13.71522], "crs": null}, "properties": {"gate_name": "ประตูระบายน้ำคลองซอยด่านแปด", "hy_lname": "-", "district_t": "จอมทอง", "type": "ทั่วไป"}}, {"type": "Feature", "geometry": {"type": "Point", "coordinates": [100.50863, 13.71534], "crs": null}, "properties": {"gate_name": "ประตูระบายน้ำคลองข้างสายชลแมนชั่น", "hy_lname": "-", "district_t": "คลองสาน", "type": "ทั่วไป"}}, {"type": "Feature", "geometry": {"type": "Point", "coordinates": [100.47086, 13.71577], "crs": null}, "properties": {"gate_name": "ประตูระบายน้ำคลองข้างธนาคารนครหลวงไทย", "hy_lname": "คลองข้างธนาคารนครหลวงไทย", "district_t": "ธนบุรี", "type": "ทั่วไป"}}, {"type": "Feature", "geometry": {"type": "Point", "coordinates": [100.54397, 13.72592], "crs": null}, "properties": {"gate_name": "ประตูระบายน้ำสาทรช่วงสะพานไทย-เบลเยี่ยม", "hy_lname": "คลองสาทร", "district_t": "บางรัก", "type": "ทั่วไป"}}, {"type": "Feature", "geometry": {"type": "Point", "coordinates": [100.4684, 13.71602], "crs": null}, "properties": {"gate_name": "ประตูระบายน้ำวัดนางชี", "hy_lname": "คลองวัดเพลง-วัดนางชี", "district_t": "จอมทอง", "type": "ทั่วไป"}}, {"type": "Feature", "geometry": {"type": "Point", "coordinates": [100.36139, 13.71715], "crs": null}, "properties": {"gate_name": "ประตูระบายน้ำคลองราษฎร์เจริญสุข (โรงบำบัดน้ำเสียหนองแขม)", "hy_lname": "คลองราษฏร์เจริญสุข", "district_t": "หนองแขม", "type": "ทั่วไป"}}, {"type": "Feature", "geometry": {"type": "Point", "coordinates": [100.4663, 13.71677], "crs": null}, "properties": {"gate_name": "ประตูระบายน้ำคลองวัดนาคปรก", "hy_lname": "คลองวัดเพลง-วัดนางชี", "district_t": "จอมทอง", "type": "ทั่วไป"}}, {"type": "Feature", "geometry": {"type": "Point", "coordinates": [100.46895, 13.7176], "crs": null}, "properties": {"gate_name": "ประตูระบายน้ำคลองด่าน 8 (ปากคลองนาคปรก)", "hy_lname": "คลองวัดเพลง-วัดนางชี", "district_t": "จอมทอง", "type": "ทั่วไป"}}, {"type": "Feature", "geometry": {"type": "Point", "coordinates": [100.36778, 13.71864], "crs": null}, "properties": {"gate_name": "ประตูระบายน้ำคลองราษฎร์เจริญสุข (คลองทวีวัฒนา)", "hy_lname": "คลองราษฏร์เจริญสุข", "district_t": "หนองแขม", "type": "ทั่วไป"}}, {"type": "Feature", "geometry": {"type": "Point", "coordinates": [100.51004, 13.71782], "crs": null}, "properties": {"gate_name": "ประตูระบายน้ำปากคลองต้นไทร", "hy_lname": "คลองต้นไทร", "district_t": "คลองสาน", "type": "ทั่วไป"}}, {"type": "Feature", "geometry": {"type": "Point", "coordinates": [100.48212, 13.72245], "crs": null}, "properties": {"gate_name": "ประตูระบายน้ำคลองสำเหร่ (ถนนเทอดไท)", "hy_lname": "คลองสำเหร่", "district_t": "ธนบุรี", "type": "ทั่วไป"}}, {"type": "Feature", "geometry": {"type": "Point", "coordinates": [100.50675, 13.72342], "crs": null}, "properties": {"gate_name": "ประตูระบายน้ำคลองรางจาก", "hy_lname": "คลองวัดสุวรรณ", "district_t": "คลองสาน", "type": "ทั่วไป"}}, {"type": "Feature", "geometry": {"type": "Point", "coordinates": [100.50876, 13.72346], "crs": null}, "properties": {"gate_name": "ประตูระบายน้ำคลองวัดสุวรรณ(เจริญนคร 2  1/2)", "hy_lname": "คลองวัดสุวรรณ", "district_t": "คลองสาน", "type": "ทั่วไป"}}, {"type": "Feature", "geometry": {"type": "Point", "coordinates": [100.48562, 13.72472], "crs": null}, "properties": {"gate_name": "ประตูระบายน้ำสุเหร่าสวนพลู", "hy_lname": "คลองสุเหร่าสวนพลู", "district_t": "ธนบุรี", "type": "ทั่วไป"}}, {"type": "Feature", "geometry": {"type": "Point", "coordinates": [100.6896, 13.724], "crs": null}, "properties": {"gate_name": "ประตูระบายน้ำประเวศบุรีรมย์ (ตอนกระทุ่มเสือปลา)", "hy_lname": "คลองประเวศบุรีรมย์", "district_t": "ประเวศ", "type": "ทั่วไป"}}, {"type": "Feature", "geometry": {"type": "Point", "coordinates": [100.74987, 13.72413], "crs": null}, "properties": {"gate_name": "ประตูระบายน้ำลาดกระบัง", "hy_lname": "คลองประเวศบุรีรมย์", "district_t": "ลาดกระบัง", "type": "ทั่วไป"}}, {"type": "Feature", "geometry": {"type": "Point", "coordinates": [100.51145, 13.72578], "crs": null}, "properties": {"gate_name": "ประตูระบายน้ำปากคลองวัดทองเพลง", "hy_lname": "คลองวัดทองเพลง", "district_t": "คลองสาน", "type": "ทั่วไป"}}, {"type": "Feature", "geometry": {"type": "Point", "coordinates": [100.51146, 13.72827], "crs": null}, "properties": {"gate_name": "ประตูระบายน้ำคลองเทพา", "hy_lname": "คลองเทพา", "district_t": "คลองสาน", "type": "ทั่วไป"}}, {"type": "Feature", "geometry": {"type": "Point", "coordinates": [100.51332, 13.72966], "crs": null}, "properties": {"gate_name": "ประตูระบายน้ำข้างโซฟิเทล", "hy_lname": "-", "district_t": "บางรัก", "type": "ทั่วไป"}}, {"type": "Feature", "geometry": {"type": "Point", "coordinates": [100.51025, 13.73226], "crs": null}, "properties": {"gate_name": "ประตูระบายน้ำซอยสมเด็จเจ้าพระยา 17", "hy_lname": "ลำกระโดง", "district_t": "คลองสาน", "type": "ทั่วไป"}}, {"type": "Feature", "geometry": {"type": "Point", "coordinates": [100.50963, 13.73327], "crs": null}, "properties": {"gate_name": "ประตูระบายน้ำคลองข้างวัดทองนพคุณ", "hy_lname": "คลองวัดทองนพคุณล่าง", "district_t": "คลองสาน", "type": "ทั่วไป"}}, {"type": "Feature", "geometry": {"type": "Point", "coordinates": [100.34825, 13.73565], "crs": null}, "properties": {"gate_name": "ประตูระบายน้ำคลองกำนันประทีป", "hy_lname": "คลองกำนันประทีป", "district_t": "หนองแขม", "type": "ทั่วไป"}}, {"type": "Feature", "geometry": {"type": "Point", "coordinates": [100.50734, 13.73519], "crs": null}, "properties": {"gate_name": "ประตูระบายน้ำคลองวัดทองธรรมชาติ", "hy_lname": "-", "district_t": "คลองสาน", "type": "ทั่วไป"}}, {"type": "Feature", "geometry": {"type": "Point", "coordinates": [100.50596, 13.73578], "crs": null}, "properties": {"gate_name": "ประตูระบายน้ำคลองบ้านหลวงวารี", "hy_lname": "คลองหลวงวารี (ช่วงที่ 2)", "district_t": "คลองสาน", "type": "ทั่วไป"}}, {"type": "Feature", "geometry": {"type": "Point", "coordinates": [100.48892, 13.73731], "crs": null}, "properties": {"gate_name": "ประตูระบายน้ำคลองบุบผาราม", "hy_lname": "คลองบุปผาราม", "district_t": "ธนบุรี", "type": "ทั่วไป"}}, {"type": "Feature", "geometry": {"type": "Point", "coordinates": [100.49294, 13.73986], "crs": null}, "properties": {"gate_name": "ประตูระบายน้ำคลองกุฎีจีน", "hy_lname": "คลองกุฎีจีน", "district_t": "ธนบุรี", "type": "ทั่วไป"}}, {"type": "Feature", "geometry": {"type": "Point", "coordinates": [100.8786, 13.7379], "crs": null}, "properties": {"gate_name": "ทำนบและประตูระบายน้ำคลองลำตาแฝง", "hy_lname": "คลองหลวงแพ่ง", "district_t": "หนองจอก", "type": "ทั่วไป"}}, {"type": "Feature", "geometry": {"type": "Point", "coordinates": [100.59638, 13.74114], "crs": null}, "properties": {"gate_name": "ประตูระบายน้ำแสนแสบเก่า", "hy_lname": "คลองแสนแสบ", "district_t": "ห้วยขวาง", "type": "ทั่วไป"}}, {"type": "Feature", "geometry": {"type": "Point", "coordinates": [100.8798, 13.7403], "crs": null}, "properties": {"gate_name": "ทำนบและประตูระบายน้ำคลองลำตาอิน", "hy_lname": "คลองแยกคลองลำวังคา", "district_t": "หนองจอก", "type": "ทั่วไป"}}, {"type": "Feature", "geometry": {"type": "Point", "coordinates": [100.61045, 13.74353], "crs": null}, "properties": {"gate_name": "ประตูระบายน้ำคลองสะแก (ตอนถนนนพระราม 9)", "hy_lname": "คลองกะจะ", "district_t": "สวนหลวง", "type": "ทั่วไป"}}, {"type": "Feature", "geometry": {"type": "Point", "coordinates": [100.48702, 13.74464], "crs": null}, "properties": {"gate_name": "ประตูระบายน้ำคลองวัดอรุณ", "hy_lname": "คลองวัดอรุณ", "district_t": "บางกอกใหญ่", "type": "ทั่วไป"}}, {"type": "Feature", "geometry": {"type": "Point", "coordinates": [100.48513, 13.74714], "crs": null}, "properties": {"gate_name": "ประตูระบายน้ำวัดระฆัง (สถานีสูบน้ำคลองมอญ)", "hy_lname": "คลองมอญ", "district_t": "บางกอกใหญ่", "type": "ทั่วไป"}}, {"type": "Feature", "geometry": {"type": "Point", "coordinates": [100.64399, 13.74649], "crs": null}, "properties": {"gate_name": "ประตูระบายน้ำคลองกะจะ (ตอนถนนศรีนครินทร์)", "hy_lname": "คลองกะจะ", "district_t": "บางกะปิ", "type": "ทั่วไป"}}, {"type": "Feature", "geometry": {"type": "Point", "coordinates": [100.52123, 13.77781], "crs": null}, "properties": {"gate_name": "ประตูระบายน้ำดุสิต", "hy_lname": "คลองเปรมประชากร", "district_t": "ดุสิต", "type": "ทั่วไป"}}, {"type": "Feature", "geometry": {"type": "Point", "coordinates": [100.5038, 13.7478], "crs": null}, "properties": {"gate_name": "ประตูระบายน้ำวัดราชบพิธ", "hy_lname": "คลองหลอดวัดราชบพิธ", "district_t": "พระนคร", "type": "ทั่วไป"}}, {"type": "Feature", "geometry": {"type": "Point", "coordinates": [100.56923, 13.7479], "crs": null}, "properties": {"gate_name": "ประตูระบายน้ำคลองบางกะปิ (ตอนถนนเพชรบุรี)", "hy_lname": "คลองบางกะปิ", "district_t": "ห้วยขวาง", "type": "ทั่วไป"}}, {"type": "Feature", "geometry": {"type": "Point", "coordinates": [100.52423, 13.74891], "crs": null}, "properties": {"gate_name": "ประตูระบายน้ำคลองสวนหลวง (ตอนคลองแสนแสบ)", "hy_lname": "คลองนางหงษ์", "district_t": "ปทุมวัน", "type": "ทั่วไป"}}, {"type": "Feature", "geometry": {"type": "Point", "coordinates": [100.56962, 13.74913], "crs": null}, "properties": {"gate_name": "ประตูระบายน้ำคลองบางกะปิ (ตอนวัดอุทัยทาราม)", "hy_lname": "คลองบางกะปิ", "district_t": "ห้วยขวาง", "type": "ทั่วไป"}}, {"type": "Feature", "geometry": {"type": "Point", "coordinates": [100.56243, 13.75297], "crs": null}, "properties": {"gate_name": "ประตูระบายน้ำบึงมักกะสัน (ด้านทิศตะวันออก)", "hy_lname": "-", "district_t": "ราชเทวี", "type": "ทั่วไป"}}, {"type": "Feature", "geometry": {"type": "Point", "coordinates": [100.50534, 13.75383], "crs": null}, "properties": {"gate_name": "ประตูระบายน้ำวัดเทพธิดา", "hy_lname": "คลอดหลอดวัดราชนัดดา", "district_t": "พระนคร", "type": "ทั่วไป"}}, {"type": "Feature", "geometry": {"type": "Point", "coordinates": [100.60716, 13.75422], "crs": null}, "properties": {"gate_name": "ประตูระบายน้ำคลองพลับพลา (ตอนคลองแสนแสบ)", "hy_lname": "คลองพลับพลา", "district_t": "วังทองหลาง", "type": "ทั่วไป"}}, {"type": "Feature", "geometry": {"type": "Point", "coordinates": [100.59896, 13.75657], "crs": null}, "properties": {"gate_name": "ประตูระบายน้ำคลองพลับ", "hy_lname": "ลำรางทางกระบือ", "district_t": "วังทองหลาง", "type": "ทั่วไป"}}, {"type": "Feature", "geometry": {"type": "Point", "coordinates": [100.51159, 13.76162], "crs": null}, "properties": {"gate_name": "ประตูระบายน้ำคูคลองข้างทำเนียบ", "hy_lname": "คลองผดุงกรุงเกษม", "district_t": "ดุสิต", "type": "ทั่วไป"}}, {"type": "Feature", "geometry": {"type": "Point", "coordinates": [100.48404, 13.76196], "crs": null}, "properties": {"gate_name": "ประตูระบายน้ำคลองขนมจีน", "hy_lname": "คลองขนมจีน", "district_t": "บางกอกน้อย", "type": "ทั่วไป"}}, {"type": "Feature", "geometry": {"type": "Point", "coordinates": [100.48822, 13.762], "crs": null}, "properties": {"gate_name": "ประตูระบายน้ำคลองข้าง รร.วัดดุสิต (สถานีสูบน้ำคลองดุสิด)", "hy_lname": "คลองบ้านขนมจีน", "district_t": "บางกอกน้อย", "type": "ทั่วไป"}}, {"type": "Feature", "geometry": {"type": "Point", "coordinates": [100.48232, 13.76201], "crs": null}, "properties": {"gate_name": "ประตูระบายน้ำแผนกเรือราชพิธี", "hy_lname": "-", "district_t": "บางกอกน้อย", "type": "ทั่วไป"}}, {"type": "Feature", "geometry": {"type": "Point", "coordinates": [100.48063, 13.76264], "crs": null}, "properties": {"gate_name": "ประตูระบายน้ำคลองคราม", "hy_lname": "คลองคราม", "district_t": "บางกอกน้อย", "type": "ทั่วไป"}}, {"type": "Feature", "geometry": {"type": "Point", "coordinates": [100.49054, 13.76391], "crs": null}, "properties": {"gate_name": "ประตูระบายน้ำคลองเจ้าครุฑ", "hy_lname": "คลองเจ้าครุฑ", "district_t": "บางพลัด", "type": "ทั่วไป"}}, {"type": "Feature", "geometry": {"type": "Point", "coordinates": [100.47844, 13.7639], "crs": null}, "properties": {"gate_name": "ประตูระบายน้ำคลองข้าง ส.คลองน้ำตาล (ชุมชนสันติสงเคราะห์)", "hy_lname": "คลองน้ำตาล", "district_t": "บางกอกน้อย", "type": "ทั่วไป"}}, {"type": "Feature", "geometry": {"type": "Point", "coordinates": [100.47468, 13.76563], "crs": null}, "properties": {"gate_name": "ประตูระบายน้ำคลองวัดใหม่ยายแป้น", "hy_lname": "-", "district_t": "บางกอกน้อย", "type": "ทั่วไป"}}, {"type": "Feature", "geometry": {"type": "Point", "coordinates": [100.4763, 13.7656], "crs": null}, "properties": {"gate_name": "ประตูระบายน้ำคลองข้าง ส.คลองพิณพาทย์ (ชุมชนสันติสงเคราะห์)", "hy_lname": "คลองพิณพาทย์", "district_t": "บางกอกน้อย", "type": "ทั่วไป"}}, {"type": "Feature", "geometry": {"type": "Point", "coordinates": [100.49296, 13.76577], "crs": null}, "properties": {"gate_name": "ประตูระบายน้ำคลองวัดคฤหบดี", "hy_lname": "คลองวัดดาวดึงษาราม", "district_t": "บางพลัด", "type": "ทั่วไป"}}, {"type": "Feature", "geometry": {"type": "Point", "coordinates": [100.50743, 13.76585], "crs": null}, "properties": {"gate_name": "ระบบส่งน้ำเข้าพระที่นั่งวิมานเมฆ", "hy_lname": "คลองผดุงกรุงเกษม", "district_t": "ดุสิต", "type": "ทั่วไป"}}, {"type": "Feature", "geometry": {"type": "Point", "coordinates": [100.47506, 13.76644], "crs": null}, "properties": {"gate_name": "ประตูระบายน้ำคลองต้นไทร", "hy_lname": "-", "district_t": "บางกอกน้อย", "type": "ทั่วไป"}}, {"type": "Feature", "geometry": {"type": "Point", "coordinates": [100.47414, 13.76753], "crs": null}, "properties": {"gate_name": "ประตูระบายน้ำคลองมะนาว", "hy_lname": "คลองมะนาว", "district_t": "บางกอกน้อย", "type": "ทั่วไป"}}, {"type": "Feature", "geometry": {"type": "Point", "coordinates": [100.47367, 13.76855], "crs": null}, "properties": {"gate_name": "ประตูระบายน้ำคลองดอกไม้", "hy_lname": "คลองน้ำดอกไม้", "district_t": "บางกอกน้อย", "type": "ทั่วไป"}}, {"type": "Feature", "geometry": {"type": "Point", "coordinates": [100.4697, 13.7689], "crs": null}, "properties": {"gate_name": "ประตูระบายน้ำปากคลองบางขุนนนท์", "hy_lname": "คลองบางขุนนนท์", "district_t": "บางกอกน้อย", "type": "ทั่วไป"}}, {"type": "Feature", "geometry": {"type": "Point", "coordinates": [100.473, 13.76909], "crs": null}, "properties": {"gate_name": "ประตูระบายน้ำคลองข้างพาณิชย์จรัล", "hy_lname": "คลองวัดปฐมบุตรอิศราราม", "district_t": "บางกอกน้อย", "type": "ทั่วไป"}}, {"type": "Feature", "geometry": {"type": "Point", "coordinates": [100.47245, 13.77185], "crs": null}, "properties": {"gate_name": "ประตูระบายน้ำคลองพริกป่น", "hy_lname": "คลองพริกป่น", "district_t": "บางกอกน้อย", "type": "ทั่วไป"}}, {"type": "Feature", "geometry": {"type": "Point", "coordinates": [100.89814, 13.77004], "crs": null}, "properties": {"gate_name": "ทำนบและประตูระบายน้ำคลองปากคลองลำต้อยติ่ง", "hy_lname": "คลองหลวงแพ่ง", "district_t": "หนองจอก", "type": "ทั่วไป"}}, {"type": "Feature", "geometry": {"type": "Point", "coordinates": [100.49655, 13.77264], "crs": null}, "properties": {"gate_name": "ประตูระบายน้ำคลองข้างวัดคฤหบดี", "hy_lname": "คลองวัดคฤหบดี", "district_t": "บางพลัด", "type": "ทั่วไป"}}, {"type": "Feature", "geometry": {"type": "Point", "coordinates": [100.47004, 13.77488], "crs": null}, "properties": {"gate_name": "ประตูระบายน้ำคลองสวนมะม่วง", "hy_lname": "-", "district_t": "บางกอกน้อย", "type": "ทั่วไป"}}, {"type": "Feature", "geometry": {"type": "Point", "coordinates": [100.47111, 13.7748], "crs": null}, "properties": {"gate_name": "ประตูระบายน้ำคูน้ำข้างวัดนายโรง", "hy_lname": "-", "district_t": "บางกอกน้อย", "type": "ทั่วไป"}}, {"type": "Feature", "geometry": {"type": "Point", "coordinates": [100.50254, 13.77503], "crs": null}, "properties": {"gate_name": "ประตูระบายน้ำท่าวาสุกรี", "hy_lname": "คลองท่าวาสุกรี", "district_t": "ดุสิต", "type": "ทั่วไป"}}, {"type": "Feature", "geometry": {"type": "Point", "coordinates": [100.49841, 13.77561], "crs": null}, "properties": {"gate_name": "ประตูระบายน้ำคลองวัดบวรมงคล", "hy_lname": "คลองวัดบวรมงคล", "district_t": "บางพลัด", "type": "ทั่วไป"}}, {"type": "Feature", "geometry": {"type": "Point", "coordinates": [100.47071, 13.77643], "crs": null}, "properties": {"gate_name": "ประตูระบายน้ำบริเวณข้างหมู่บ้านพันธุ์ศักดิ์", "hy_lname": "-", "district_t": "บางกอกน้อย", "type": "ทั่วไป"}}, {"type": "Feature", "geometry": {"type": "Point", "coordinates": [100.46973, 13.77671], "crs": null}, "properties": {"gate_name": "ประตูระบายน้ำคลองวัดใหม่ภาวนา (ปากคลอง)", "hy_lname": "คลองวัดใหม่ภาวนา", "district_t": "บางกอกน้อย", "type": "ทั่วไป"}}, {"type": "Feature", "geometry": {"type": "Point", "coordinates": [100.50261, 13.77656], "crs": null}, "properties": {"gate_name": "ประตูระบายน้ำวัดราชาธิวาส", "hy_lname": "คลองวัดราชาธิวาส", "district_t": "ดุสิต", "type": "ทั่วไป"}}, {"type": "Feature", "geometry": {"type": "Point", "coordinates": [100.65241, 13.77688], "crs": null}, "properties": {"gate_name": "ประตูระบายน้ำคลองลำพังพวย (ตอนเชื่อมบึงลำพังพวย)", "hy_lname": "คลองลำพังพวย", "district_t": "บางกะปิ", "type": "ทั่วไป"}}, {"type": "Feature", "geometry": {"type": "Point", "coordinates": [100.34403, 13.77881], "crs": null}, "properties": {"gate_name": "ประตูระบายน้ำคลองสวัสดิ์", "hy_lname": "คลองศรีศุภผล", "district_t": "ทวีวัฒนา", "type": "ทั่วไป"}}, {"type": "Feature", "geometry": {"type": "Point", "coordinates": [100.47035, 13.77846], "crs": null}, "properties": {"gate_name": "ประตูระบายน้ำบริเวณข้างคลองพิกุล", "hy_lname": "คลองวัดพิกุล", "district_t": "บางกอกน้อย", "type": "ทั่วไป"}}, {"type": "Feature", "geometry": {"type": "Point", "coordinates": [100.46648, 13.77867], "crs": null}, "properties": {"gate_name": "ประตูระบายน้ำคลองวัดเจ้าอาม", "hy_lname": "คลองวัดเจ้าอาม", "district_t": "บางกอกน้อย", "type": "ทั่วไป"}}, {"type": "Feature", "geometry": {"type": "Point", "coordinates": [100.49902, 13.77866], "crs": null}, "properties": {"gate_name": "ประตูระบายน้ำคลองข้างวัดภคคิณี", "hy_lname": "คลองบางจาก", "district_t": "บางพลัด", "type": "ทั่วไป"}}, {"type": "Feature", "geometry": {"type": "Point", "coordinates": [100.46932, 13.77915], "crs": null}, "properties": {"gate_name": "ประตูระบายน้ำคลองตราชู", "hy_lname": "-", "district_t": "บางกอกน้อย", "type": "ทั่วไป"}}, {"type": "Feature", "geometry": {"type": "Point", "coordinates": [100.51411, 13.77955], "crs": null}, "properties": {"gate_name": "ประตูระบายน้ำคลองเม่งเส็ง (ติดคลองสามเสน)", "hy_lname": "คลองรางเงิน (เม่งเส็ง)", "district_t": "ดุสิต", "type": "ทั่วไป"}}, {"type": "Feature", "geometry": {"type": "Point", "coordinates": [100.33872, 13.78184], "crs": null}, "properties": {"gate_name": "ประตูระบายน้ำวังทวีวัฒนา", "hy_lname": "-", "district_t": "ทวีวัฒนา", "type": "ทั่วไป"}}, {"type": "Feature", "geometry": {"type": "Point", "coordinates": [100.46652, 13.78036], "crs": null}, "properties": {"gate_name": "ประตูระบายน้ำศาลเจ้าแม่ทับทิม", "hy_lname": "คลองทับทิม", "district_t": "ตลิ่งชัน", "type": "ทั่วไป"}}, {"type": "Feature", "geometry": {"type": "Point", "coordinates": [100.46732, 13.78114], "crs": null}, "properties": {"gate_name": "ประตูระบายน้ำคลองวัดสุวรรณคีรี", "hy_lname": "-", "district_t": "บางกอกน้อย", "type": "ทั่วไป"}}, {"type": "Feature", "geometry": {"type": "Point", "coordinates": [100.51475, 13.78096], "crs": null}, "properties": {"gate_name": "ประตูระบายน้ำคลองรางเงิน (หลังสวนอัมพร)", "hy_lname": "คลองรางเงิน (เม่งเส็ง)", "district_t": "ดุสิต", "type": "ทั่วไป"}}, {"type": "Feature", "geometry": {"type": "Point", "coordinates": [100.50057, 13.78128], "crs": null}, "properties": {"gate_name": "ประตูระบายน้ำคลองข้างโรงแรมริเวอร์ไซด์ (K6/2)", "hy_lname": "คูน้ำต้นซอยราชวิถี 21", "district_t": "บางพลัด", "type": "ทั่วไป"}}, {"type": "Feature", "geometry": {"type": "Point", "coordinates": [100.46756, 13.78167], "crs": null}, "properties": {"gate_name": "ประตูระบายน้ำคูข้างวัดศรีสุดาราม", "hy_lname": "-", "district_t": "บางกอกน้อย", "type": "ทั่วไป"}}, {"type": "Feature", "geometry": {"type": "Point", "coordinates": [100.46702, 13.78322], "crs": null}, "properties": {"gate_name": "ประตูระบายน้ำข้างเพลสซิเด้นท์คอนโดทาวน์", "hy_lname": "คลองน้ำอ้อย", "district_t": "บางกอกน้อย", "type": "ทั่วไป"}}, {"type": "Feature", "geometry": {"type": "Point", "coordinates": [100.50005, 13.78306], "crs": null}, "properties": {"gate_name": "ประตูระบายน้ำคลองข้างโรงแรมรอยัลริเวอร์ (K6/1)", "hy_lname": "คลองซอยเทพนิมิตร", "district_t": "บางพลัด", "type": "ทั่วไป"}}, {"type": "Feature", "geometry": {"type": "Point", "coordinates": [100.50189, 13.7839], "crs": null}, "properties": {"gate_name": "ประตูระบายน้ำคลองวัดเทพนารี", "hy_lname": "-", "district_t": "บางพลัด", "type": "ทั่วไป"}}, {"type": "Feature", "geometry": {"type": "Point", "coordinates": [100.65015, 13.78426], "crs": null}, "properties": {"gate_name": "ประตูระบายน้ำลำรางสาธารณะ (ตอนบึงลำพังพวย นวมินทร์ 22)", "hy_lname": "ลำรางแยกคลองพังพวย ตอน 1", "district_t": "บึงกุ่ม", "type": "ทั่วไป"}}, {"type": "Feature", "geometry": {"type": "Point", "coordinates": [100.65015, 13.78426], "crs": null}, "properties": {"gate_name": "ประตูระบายน้ำลำรางสาธารณะ (ตอนบึงกุ่ม)", "hy_lname": "ลำรางแยกคลองพังพวย ตอน 1", "district_t": "บึงกุ่ม", "type": "ทั่วไป"}}, {"type": "Feature", "geometry": {"type": "Point", "coordinates": [100.64814, 13.78465], "crs": null}, "properties": {"gate_name": "ประตูระบายน้ำบึงลำพังพวย (ตอนถนนนวมินทร์)", "hy_lname": "ลำรางแยกคลองพังพวย ตอน 1", "district_t": "บึงกุ่ม", "type": "ทั่วไป"}}, {"type": "Feature", "geometry": {"type": "Point", "coordinates": [100.66171, 13.78455], "crs": null}, "properties": {"gate_name": "ประตูระบายน้ำลำรางสาธารณะ (ตอนบึงกุ่ม นวมินทร์ 24)", "hy_lname": "คลองบางเตย", "district_t": "บึงกุ่ม", "type": "ทั่วไป"}}, {"type": "Feature", "geometry": {"type": "Point", "coordinates": [100.50341, 13.78704], "crs": null}, "properties": {"gate_name": "ประตูระบายน้ำบริเวณบางกอกมารีน่าคอนโดและชุมชนข้างวัดเทพากร", "hy_lname": "-", "district_t": "บางพลัด", "type": "ทั่วไป"}}, {"type": "Feature", "geometry": {"type": "Point", "coordinates": [100.5057, 13.78835], "crs": null}, "properties": {"gate_name": "ประตูระบายน้ำคลอง K5/1", "hy_lname": "คูน้ำซอยจรัญฯ 70/3", "district_t": "บางพลัด", "type": "ทั่วไป"}}, {"type": "Feature", "geometry": {"type": "Point", "coordinates": [100.90728, 13.78652], "crs": null}, "properties": {"gate_name": "ทำนบและประตูระบายน้ำคลองสอง", "hy_lname": "คลองหลวงแพ่ง", "district_t": "หนองจอก", "type": "ทั่วไป"}}, {"type": "Feature", "geometry": {"type": "Point", "coordinates": [100.46833, 13.7936], "crs": null}, "properties": {"gate_name": "ประตูระบายน้ำคลองยายวาด", "hy_lname": "คลองยายวาด", "district_t": "ตลิ่งชัน", "type": "ทั่วไป"}}, {"type": "Feature", "geometry": {"type": "Point", "coordinates": [100.58931, 13.79434], "crs": null}, "properties": {"gate_name": "ประตูระบายน้ำลาดพร้าว 56", "hy_lname": "คลองลาดพร้าว", "district_t": "วังทองหลาง", "type": "ทั่วไป"}}, {"type": "Feature", "geometry": {"type": "Point", "coordinates": [100.6677, 13.7946], "crs": null}, "properties": {"gate_name": "ประตูระบายน้ำคลองลำรางสาธารณะ (หมู่บ้านเอื้ออาทร)", "hy_lname": "ลำรางนาป่า", "district_t": "บึงกุ่ม", "type": "ทั่วไป"}}, {"type": "Feature", "geometry": {"type": "Point", "coordinates": [100.46248, 13.79663], "crs": null}, "properties": {"gate_name": "ประตูระบายน้ำคลองผู้ใหญ่น่วม (ตอนคลองมหาสวัสดิ์)", "hy_lname": "คลองผู้ใหญ่น่วม", "district_t": "ตลิ่งชัน", "type": "ทั่วไป"}}, {"type": "Feature", "geometry": {"type": "Point", "coordinates": [100.56694, 13.79658], "crs": null}, "properties": {"gate_name": "ประตูระบายน้ำคลองพญาเวิก (ตอนซอยโชคชัยร่วมมิตร)", "hy_lname": "คลองพญาเวิก", "district_t": "ดินแดง", "type": "ทั่วไป"}}, {"type": "Feature", "geometry": {"type": "Point", "coordinates": [100.51275, 13.79681], "crs": null}, "properties": {"gate_name": "ประตูระบายน้ำคลองมอญ", "hy_lname": "คลองมอญ", "district_t": "บางพลัด", "type": "ทั่วไป"}}, {"type": "Feature", "geometry": {"type": "Point", "coordinates": [100.53206, 13.79772], "crs": null}, "properties": {"gate_name": "ประตูระบายน้ำสรรพาวุธ", "hy_lname": "คลองเปรมประชากร", "district_t": "ดุสิต", "type": "ทั่วไป"}}, {"type": "Feature", "geometry": {"type": "Point", "coordinates": [100.70453, 13.7973], "crs": null}, "properties": {"gate_name": "ประตูระบายน้ำบางชัน (ตอนคลองแสนแสบ)", "hy_lname": "คลองแสนแสบ", "district_t": "คันนายาว", "type": "ทั่วไป"}}, {"type": "Feature", "geometry": {"type": "Point", "coordinates": [100.41609, 13.79973], "crs": null}, "properties": {"gate_name": "ประตูระบายน้ำคลองบัว  (ตอนทางรถไฟสายใต้)", "hy_lname": "คลองบัว", "district_t": "ตลิ่งชัน", "type": "ทั่วไป"}}, {"type": "Feature", "geometry": {"type": "Point", "coordinates": [100.32968, 13.80043], "crs": null}, "properties": {"gate_name": "ประตูระบายน้ำคลองทวีวัฒนา", "hy_lname": "คลองทวีวัฒนา", "district_t": "ทวีวัฒนา", "type": "ทั่วไป"}}, {"type": "Feature", "geometry": {"type": "Point", "coordinates": [100.53333, 13.80011], "crs": null}, "properties": {"gate_name": "ประตูระบายน้ำหน้าตลาดบางซื่อ", "hy_lname": "คลองเปรมประชากร", "district_t": "บางซื่อ", "type": "ทั่วไป"}}, {"type": "Feature", "geometry": {"type": "Point", "coordinates": [100.4042, 13.8013], "crs": null}, "properties": {"gate_name": "ประตูระบายน้ำคลองโพธิ์ (ริมคลองมหาสวัสดิ์)", "hy_lname": "คลองโพธิ์", "district_t": "ทวีวัฒนา", "type": "ทั่วไป"}}, {"type": "Feature", "geometry": {"type": "Point", "coordinates": [100.92225, 13.79803], "crs": null}, "properties": {"gate_name": "ทำนบและประตูระบายน้ำคลองหนึ่ง", "hy_lname": "คลองหลวงแพ่ง", "district_t": "หนองจอก", "type": "ทั่วไป"}}, {"type": "Feature", "geometry": {"type": "Point", "coordinates": [100.74476, 13.79956], "crs": null}, "properties": {"gate_name": "ประตูระบายน้ำคลองลำบึงขวาง", "hy_lname": "คลองลำบึงขวาง", "district_t": "มีนบุรี", "type": "ทั่วไป"}}, {"type": "Feature", "geometry": {"type": "Point", "coordinates": [100.38026, 13.80204], "crs": null}, "properties": {"gate_name": "ประตูระบายน้ำคลองควาย (ริมคลองมหาสวัสดิ์)", "hy_lname": "คลองควาย", "district_t": "ทวีวัฒนา", "type": "ทั่วไป"}}, {"type": "Feature", "geometry": {"type": "Point", "coordinates": [100.51697, 13.81392], "crs": null}, "properties": {"gate_name": "ประตูระบายน้ำคลองซุง", "hy_lname": "คลองซุง", "district_t": "บางซื่อ", "type": "ทั่วไป"}}, {"type": "Feature", "geometry": {"type": "Point", "coordinates": [100.34853, 13.80293], "crs": null}, "properties": {"gate_name": "ประตูระบายน้ำคลองซอย (ริมคลองมหาสวัสดิ์)", "hy_lname": "คลองซอย", "district_t": "ทวีวัฒนา", "type": "ทั่วไป"}}, {"type": "Feature", "geometry": {"type": "Point", "coordinates": [100.37072, 13.80248], "crs": null}, "properties": {"gate_name": "ประตูระบายน้ำคลองขุนศรีบุรีรักษ์ (ริมคลองมหาสวัสดิ์)", "hy_lname": "คลองบางคูเวียง", "district_t": "ทวีวัฒนา", "type": "ทั่วไป"}}, {"type": "Feature", "geometry": {"type": "Point", "coordinates": [100.58482, 13.8028], "crs": null}, "properties": {"gate_name": "ประตูระบายน้ำคลองบางน้ำแก้ว (ตอนซอยลาดพร้าว 41)", "hy_lname": "คลองน้ำแก้ว", "district_t": "ห้วยขวาง", "type": "ทั่วไป"}}, {"type": "Feature", "geometry": {"type": "Point", "coordinates": [100.5158, 13.80386], "crs": null}, "properties": {"gate_name": "ประตูระบายน้ำคลอง K 3", "hy_lname": "คลองสวนแดน 2", "district_t": "บางพลัด", "type": "ทั่วไป"}}, {"type": "Feature", "geometry": {"type": "Point", "coordinates": [100.70014, 13.80269], "crs": null}, "properties": {"gate_name": "ประตูระบายน้ำคลองหลอแหล 2", "hy_lname": "คลองหลอแหล", "district_t": "คันนายาว", "type": "ทั่วไป"}}, {"type": "Feature", "geometry": {"type": "Point", "coordinates": [100.69169, 13.80327], "crs": null}, "properties": {"gate_name": "ประตูระบายน้ำบางชัน (ตอนสวนสยาม)", "hy_lname": "คลองบ้านเกาะ", "district_t": "คันนายาว", "type": "ทั่วไป"}}, {"type": "Feature", "geometry": {"type": "Point", "coordinates": [100.51589, 13.80484], "crs": null}, "properties": {"gate_name": "ประตูระบายน้ำคลองเตย", "hy_lname": "คลองเตย", "district_t": "บางพลัด", "type": "ทั่วไป"}}, {"type": "Feature", "geometry": {"type": "Point", "coordinates": [100.70017, 13.80448], "crs": null}, "properties": {"gate_name": "ประตูระบายน้ำคลองหลอแหล 1", "hy_lname": "ลำรางแยกคลองบ้านเกาะ", "district_t": "คันนายาว", "type": "ทั่วไป"}}, {"type": "Feature", "geometry": {"type": "Point", "coordinates": [100.66639, 13.80498], "crs": null}, "properties": {"gate_name": "ประตูระบายน้ำคลองหนองแขม", "hy_lname": "คลองกุ่ม", "district_t": "บึงกุ่ม", "type": "ทั่วไป"}}, {"type": "Feature", "geometry": {"type": "Point", "coordinates": [100.51589, 13.80681], "crs": null}, "properties": {"gate_name": "ประตูระบายน้ำสวนแดน", "hy_lname": "คลองสวนแดน", "district_t": "บางพลัด", "type": "ทั่วไป"}}, {"type": "Feature", "geometry": {"type": "Point", "coordinates": [100.70117, 13.80583], "crs": null}, "properties": {"gate_name": "ประตูระบายน้ำบึงตาเกตุ", "hy_lname": "คลองบางชัน", "district_t": "มีนบุรี", "type": "ทั่วไป"}}, {"type": "Feature", "geometry": {"type": "Point", "coordinates": [100.51599, 13.80818], "crs": null}, "properties": {"gate_name": "ประตูระบายน้ำคลองตาเพชร", "hy_lname": "คลองตาเพชร", "district_t": "บางพลัด", "type": "ทั่วไป"}}, {"type": "Feature", "geometry": {"type": "Point", "coordinates": [100.5187, 13.80983], "crs": null}, "properties": {"gate_name": "ประตูระบายน้ำบางโพขวาง", "hy_lname": "คลองบางโพขวาง", "district_t": "บางซื่อ", "type": "ทั่วไป"}}, {"type": "Feature", "geometry": {"type": "Point", "coordinates": [100.66236, 13.81403], "crs": null}, "properties": {"gate_name": "ประตูระบายน้ำคลองบวบขม (ตอนคลองลำชะล่า)", "hy_lname": "คลองหนองแขม", "district_t": "บึงกุ่ม", "type": "ทั่วไป"}}, {"type": "Feature", "geometry": {"type": "Point", "coordinates": [100.87189, 13.81582], "crs": null}, "properties": {"gate_name": "ประตูระบายน้ำคลองสองลำปลาทิว", "hy_lname": "คลองสอง", "district_t": "หนองจอก", "type": "ทั่วไป"}}, {"type": "Feature", "geometry": {"type": "Point", "coordinates": [100.74738, 13.82096], "crs": null}, "properties": {"gate_name": "ประตูระบายน้ำแสนแสบ (ตอนมีนบุรี)", "hy_lname": "คลองแสนแสบ", "district_t": "มีนบุรี", "type": "ทั่วไป"}}, {"type": "Feature", "geometry": {"type": "Point", "coordinates": [100.6494, 13.8227], "crs": null}, "properties": {"gate_name": "ประตูระบายน้ำคลองดอนอีกา", "hy_lname": "คลองดอนอีกา", "district_t": "บึงกุ่ม", "type": "ทั่วไป"}}, {"type": "Feature", "geometry": {"type": "Point", "coordinates": [100.92833, 13.82194], "crs": null}, "properties": {"gate_name": "ทำนบและประตูระบายน้ำคลองตาวง", "hy_lname": "คลองตาวงษ์", "district_t": "หนองจอก", "type": "ทั่วไป"}}, {"type": "Feature", "geometry": {"type": "Point", "coordinates": [100.92492, 13.82461], "crs": null}, "properties": {"gate_name": "ทำนบและประตูระบายน้ำคลองตาพ่วง", "hy_lname": "คลองนครเนื่องเขต", "district_t": "หนองจอก", "type": "ทั่วไป"}}, {"type": "Feature", "geometry": {"type": "Point", "coordinates": [100.8699, 13.8286], "crs": null}, "properties": {"gate_name": "ประตูระบายน้ำคลองหนึ่งลำปลาทิว", "hy_lname": "คลองหนึ่ง", "district_t": "หนองจอก", "type": "ทั่วไป"}}, {"type": "Feature", "geometry": {"type": "Point", "coordinates": [100.91, 13.83611], "crs": null}, "properties": {"gate_name": "ทำนบและประตูระบายน้ำคลองโต๊ะนิล", "hy_lname": "คลองนครเนื่องเขต", "district_t": "หนองจอก", "type": "ทั่วไป"}}, {"type": "Feature", "geometry": {"type": "Point", "coordinates": [100.9081, 13.8374], "crs": null}, "properties": {"gate_name": "ทำนบและประตูระบายน้ำคลองบึงนายรุ่ง", "hy_lname": "คลองบึงนายรุ่ง", "district_t": "หนองจอก", "type": "ทั่วไป"}}, {"type": "Feature", "geometry": {"type": "Point", "coordinates": [100.89827, 13.84536], "crs": null}, "properties": {"gate_name": "ทำนบและประตูระบายน้ำคลองหลวงณรงค์", "hy_lname": "คลองนครเนื่องเขต", "district_t": "หนองจอก", "type": "ทั่วไป"}}, {"type": "Feature", "geometry": {"type": "Point", "coordinates": [100.89398, 13.84861], "crs": null}, "properties": {"gate_name": "ทำนบและประตูระบายน้ำคลองลำรางสาธารณะ", "hy_lname": "คลองนครเนื่องเขต", "district_t": "หนองจอก", "type": "ทั่วไป"}}, {"type": "Feature", "geometry": {"type": "Point", "coordinates": [100.6781, 13.8508], "crs": null}, "properties": {"gate_name": "ประตูระบายน้ำพระยาสุเรนทร์ (เหนือ)", "hy_lname": "คลองบางชัน", "district_t": "คันนายาว", "type": "ทั่วไป"}}, {"type": "Feature", "geometry": {"type": "Point", "coordinates": [100.74823, 13.91368], "crs": null}, "properties": {"gate_name": "ทำนบกั้นน้ำคลองลำกระดาน 2", "hy_lname": "-", "district_t": "คลองสามวา", "type": "ทั่วไป"}}, {"type": "Feature", "geometry": {"type": "Point", "coordinates": [100.73313, 13.85057], "crs": null}, "properties": {"gate_name": "ประตูระบายน้ำคลองหนึ่งฝั่งตะวันออก", "hy_lname": "คลองหนึ่งตะวันออก", "district_t": "คลองสามวา", "type": "ทั่วไป"}}, {"type": "Feature", "geometry": {"type": "Point", "coordinates": [100.5599, 13.85469], "crs": null}, "properties": {"gate_name": "ประตูระบายน้ำคลองลาดโตนด (ตอนคลองบางเขน)", "hy_lname": "คลองบางเขน", "district_t": "หลักสี่", "type": "ทั่วไป"}}, {"type": "Feature", "geometry": {"type": "Point", "coordinates": [100.72311, 13.86401], "crs": null}, "properties": {"gate_name": "ประตูระบายน้ำคลองสองตะวันตก", "hy_lname": "คลองสองตะวันตก", "district_t": "คลองสามวา", "type": "ทั่วไป"}}, {"type": "Feature", "geometry": {"type": "Point", "coordinates": [100.73206, 13.86501], "crs": null}, "properties": {"gate_name": "ทำนบกั้นน้ำคลองสองตะวันออก (ตอนถนนนิมิตรใหม่)", "hy_lname": "คลองสองตะวันออก", "district_t": "คลองสามวา", "type": "ทั่วไป"}}, {"type": "Feature", "geometry": {"type": "Point", "coordinates": [100.72279, 13.87953], "crs": null}, "properties": {"gate_name": "ประตูระบายน้ำคลองสามตะวันตก", "hy_lname": "คลองสามตะวันตก", "district_t": "คลองสามวา", "type": "ทั่วไป"}}, {"type": "Feature", "geometry": {"type": "Point", "coordinates": [100.73197, 13.88024], "crs": null}, "properties": {"gate_name": "ทำนบกั้นน้ำคลองสามตะวันออก (ตอนถนนนิมิตรใหม่)", "hy_lname": "คลองสามตะวันออก", "district_t": "คลองสามวา", "type": "ทั่วไป"}}, {"type": "Feature", "geometry": {"type": "Point", "coordinates": [100.72246, 13.89584], "crs": null}, "properties": {"gate_name": "ประตูระบายน้ำคลองสี่ตะวันตก", "hy_lname": "คลองสี่ตะวันตก", "district_t": "คลองสามวา", "type": "ทั่วไป"}}, {"type": "Feature", "geometry": {"type": "Point", "coordinates": [100.7349, 13.8984], "crs": null}, "properties": {"gate_name": "ทำนบกั้นน้ำคลองสี่ตะวันออก (ตอนถนนนิมิตรใหม่)", "hy_lname": "คลองสี่ตะวันออก", "district_t": "คลองสามวา", "type": "ทั่วไป"}}, {"type": "Feature", "geometry": {"type": "Point", "coordinates": [100.58672, 13.89975], "crs": null}, "properties": {"gate_name": "ประตูระบายน้ำคลองตาอูฐ (ตอนคลองเปรมประชากร)", "hy_lname": "คลองตาอูฐ", "district_t": "ดอนเมือง", "type": "ทั่วไป"}}, {"type": "Feature", "geometry": {"type": "Point", "coordinates": [100.72226, 13.9067], "crs": null}, "properties": {"gate_name": "ประตูระบายน้ำคลองลำแบน", "hy_lname": "คลองลำแบน", "district_t": "คลองสามวา", "type": "ทั่วไป"}}, {"type": "Feature", "geometry": {"type": "Point", "coordinates": [100.72867, 13.912], "crs": null}, "properties": {"gate_name": "ทำนบกั้นน้ำคลองสามวา (ตอนถนนราษฎร์นิมิตร)", "hy_lname": "คลองสามวา", "district_t": "คลองสามวา", "type": "ทั่วไป"}}, {"type": "Feature", "geometry": {"type": "Point", "coordinates": [100.7474, 13.9124], "crs": null}, "properties": {"gate_name": "ทำนบกั้นน้ำคลองลำกระดาน 1", "hy_lname": "คลองลำกระดาน", "district_t": "คลองสามวา", "type": "ทั่วไป"}}, {"type": "Feature", "geometry": {"type": "Point", "coordinates": [100.6872, 13.92118], "crs": null}, "properties": {"gate_name": "ประตูระบายน้ำพระยาสุเรนทร์ (ใต้)", "hy_lname": "คลองพระยาสุเรนทร์", "district_t": "สายไหม", "type": "ทั่วไป"}}, {"type": "Feature", "geometry": {"type": "Point", "coordinates": [100.66225, 13.92154], "crs": null}, "properties": {"gate_name": "ประตูระบายน้ำคลองหม้อแตก", "hy_lname": "คลองหม้อแตก", "district_t": "สายไหม", "type": "ทั่วไป"}}, {"type": "Feature", "geometry": {"type": "Point", "coordinates": [100.63472, 13.92308], "crs": null}, "properties": {"gate_name": "ประตูระบายน้ำคลองสองสายใต้", "hy_lname": "คลองสอง", "district_t": "สายไหม", "type": "ทั่วไป"}}, {"type": "Feature", "geometry": {"type": "Point", "coordinates": [100.59764, 13.92392], "crs": null}, "properties": {"gate_name": "ประตูระบายน้ำคูนายกิมสาย 3 (ตอนคลองเปรมประชากร)", "hy_lname": "คูนายกิมสาย 3", "district_t": "ดอนเมือง", "type": "ทั่วไป"}}]}