{"type": "FeatureCollection", "features": [{"type": "Feature", "geometry": {"type": "LineString", "coordinates": [[100.56429, 13.74004], [100.56353, 13.74016], [100.56324, 13.74021], [100.56281, 13.74027], [100.56186, 13.74042]], "crs": null}, "properties": {"pipej_code": "01", "pipej_type": "ค.ส.ล.", "dimension": "-", "discharge": 5}}, {"type": "Feature", "geometry": {"type": "LineString", "coordinates": [[100.52871, 13.7692], [100.52869, 13.76916], [100.52843, 13.76856], [100.52837, 13.76844], [100.52746, 13.76616], [100.52707, 13.76519], [100.52693, 13.76487], [100.52615, 13.76295], [100.52613, 13.76292], [100.52576, 13.76202], [100.52576, 13.76201], [100.52567, 13.76179], [100.52654, 13.76142], [100.52654, 13.76143], [100.52663, 13.76138], [100.52895, 13.76033], [100.53051, 13.75962], [100.53062, 13.75956], [100.53294, 13.75852], [100.53415, 13.75794], [100.53432, 13.75789], [100.5344, 13.75787]], "crs": null}, "properties": {"pipej_code": "02", "pipej_type": "ค.ส.ล.(2),เหล็กเหนียว(1)", "dimension": "c1.8,c1.5,c1.2", "discharge": 0}}, {"type": "Feature", "geometry": {"type": "LineString", "coordinates": [[100.57556, 13.83963], [100.57565, 13.8396], [100.57571, 13.8396], [100.57579, 13.83964], [100.57588, 13.83969], [100.57598, 13.83974], [100.57612, 13.83981], [100.57621, 13.83986], [100.57637, 13.83991], [100.57642, 13.83991], [100.57672, 13.83992], [100.5768, 13.83992], [100.57689, 13.83992], [100.5769, 13.83993], [100.577, 13.83996], [100.57717, 13.84003], [100.57739, 13.84011], [100.5776, 13.84016], [100.57762, 13.84016], [100.57822, 13.84029], [100.57896, 13.84042], [100.579, 13.84042], [100.5791, 13.84043], [100.57972, 13.84051], [100.58032, 13.8406], [100.581, 13.84065], [100.58182, 13.84068], [100.5827, 13.84065], [100.58434, 13.84065], [100.58581, 13.84082], [100.58745, 13.84106], [100.5875, 13.84104], [100.58805, 13.8411], [100.58939, 13.84131], [100.59023, 13.84147]], "crs": null}, "properties": {"pipej_code": "03", "pipej_type": "ค.ส.ล.(1),เหล็กเหนียว(2)", "dimension": "c1.8,c1.2,c1.8", "discharge": 0}}, {"type": "Feature", "geometry": {"type": "LineString", "coordinates": [[100.5663, 13.73409], [100.56669, 13.73587]], "crs": null}, "properties": {"pipej_code": "04", "pipej_type": "ค.ส.ล.", "dimension": "-", "discharge": 4}}, {"type": "Feature", "geometry": {"type": "LineString", "coordinates": [[100.58453, 13.71996], [100.58461, 13.72252], [100.58462, 13.72326], [100.58471, 13.72439], [100.58485, 13.72499], [100.58487, 13.72504], [100.58496, 13.72538], [100.58514, 13.72622], [100.58544, 13.72754], [100.58572, 13.72845], [100.58594, 13.72915], [100.58613, 13.72976], [100.58647, 13.73082], [100.58684, 13.73193], [100.58691, 13.73214], [100.58726, 13.73321], [100.58757, 13.73413], [100.58785, 13.73497], [100.58817, 13.7359], [100.58832, 13.73635], [100.58877, 13.73776], [100.589, 13.73848], [100.58902, 13.73855], [100.58977, 13.74076], [100.58981, 13.7409], [100.58986, 13.74105], [100.58986, 13.74105], [100.58962, 13.74122], [100.58921, 13.74169], [100.58915, 13.74184], [100.58916, 13.74199], [100.58919, 13.74213], [100.58924, 13.74228], [100.5893, 13.74247]], "crs": null}, "properties": {"pipej_code": "05", "pipej_type": "ค.ส.ล.", "dimension": "c2.0", "discharge": 6}}, {"type": "Feature", "geometry": {"type": "LineString", "coordinates": [[100.51227, 13.74046], [100.51148, 13.73944], [100.51135, 13.73926], [100.5108, 13.73843], [100.50992, 13.7371], [100.50978, 13.73689]], "crs": null}, "properties": {"pipej_code": "06", "pipej_type": "ค.ส.ล.", "dimension": "c1.8", "discharge": 0}}, {"type": "Feature", "geometry": {"type": "LineString", "coordinates": [[100.55315, 13.73604], [100.55303, 13.73987], [100.55302, 13.74013], [100.55298, 13.74131], [100.55299, 13.74189], [100.553, 13.74198], [100.55301, 13.74209]], "crs": null}, "properties": {"pipej_code": "07", "pipej_type": "ค.ส.ล.", "dimension": "c1.8", "discharge": 4.5}}, {"type": "Feature", "geometry": {"type": "LineString", "coordinates": [[100.57241, 13.73826], [100.57247, 13.7383], [100.57248, 13.73837], [100.57252, 13.73928], [100.57252, 13.73994], [100.57254, 13.74014], [100.57261, 13.74038], [100.57269, 13.74063], [100.57271, 13.7408], [100.57285, 13.7417], [100.57288, 13.74193], [100.57291, 13.74214], [100.57292, 13.7423], [100.57291, 13.74233], [100.57287, 13.74235], [100.57242, 13.74242], [100.57238, 13.74244], [100.57238, 13.74246], [100.57238, 13.74251], [100.57255, 13.74339], [100.57269, 13.74408], [100.57272, 13.74425], [100.57269, 13.74436], [100.57276, 13.74474], [100.57295, 13.74589]], "crs": null}, "properties": {"pipej_code": "08", "pipej_type": "ค.ส.ล.", "dimension": "-", "discharge": 6}}, {"type": "Feature", "geometry": {"type": "LineString", "coordinates": [[100.53998, 13.71693], [100.54016, 13.71666], [100.5394, 13.71626], [100.53891, 13.71602], [100.53792, 13.71553], [100.53639, 13.71476], [100.53454, 13.71385]], "crs": null}, "properties": {"pipej_code": "09", "pipej_type": "ค.ส.ล.(2),เหล็กเหนียว(1)", "dimension": "c1.2,c0.8,c1.2", "discharge": 0}}, {"type": "Feature", "geometry": {"type": "LineString", "coordinates": [[100.60186, 13.65835], [100.6061, 13.66936]], "crs": null}, "properties": {"pipej_code": "10", "pipej_type": "ค.ส.ล.", "dimension": "-", "discharge": 6}}, {"type": "Feature", "geometry": {"type": "LineString", "coordinates": [[100.72597, 13.81844], [100.72777, 13.8186], [100.72974, 13.81878], [100.72998, 13.8188], [100.73127, 13.81892], [100.73435, 13.8192], [100.7346, 13.81922], [100.73461, 13.81921], [100.73899, 13.81961], [100.739, 13.81962], [100.74156, 13.81986], [100.74159, 13.81986], [100.74193, 13.81988], [100.74212, 13.81988], [100.7422, 13.81987], [100.74221, 13.81987]], "crs": null}, "properties": {"pipej_code": "12", "pipej_type": "-", "dimension": "-", "discharge": 0}}, {"type": "Feature", "geometry": {"type": "LineString", "coordinates": [[100.52864, 13.70586], [100.52812, 13.70596], [100.52685, 13.70622], [100.52676, 13.70623], [100.52558, 13.70647], [100.52431, 13.70673], [100.52428, 13.70674], [100.52351, 13.7069], [100.52305, 13.70699], [100.52048, 13.7075], [100.51948, 13.70767], [100.51919, 13.70772], [100.51869, 13.70783]], "crs": null}, "properties": {"pipej_code": "11", "pipej_type": "ค.ส.ล.", "dimension": "c1.8", "discharge": 0}}]}