{"type": "FeatureCollection", "features": [{"type": "Feature", "geometry": {"type": "Point", "coordinates": [100.4274, 13.5656], "crs": null}, "properties": {"pump_name": "สถานีสูบน้ำคลองเชิงตาแพ", "hy_lname": "คลองแยกเชิงตาแพ", "district_t": "บางขุนเทียน", "motor_num": "2"}}, {"type": "Feature", "geometry": {"type": "Point", "coordinates": [100.4394, 13.5701], "crs": null}, "properties": {"pump_name": "สถานีสูบน้ำคลองวัดลูกวัว", "hy_lname": "คลองลูกวัว", "district_t": "บางขุนเทียน", "motor_num": "3"}}, {"type": "Feature", "geometry": {"type": "Point", "coordinates": [100.44562, 13.57142], "crs": null}, "properties": {"pump_name": "สถานีสูบน้ำคลองขุนราชพินิจใจ", "hy_lname": "คลองขุนราชพินิจใจ", "district_t": "บางขุนเทียน", "motor_num": "10"}}, {"type": "Feature", "geometry": {"type": "Point", "coordinates": [100.39466, 13.60377], "crs": null}, "properties": {"pump_name": "สถานีสูบน้ำระหาญ", "hy_lname": "คลองระหาญ", "district_t": "บางขุนเทียน", "motor_num": "3"}}, {"type": "Feature", "geometry": {"type": "Point", "coordinates": [100.41311, 13.60699], "crs": null}, "properties": {"pump_name": "สถานีสูบน้ำเลนเปน", "hy_lname": "คลองเลนเปน", "district_t": "บางขุนเทียน", "motor_num": "3"}}, {"type": "Feature", "geometry": {"type": "Point", "coordinates": [100.43406, 13.62553], "crs": null}, "properties": {"pump_name": "สถานีสูบน้ำคลองสะแกงาม", "hy_lname": "คลองสะแกงาม", "district_t": "บางขุนเทียน", "motor_num": "4"}}, {"type": "Feature", "geometry": {"type": "Point", "coordinates": [100.4394, 13.6278], "crs": null}, "properties": {"pump_name": "สถานีสูบน้ำคลองพระยาราชมนตรี", "hy_lname": "คลองพระยาราชมนตรี", "district_t": "บางขุนเทียน", "motor_num": "(7,3)"}}, {"type": "Feature", "geometry": {"type": "Point", "coordinates": [100.44775, 13.63806], "crs": null}, "properties": {"pump_name": "สถานีสูบน้ำคลองสนามชัย", "hy_lname": "คลองสนามชัย", "district_t": "บางขุนเทียน", "motor_num": "15"}}, {"type": "Feature", "geometry": {"type": "Point", "coordinates": [100.38696, 13.64788], "crs": null}, "properties": {"pump_name": "สถานีสูบน้ำคลองรางขี้เหล็ก", "hy_lname": "คลองรางขี้เหล็ก", "district_t": "บางบอน", "motor_num": "3"}}, {"type": "Feature", "geometry": {"type": "Point", "coordinates": [100.4461, 13.6732], "crs": null}, "properties": {"pump_name": "สถานีสูบน้ำคลองสี่บาท", "hy_lname": "คลองบางสี่บาท", "district_t": "บางขุนเทียน", "motor_num": "2"}}, {"type": "Feature", "geometry": {"type": "Point", "coordinates": [100.33533, 13.67846], "crs": null}, "properties": {"pump_name": "สถานีสูบน้ำคลองศรีสำราญ", "hy_lname": "คลองศรีสำราญ", "district_t": "หนองแขม", "motor_num": "5"}}, {"type": "Feature", "geometry": {"type": "Point", "coordinates": [100.44792, 13.68153], "crs": null}, "properties": {"pump_name": "สถานีสูบน้ำคลองวัดสิงห์", "hy_lname": "คลองวัดสิงห์", "district_t": "บางขุนเทียน", "motor_num": "3"}}, {"type": "Feature", "geometry": {"type": "Point", "coordinates": [100.35024, 13.68207], "crs": null}, "properties": {"pump_name": "สถานีสูบน้ำคลองมหาศร", "hy_lname": "คลองมหาศร", "district_t": "หนองแขม", "motor_num": "(1,1,2)"}}, {"type": "Feature", "geometry": {"type": "Point", "coordinates": [100.5051, 13.6823], "crs": null}, "properties": {"pump_name": "สถานีสูบน้ำคลองราษฎร์บูรณะ", "hy_lname": "คลองราษฎร์บูรณะ", "district_t": "ราษฎร์บูรณะ", "motor_num": "3"}}, {"type": "Feature", "geometry": {"type": "Point", "coordinates": [100.4971, 13.6842], "crs": null}, "properties": {"pump_name": "สถานีสูบน้ำคลองบางปะกอก", "hy_lname": "คลองบางปะกอก", "district_t": "ราษฎร์บูรณะ", "motor_num": "2"}}, {"type": "Feature", "geometry": {"type": "Point", "coordinates": [100.49026, 13.68905], "crs": null}, "properties": {"pump_name": "สถานีสูบน้ำคลองบางปะแก้ว", "hy_lname": "คลองบางปะแก้ว", "district_t": "ราษฎร์บูรณะ", "motor_num": "3"}}, {"type": "Feature", "geometry": {"type": "Point", "coordinates": [100.50358, 13.6902], "crs": null}, "properties": {"pump_name": "สถานีสูบน้ำข้างหมู่บ้านภักดี", "hy_lname": "คลองถนนพระราม 3", "district_t": "บางคอแหลม", "motor_num": "(1,1)"}}, {"type": "Feature", "geometry": {"type": "Point", "coordinates": [100.48251, 13.6949], "crs": null}, "properties": {"pump_name": "สถานีสูบน้ำคลองบางสะแก (ตอนถนนตากสิน)", "hy_lname": "คลองบางสะแก", "district_t": "จอมทอง", "motor_num": "2"}}, {"type": "Feature", "geometry": {"type": "Point", "coordinates": [100.48728, 13.69479], "crs": null}, "properties": {"pump_name": "สถานีสูบน้ำดาวคะนอง", "hy_lname": "คลองดาวคะนอง", "district_t": "ธนบุรี", "motor_num": "15"}}, {"type": "Feature", "geometry": {"type": "Point", "coordinates": [100.37682, 13.70043], "crs": null}, "properties": {"pump_name": "สถานีสูบน้ำคลองบางแค", "hy_lname": "คลองทวีวัฒนา", "district_t": "หนองแขม", "motor_num": "2"}}, {"type": "Feature", "geometry": {"type": "Point", "coordinates": [100.3774, 13.70055], "crs": null}, "properties": {"pump_name": "สถานีสูบน้ำคลองบางแค (ตอนคลองทวีวัฒนา)", "hy_lname": "คลองบางแค", "district_t": "บางแค", "motor_num": "2"}}, {"type": "Feature", "geometry": {"type": "Point", "coordinates": [100.49967, 13.70307], "crs": null}, "properties": {"pump_name": "สถานีสูบน้ำคลองสวนหลวง (ถ.เจริญกรุง)", "hy_lname": "คลองสวนหลวง 2", "district_t": "บางคอแหลม", "motor_num": "(3,1,1)"}}, {"type": "Feature", "geometry": {"type": "Point", "coordinates": [100.49026, 13.70498], "crs": null}, "properties": {"pump_name": "สถานีสูบน้ำคลองบางน้ำชน  (เจริญนคร 7)", "hy_lname": "คลองบางน้ำชน", "district_t": "ธนบุรี", "motor_num": "2"}}, {"type": "Feature", "geometry": {"type": "Point", "coordinates": [100.49441, 13.70807], "crs": null}, "properties": {"pump_name": "สถานีสูบน้ำคลองสำเหร่  (เจริญนคร 6)", "hy_lname": "คลองสำเหร่", "district_t": "ธนบุรี", "motor_num": "3"}}, {"type": "Feature", "geometry": {"type": "Point", "coordinates": [100.4253, 13.70868], "crs": null}, "properties": {"pump_name": "สถานีสูบน้ำคลองบางแค (ตอนคลองพระยาราชมนตรี)", "hy_lname": "คลองบางแค", "district_t": "บางแค", "motor_num": "(2,1)"}}, {"type": "Feature", "geometry": {"type": "Point", "coordinates": [100.49588, 13.70916], "crs": null}, "properties": {"pump_name": "สถานีสูบน้ำคลองบางไส้ไก่  (เจริญนคร 5)", "hy_lname": "คลองบางไส้ไก่", "district_t": "คลองสาน", "motor_num": "(2,1)"}}, {"type": "Feature", "geometry": {"type": "Point", "coordinates": [100.50771, 13.70958], "crs": null}, "properties": {"pump_name": "สถานีสูบน้ำคลองขวางสะพานเตี้ย", "hy_lname": "คลองขวางสะพานเตี้ย", "district_t": "บางคอแหลม", "motor_num": "(1,1,1,1)"}}, {"type": "Feature", "geometry": {"type": "Point", "coordinates": [100.50911, 13.71158], "crs": null}, "properties": {"pump_name": "สถานีสูบน้ำคลองกรวย", "hy_lname": "คลองกรวย", "district_t": "สาทร", "motor_num": "3"}}, {"type": "Feature", "geometry": {"type": "Point", "coordinates": [100.47035, 13.77846], "crs": null}, "properties": {"pump_name": "สถานีสูบน้ำคลองพิกุล", "hy_lname": "คลองวัดพิกุล", "district_t": "บางกอกน้อย", "motor_num": "2"}}, {"type": "Feature", "geometry": {"type": "Point", "coordinates": [100.51279, 13.71709], "crs": null}, "properties": {"pump_name": "สถานีสูบน้ำวัดยานนาวา", "hy_lname": "คลองวัดยานนาวา", "district_t": "สาทร", "motor_num": "(3,1)"}}, {"type": "Feature", "geometry": {"type": "Point", "coordinates": [100.51348, 13.72021], "crs": null}, "properties": {"pump_name": "สถานีสูบน้ำสาทร", "hy_lname": "-", "district_t": "บางรัก", "motor_num": "6"}}, {"type": "Feature", "geometry": {"type": "Point", "coordinates": [100.46922, 13.72192], "crs": null}, "properties": {"pump_name": "สถานีสูบน้ำภาษีเจริญ", "hy_lname": "-", "district_t": "ภาษีเจริญ", "motor_num": "5"}}, {"type": "Feature", "geometry": {"type": "Point", "coordinates": [100.47315, 13.72194], "crs": null}, "properties": {"pump_name": "สถานีสูบน้ำคลองบางสะแก  (ถนนเทอดไท)", "hy_lname": "คลองบางสะแก", "district_t": "ธนบุรี", "motor_num": "3"}}, {"type": "Feature", "geometry": {"type": "Point", "coordinates": [100.47863, 13.7224], "crs": null}, "properties": {"pump_name": "สถานีสูบน้ำคลองบางน้ำชน  (ถนนเทอดไท)", "hy_lname": "คลองบางน้ำชน", "district_t": "ธนบุรี", "motor_num": "2"}}, {"type": "Feature", "geometry": {"type": "Point", "coordinates": [100.3643, 13.72621], "crs": null}, "properties": {"pump_name": "สถานีสูบน้ำคลองบางแวก", "hy_lname": "คลองกำนันเทียน", "district_t": "หนองแขม", "motor_num": "2"}}, {"type": "Feature", "geometry": {"type": "Point", "coordinates": [100.50893, 13.72976], "crs": null}, "properties": {"pump_name": "สถานีสูบน้ำคลองสาน (เจริญนคร 1)", "hy_lname": "คลองสาน", "district_t": "คลองสาน", "motor_num": "2"}}, {"type": "Feature", "geometry": {"type": "Point", "coordinates": [100.5141, 13.7304], "crs": null}, "properties": {"pump_name": "สถานีสูบน้ำกรุงเกษม", "hy_lname": "คลองผดุงกรุงเกษม", "district_t": "สัมพันธวงศ์", "motor_num": "5"}}, {"type": "Feature", "geometry": {"type": "Point", "coordinates": [100.4868, 13.7316], "crs": null}, "properties": {"pump_name": "สถานีสูบน้ำคลองบางไส้ไก่ (วค.บ้านสมเด็จฯ)", "hy_lname": "คลองบางไส้ไก่", "district_t": "ธนบุรี", "motor_num": "(1,2,1)"}}, {"type": "Feature", "geometry": {"type": "Point", "coordinates": [100.49871, 13.73782], "crs": null}, "properties": {"pump_name": "สถานีสูบน้ำคลองวัดอนงค์", "hy_lname": "คลองข้างวัดอนงคาราม", "district_t": "คลองสาน", "motor_num": "2"}}, {"type": "Feature", "geometry": {"type": "Point", "coordinates": [100.50041, 13.74031], "crs": null}, "properties": {"pump_name": "สถานีสูบน้ำโอ่งอ่าง", "hy_lname": "คลองรอบกรุง", "district_t": "สัมพันธวงศ์", "motor_num": "1"}}, {"type": "Feature", "geometry": {"type": "Point", "coordinates": [100.49019, 13.74076], "crs": null}, "properties": {"pump_name": "สถานีสูบน้ำคลองบางกอกใหญ่", "hy_lname": "คลองบางกอกใหญ่", "district_t": "บางกอกใหญ่", "motor_num": "18"}}, {"type": "Feature", "geometry": {"type": "Point", "coordinates": [100.49461, 13.74221], "crs": null}, "properties": {"pump_name": "สถานีสูบน้ำปากคลองตลาด", "hy_lname": "คลองคูเมืองเดิม", "district_t": "พระนคร", "motor_num": "2"}}, {"type": "Feature", "geometry": {"type": "Point", "coordinates": [100.48513, 13.74714], "crs": null}, "properties": {"pump_name": "สถานีสูบน้ำคลองมอญ", "hy_lname": "คลองมอญ", "district_t": "บางกอกใหญ่", "motor_num": "8"}}, {"type": "Feature", "geometry": {"type": "Point", "coordinates": [100.46033, 13.7549], "crs": null}, "properties": {"pump_name": "สถานีสูบน้ำคลองจักรทอง (ด้านชักพระ)", "hy_lname": "คลองชักพระ", "district_t": "บางกอกน้อย", "motor_num": "2"}}, {"type": "Feature", "geometry": {"type": "Point", "coordinates": [100.49175, 13.76088], "crs": null}, "properties": {"pump_name": "สถานีสูบน้ำปิ่นเกล้า", "hy_lname": "คลองคูเมืองเดิม", "district_t": "พระนคร", "motor_num": "2"}}, {"type": "Feature", "geometry": {"type": "Point", "coordinates": [100.48822, 13.762], "crs": null}, "properties": {"pump_name": "สถานีสูบน้ำคลองวัดดุสิต", "hy_lname": "คลองบ้านขนมจีน", "district_t": "บางกอกน้อย", "motor_num": "2"}}, {"type": "Feature", "geometry": {"type": "Point", "coordinates": [100.4775, 13.7633], "crs": null}, "properties": {"pump_name": "สถานีสูบน้ำคลองจักรทอง (ด้านบางกอกน้อย)", "hy_lname": "คลองวัดทอง", "district_t": "บางกอกน้อย", "motor_num": "3"}}, {"type": "Feature", "geometry": {"type": "Point", "coordinates": [100.47844, 13.7639], "crs": null}, "properties": {"pump_name": "สถานีสูบน้ำคลองน้ำตาล", "hy_lname": "คลองน้ำตาล", "district_t": "บางกอกน้อย", "motor_num": "2"}}, {"type": "Feature", "geometry": {"type": "Point", "coordinates": [100.49606, 13.76437], "crs": null}, "properties": {"pump_name": "สถานีสูบน้ำบางลำพู", "hy_lname": "คลองรอบกรุง", "district_t": "พระนคร", "motor_num": "1"}}, {"type": "Feature", "geometry": {"type": "Point", "coordinates": [100.4762, 13.7655], "crs": null}, "properties": {"pump_name": "สถานีสูบน้ำคลองพิณพาทย์", "hy_lname": "คลองพิณพาทย์", "district_t": "บางกอกน้อย", "motor_num": "2"}}, {"type": "Feature", "geometry": {"type": "Point", "coordinates": [100.49401, 13.76702], "crs": null}, "properties": {"pump_name": "สถานีสูบน้ำคลองบางยี่ขัน", "hy_lname": "คลองบางยี่ขัน", "district_t": "บางพลัด", "motor_num": "(2,1,1)"}}, {"type": "Feature", "geometry": {"type": "Point", "coordinates": [100.47224, 13.76841], "crs": null}, "properties": {"pump_name": "สถานีสูบน้ำคลองวัดศรีสุดาราม", "hy_lname": "-", "district_t": "บางกอกน้อย", "motor_num": "2"}}, {"type": "Feature", "geometry": {"type": "Point", "coordinates": [100.5012, 13.77182], "crs": null}, "properties": {"pump_name": "สถานีสูบน้ำเทเวศร์", "hy_lname": "คลองผดุงกรุงเกษม", "district_t": "พระนคร", "motor_num": "5"}}, {"type": "Feature", "geometry": {"type": "Point", "coordinates": [100.47282, 13.77139], "crs": null}, "properties": {"pump_name": "สถานีสูบน้ำคลองผักหนาม", "hy_lname": "คลองผักหนาม", "district_t": "บางกอกน้อย", "motor_num": "2"}}, {"type": "Feature", "geometry": {"type": "Point", "coordinates": [100.4713, 13.77362], "crs": null}, "properties": {"pump_name": "สถานีสูบน้ำคลองบางบำหรุ", "hy_lname": "คลองบางบำหรุ", "district_t": "บางกอกน้อย", "motor_num": "5"}}, {"type": "Feature", "geometry": {"type": "Point", "coordinates": [100.49705, 13.77399], "crs": null}, "properties": {"pump_name": "สถานีสูบน้ำข้างอู่ต่อเรือสุภัทรา", "hy_lname": "คลองวัดบวรมงคล", "district_t": "บางพลัด", "motor_num": "2"}}, {"type": "Feature", "geometry": {"type": "Point", "coordinates": [100.46805, 13.77734], "crs": null}, "properties": {"pump_name": "สถานีสูบน้ำคลองแกลบ", "hy_lname": "คลองแกลบ", "district_t": "บางกอกน้อย", "motor_num": "2"}}, {"type": "Feature", "geometry": {"type": "Point", "coordinates": [100.46495, 13.77887], "crs": null}, "properties": {"pump_name": "สถานีสูบน้ำคลองชักพระ", "hy_lname": "คลองชักพระ", "district_t": "ตลิ่งชัน", "motor_num": "16"}}, {"type": "Feature", "geometry": {"type": "Point", "coordinates": [100.4983, 13.77883], "crs": null}, "properties": {"pump_name": "สถานีสูบน้ำคลองบางจาก", "hy_lname": "คลองบางจาก", "district_t": "บางพลัด", "motor_num": "2"}}, {"type": "Feature", "geometry": {"type": "Point", "coordinates": [100.50366, 13.779], "crs": null}, "properties": {"pump_name": "สถานีสูบน้ำคลองบ้านญวน", "hy_lname": "คลองบ้านญวนสามเสน", "district_t": "ดุสิต", "motor_num": "2"}}, {"type": "Feature", "geometry": {"type": "Point", "coordinates": [100.50524, 13.78262], "crs": null}, "properties": {"pump_name": "สถานีสูบน้ำสังคโลก (ดับเพลิงสามเสน)", "hy_lname": "คูน้ำข้างวิทยาลัยเกื้อการุณย์", "district_t": "ดุสิต", "motor_num": "-"}}, {"type": "Feature", "geometry": {"type": "Point", "coordinates": [100.50836, 13.78482], "crs": null}, "properties": {"pump_name": "สถานีสูบน้ำสามเสน", "hy_lname": "คลองสามเสน", "district_t": "ดุสิต", "motor_num": "15"}}, {"type": "Feature", "geometry": {"type": "Point", "coordinates": [100.46536, 13.78637], "crs": null}, "properties": {"pump_name": "สถานีสูบน้ำคลองวัดไก่เตี้ย", "hy_lname": "คลองวัดไก่เตี้ย", "district_t": "ตลิ่งชัน", "motor_num": "3"}}, {"type": "Feature", "geometry": {"type": "Point", "coordinates": [100.50341, 13.78704], "crs": null}, "properties": {"pump_name": "สถานีสูบน้ำคลองบางพลู", "hy_lname": "คลองบางพลู", "district_t": "บางพลัด", "motor_num": "3"}}, {"type": "Feature", "geometry": {"type": "Point", "coordinates": [100.466, 13.78955], "crs": null}, "properties": {"pump_name": "สถานีสูบน้ำคลองสวนแดน 1", "hy_lname": "คลองสวนแดน 1", "district_t": "ตลิ่งชัน", "motor_num": "2"}}, {"type": "Feature", "geometry": {"type": "Point", "coordinates": [100.50627, 13.79071], "crs": null}, "properties": {"pump_name": "สถานีสูบน้ำคลองบางพลัด", "hy_lname": "คลองบางพลัด", "district_t": "บางพลัด", "motor_num": "3"}}, {"type": "Feature", "geometry": {"type": "Point", "coordinates": [100.50872, 13.79172], "crs": null}, "properties": {"pump_name": "สถานีสูบน้ำคลองบางพระครู", "hy_lname": "คลองบางพระครู", "district_t": "บางพลัด", "motor_num": "2"}}, {"type": "Feature", "geometry": {"type": "Point", "coordinates": [100.51085, 13.79383], "crs": null}, "properties": {"pump_name": "สถานีสูบน้ำคลองบางรัก", "hy_lname": "คลองบางรัก", "district_t": "บางพลัด", "motor_num": "2"}}, {"type": "Feature", "geometry": {"type": "Point", "coordinates": [100.51068, 13.79575], "crs": null}, "properties": {"pump_name": "สถานีสูบน้ำคลองเตาอิฐ", "hy_lname": "คลองเตาอิฐ", "district_t": "บางพลัด", "motor_num": "2"}}, {"type": "Feature", "geometry": {"type": "Point", "coordinates": [100.51354, 13.79779], "crs": null}, "properties": {"pump_name": "สถานีสูบน้ำคลองสะพานยาว", "hy_lname": "คลองสะพานยาว", "district_t": "บางพลัด", "motor_num": "1"}}, {"type": "Feature", "geometry": {"type": "Point", "coordinates": [100.44488, 13.79844], "crs": null}, "properties": {"pump_name": "สถานีสูบน้ำคลองศาลเจ้า", "hy_lname": "คลองศาลเจ้า", "district_t": "ตลิ่งชัน", "motor_num": "3"}}, {"type": "Feature", "geometry": {"type": "Point", "coordinates": [100.52111, 13.79948], "crs": null}, "properties": {"pump_name": "สถานีสูบน้ำอุโมงค์บางซื่อ", "hy_lname": "-", "district_t": "ดุสิต", "motor_num": "6"}}, {"type": "Feature", "geometry": {"type": "Point", "coordinates": [100.5184, 13.80019], "crs": null}, "properties": {"pump_name": "สถานีสูบน้ำคลองบางซื่อ", "hy_lname": "คลองบางซื่อ", "district_t": "บางซื่อ", "motor_num": "17"}}, {"type": "Feature", "geometry": {"type": "Point", "coordinates": [100.51497, 13.80076], "crs": null}, "properties": {"pump_name": "สถานีสูบน้ำคลองบางอ้อ", "hy_lname": "คลองบางอ้อ", "district_t": "บางพลัด", "motor_num": "2"}}, {"type": "Feature", "geometry": {"type": "Point", "coordinates": [100.50356, 13.80988], "crs": null}, "properties": {"pump_name": "สถานีสูบน้ำคลองบางละมุด", "hy_lname": "-", "district_t": "บางกรวย", "motor_num": "2"}}, {"type": "Feature", "geometry": {"type": "Point", "coordinates": [100.5106, 13.8172], "crs": null}, "properties": {"pump_name": "สถานีสูบน้ำคลองบางเขนใหม่", "hy_lname": "คลองบางเขนใหม่", "district_t": "บางซื่อ", "motor_num": "3"}}, {"type": "Feature", "geometry": {"type": "Point", "coordinates": [100.50709, 13.82115], "crs": null}, "properties": {"pump_name": "สถานีสูบน้ำคลองบางเขนเก่า", "hy_lname": "คลองบางเขน", "district_t": "บางซื่อ", "motor_num": "3"}}, {"type": "Feature", "geometry": {"type": "Point", "coordinates": [100.68936, 13.66378], "crs": null}, "properties": {"pump_name": "สถานีสูบน้ำคลองอาจารย์พร", "hy_lname": "คลองอาจารย์พร", "district_t": "ประเวศ", "motor_num": "1"}}, {"type": "Feature", "geometry": {"type": "Point", "coordinates": [100.58135, 13.66783], "crs": null}, "properties": {"pump_name": "สถานีสูบน้ำคลองวัดโยธินประดิษฐ์", "hy_lname": "-", "district_t": "บางนา", "motor_num": "(1,1)"}}, {"type": "Feature", "geometry": {"type": "Point", "coordinates": [100.54017, 13.67073], "crs": null}, "properties": {"pump_name": "สถานีสูบน้ำคลองวัดด่าน", "hy_lname": "คลองวัดด่าน", "district_t": "ยานนาวา", "motor_num": "3"}}, {"type": "Feature", "geometry": {"type": "Point", "coordinates": [100.53439, 13.67207], "crs": null}, "properties": {"pump_name": "สถานีสูบน้ำวัดแฝด", "hy_lname": "คลองแฝด", "district_t": "ยานนาวา", "motor_num": "-"}}, {"type": "Feature", "geometry": {"type": "Point", "coordinates": [100.58772, 13.67485], "crs": null}, "properties": {"pump_name": "สถานีสูบน้ำบางนา", "hy_lname": "คลองบางนา", "district_t": "บางนา", "motor_num": "7"}}, {"type": "Feature", "geometry": {"type": "Point", "coordinates": [100.5211, 13.6763], "crs": null}, "properties": {"pump_name": "สถานีสูบน้ำคลองแจงร้อน", "hy_lname": "คลองแจงร้อน", "district_t": "ราษฎร์บูรณะ", "motor_num": "2"}}, {"type": "Feature", "geometry": {"type": "Point", "coordinates": [100.54831, 13.67673], "crs": null}, "properties": {"pump_name": "สถานีสูบน้ำคลองใหม่", "hy_lname": "คลองใหม่", "district_t": "ยานนาวา", "motor_num": "4"}}, {"type": "Feature", "geometry": {"type": "Point", "coordinates": [100.5278, 13.6775], "crs": null}, "properties": {"pump_name": "สถานีสูบน้ำสาธุประดิษฐ์", "hy_lname": "-", "district_t": "ยานนาวา", "motor_num": "(2,2)"}}, {"type": "Feature", "geometry": {"type": "Point", "coordinates": [100.55027, 13.68103], "crs": null}, "properties": {"pump_name": "สถานีสูบน้ำคลองภูมิ", "hy_lname": "คลองภูมิ", "district_t": "ยานนาวา", "motor_num": "3"}}, {"type": "Feature", "geometry": {"type": "Point", "coordinates": [100.59234, 13.6821], "crs": null}, "properties": {"pump_name": "สถานีสูบน้ำบางอ้อ", "hy_lname": "คลองบางอ้อใหญ่", "district_t": "พระโขนง", "motor_num": "6"}}, {"type": "Feature", "geometry": {"type": "Point", "coordinates": [100.55056, 13.68544], "crs": null}, "properties": {"pump_name": "สถานีสูบน้ำคลองสวน", "hy_lname": "คลองสวน", "district_t": "ยานนาวา", "motor_num": "3"}}, {"type": "Feature", "geometry": {"type": "Point", "coordinates": [100.51676, 13.68689], "crs": null}, "properties": {"pump_name": "สถานีสูบน้ำคลองวัดไทร", "hy_lname": "คลองวัดไทร", "district_t": "บางคอแหลม", "motor_num": "3"}}, {"type": "Feature", "geometry": {"type": "Point", "coordinates": [100.59072, 13.68931], "crs": null}, "properties": {"pump_name": "สถานีสูบน้ำบางจาก", "hy_lname": "คลองบางจาก", "district_t": "พระโขนง", "motor_num": "2"}}, {"type": "Feature", "geometry": {"type": "Point", "coordinates": [100.54983, 13.69095], "crs": null}, "properties": {"pump_name": "สถานีสูบน้ำคลองตาเริก", "hy_lname": "คลองตาเริก", "district_t": "ยานนาวา", "motor_num": "3"}}, {"type": "Feature", "geometry": {"type": "Point", "coordinates": [100.5898, 13.69222], "crs": null}, "properties": {"pump_name": "สถานีสูบน้ำคลองเจ๊ก", "hy_lname": "คลองเจ็ก", "district_t": "พระโขนง", "motor_num": "2"}}, {"type": "Feature", "geometry": {"type": "Point", "coordinates": [100.54876, 13.69503], "crs": null}, "properties": {"pump_name": "สถานีสูบน้ำคลองช่องนนทรี", "hy_lname": "คลองช่องนนทรี", "district_t": "ยานนาวา", "motor_num": "5"}}, {"type": "Feature", "geometry": {"type": "Point", "coordinates": [100.65379, 13.69538], "crs": null}, "properties": {"pump_name": "สถานีสูบน้ำบึงหนองบอน", "hy_lname": "-", "district_t": "ประเวศ", "motor_num": "5"}}, {"type": "Feature", "geometry": {"type": "Point", "coordinates": [100.5893, 13.7047], "crs": null}, "properties": {"pump_name": "สถานีสูบน้ำหิมะทองคำ", "hy_lname": "คลองบางจาก", "district_t": "คลองเตย", "motor_num": "2"}}, {"type": "Feature", "geometry": {"type": "Point", "coordinates": [100.5495, 13.7052], "crs": null}, "properties": {"pump_name": "สถานีสูบน้ำคลองขุดวัดช่องลม", "hy_lname": "คลองขุด", "district_t": "ยานนาวา", "motor_num": "5"}}, {"type": "Feature", "geometry": {"type": "Point", "coordinates": [100.5877, 13.7063], "crs": null}, "properties": {"pump_name": "สถานีสูบน้ำคลองเตย", "hy_lname": "คลองเตย", "district_t": "คลองเตย", "motor_num": "10"}}, {"type": "Feature", "geometry": {"type": "Point", "coordinates": [100.55448, 13.70861], "crs": null}, "properties": {"pump_name": "สถานีสูบน้ำพระราม 4", "hy_lname": "-", "district_t": "คลองเตย", "motor_num": "-"}}, {"type": "Feature", "geometry": {"type": "Point", "coordinates": [100.59452, 13.7086], "crs": null}, "properties": {"pump_name": "สถานีสูบน้ำคลองยายล้อม", "hy_lname": "คลองยายล้อม", "district_t": "คลองเตย", "motor_num": "2"}}, {"type": "Feature", "geometry": {"type": "Point", "coordinates": [100.59493, 13.70869], "crs": null}, "properties": {"pump_name": "สถานีสูบน้ำพระโขนง", "hy_lname": "-", "district_t": "คลองเตย", "motor_num": "(35,10,6)"}}, {"type": "Feature", "geometry": {"type": "Point", "coordinates": [100.6164, 13.70921], "crs": null}, "properties": {"pump_name": "สถานีสูบน้ำคลองสวนอ้อย", "hy_lname": "คลองสวนอ้อย", "district_t": "สวนหลวง", "motor_num": "(1,1)"}}, {"type": "Feature", "geometry": {"type": "Point", "coordinates": [100.62158, 13.7095], "crs": null}, "properties": {"pump_name": "สถานีสูบน้ำคลองบ้านหลาย", "hy_lname": "คลองบ้านหลาย", "district_t": "สวนหลวง", "motor_num": "(2,1)"}}, {"type": "Feature", "geometry": {"type": "Point", "coordinates": [100.59511, 13.70983], "crs": null}, "properties": {"pump_name": "สถานีสูบน้ำอุโมงค์พระโขนง", "hy_lname": "คลองพระโขนง", "district_t": "คลองเตย", "motor_num": "4"}}, {"type": "Feature", "geometry": {"type": "Point", "coordinates": [100.63062, 13.71054], "crs": null}, "properties": {"pump_name": "สถานีสูบน้ำคลองเคล็ด", "hy_lname": "คลองเคล็ด", "district_t": "สวนหลวง", "motor_num": "4"}}, {"type": "Feature", "geometry": {"type": "Point", "coordinates": [100.6031, 13.7109], "crs": null}, "properties": {"pump_name": "สถานีสูบน้ำคลองบางนางจีน", "hy_lname": "คลองบางนางจีน", "district_t": "วัฒนา", "motor_num": "(3,1)"}}, {"type": "Feature", "geometry": {"type": "Point", "coordinates": [100.6409, 13.71213], "crs": null}, "properties": {"pump_name": "สถานีสูบน้ำคลองขุนสกล", "hy_lname": "คลองขุนสกล", "district_t": "สวนหลวง", "motor_num": "(2,1)"}}, {"type": "Feature", "geometry": {"type": "Point", "coordinates": [100.59856, 13.7126], "crs": null}, "properties": {"pump_name": "สถานีสูบน้ำคลองบางมะเขือ", "hy_lname": "คลองบางมะเขือ", "district_t": "วัฒนา", "motor_num": "(2,1)"}}, {"type": "Feature", "geometry": {"type": "Point", "coordinates": [100.65115, 13.71618], "crs": null}, "properties": {"pump_name": "สถานีสูบน้ำคลองหนองบอน (ตอนอ่อนนุช)", "hy_lname": "คลองหนองบอน", "district_t": "สวนหลวง", "motor_num": "2"}}, {"type": "Feature", "geometry": {"type": "Point", "coordinates": [100.6587, 13.7174], "crs": null}, "properties": {"pump_name": "สถานีสูบน้ำคลองศาลาลอยล่าง (ตอนอ่อนนุช)", "hy_lname": "คลองศาลาลอยล่าง", "district_t": "ประเวศ", "motor_num": "2"}}, {"type": "Feature", "geometry": {"type": "Point", "coordinates": [100.67832, 13.7199], "crs": null}, "properties": {"pump_name": "สถานีสูบน้ำคลองศาลาลอยบน (ตอนอ่อนนุช)", "hy_lname": "คลองสองห้อง", "district_t": "ประเวศ", "motor_num": "1"}}, {"type": "Feature", "geometry": {"type": "Point", "coordinates": [100.70104, 13.721], "crs": null}, "properties": {"pump_name": "สถานีสูบน้ำจระเข้ขบ (ตอนอ่อนนุช)", "hy_lname": "คลองจรเข้ขบ", "district_t": "ประเวศ", "motor_num": "2"}}, {"type": "Feature", "geometry": {"type": "Point", "coordinates": [100.6646, 13.7242], "crs": null}, "properties": {"pump_name": "แก้มลิงหมู่บ้านเมืองทองการ์เด้นท์", "hy_lname": "คลองบ้านม้า", "district_t": "ประเวศ", "motor_num": "(1,1)"}}, {"type": "Feature", "geometry": {"type": "Point", "coordinates": [100.62403, 13.73981], "crs": null}, "properties": {"pump_name": "สถานีสูบน้ำคลองลาว", "hy_lname": "-", "district_t": "สวนหลวง", "motor_num": "2"}}, {"type": "Feature", "geometry": {"type": "Point", "coordinates": [100.5889, 13.74146], "crs": null}, "properties": {"pump_name": "สถานีสูบน้ำคลองเป้ง", "hy_lname": "คลองเป้ง", "district_t": "วัฒนา", "motor_num": "(3,1)"}}, {"type": "Feature", "geometry": {"type": "Point", "coordinates": [100.6042, 13.7466], "crs": null}, "properties": {"pump_name": "สถานีสูบน้ำคลองกะจะ", "hy_lname": "คลองกะจะ", "district_t": "สวนหลวง", "motor_num": "(3,2)"}}, {"type": "Feature", "geometry": {"type": "Point", "coordinates": [100.53614, 13.74798], "crs": null}, "properties": {"pump_name": "สถานีสูบน้ำคลองอรชร", "hy_lname": "คลองอรชร", "district_t": "ปทุมวัน", "motor_num": "3"}}, {"type": "Feature", "geometry": {"type": "Point", "coordinates": [100.56124, 13.74805], "crs": null}, "properties": {"pump_name": "สถานีสูบน้ำคูน้ำวัฒนา", "hy_lname": "คลองแสนแสบ", "district_t": "วัฒนา", "motor_num": "3"}}, {"type": "Feature", "geometry": {"type": "Point", "coordinates": [100.5991, 13.7485], "crs": null}, "properties": {"pump_name": "สถานีสูบน้ำคลองสามเสน (ศูนย์วิจัย)", "hy_lname": "คลองสามเสน", "district_t": "ห้วยขวาง", "motor_num": "4"}}, {"type": "Feature", "geometry": {"type": "Point", "coordinates": [100.55181, 13.7497], "crs": null}, "properties": {"pump_name": "สถานีสูบน้ำข้างวัดมักกะสัน", "hy_lname": "คูข้างโรงพยาบาลรถไฟมักกะสัน", "district_t": "ราชเทวี", "motor_num": "2"}}, {"type": "Feature", "geometry": {"type": "Point", "coordinates": [100.58108, 13.75441], "crs": null}, "properties": {"pump_name": "สถานีสูบน้ำคลองชวดใหญ่ (ตอนคลองสามเสน)", "hy_lname": "คลองชวดใหญ่", "district_t": "ห้วยขวาง", "motor_num": "4"}}, {"type": "Feature", "geometry": {"type": "Point", "coordinates": [100.55233, 13.75587], "crs": null}, "properties": {"pump_name": "สถานีสูบน้ำบึงมักกะสัน (คลองสามเสน)", "hy_lname": "คลองสามเสน", "district_t": "ดินแดง", "motor_num": "-"}}, {"type": "Feature", "geometry": {"type": "Point", "coordinates": [100.56049, 13.75621], "crs": null}, "properties": {"pump_name": "สถานีสูบน้ำคลองนาซอง", "hy_lname": "คลองนาซอง", "district_t": "ดินแดง", "motor_num": "(4,2)"}}, {"type": "Feature", "geometry": {"type": "Point", "coordinates": [100.6088, 13.7562], "crs": null}, "properties": {"pump_name": "สถานีสูบน้ำคลองตาป่วน", "hy_lname": "ลำรางตาป่วน", "district_t": "วังทองหลาง", "motor_num": "2"}}, {"type": "Feature", "geometry": {"type": "Point", "coordinates": [100.55532, 13.75712], "crs": null}, "properties": {"pump_name": "สถานีสูบน้ำโบสถ์แม่พระฟาติมา", "hy_lname": "คูข้างโบสถ์แม่พระฟาติมา", "district_t": "ดินแดง", "motor_num": "(4,1)"}}, {"type": "Feature", "geometry": {"type": "Point", "coordinates": [100.61032, 13.75729], "crs": null}, "properties": {"pump_name": "สถานีสูบน้ำลำรางกระบือ (ตอนคลองแสนแสบ)", "hy_lname": "ลำรางหลังวิทยาลัยอินทราชัย", "district_t": "วังทองหลาง", "motor_num": "2"}}, {"type": "Feature", "geometry": {"type": "Point", "coordinates": [100.61339, 13.7594], "crs": null}, "properties": {"pump_name": "สถานีสูบน้ำซอยรามคำแหง 39", "hy_lname": "คลองแสนแสบ", "district_t": "บางกะปิ", "motor_num": "3"}}, {"type": "Feature", "geometry": {"type": "Point", "coordinates": [100.62777, 13.76086], "crs": null}, "properties": {"pump_name": "สถานีสูบน้ำหน้าสน.หัวหมาก", "hy_lname": "คลองข้าง สน.หัวหมาก", "district_t": "บางกะปิ", "motor_num": "(4,2)"}}, {"type": "Feature", "geometry": {"type": "Point", "coordinates": [100.61177, 13.76108], "crs": null}, "properties": {"pump_name": "สถานีสูบน้ำคลองวัดตึก", "hy_lname": "คลองวัดตึก", "district_t": "วังทองหลาง", "motor_num": "4"}}, {"type": "Feature", "geometry": {"type": "Point", "coordinates": [100.61525, 13.76138], "crs": null}, "properties": {"pump_name": "สถานีสูบน้ำเจ้าคุณสิงห์", "hy_lname": "คลองเจ้าคุณสิงห์", "district_t": "วังทองหลาง", "motor_num": "(3,1)"}}, {"type": "Feature", "geometry": {"type": "Point", "coordinates": [100.63283, 13.76148], "crs": null}, "properties": {"pump_name": "สถานีสูบน้ำคลองจิก (ถ.รามคำแหง)", "hy_lname": "คลองจิก", "district_t": "บางกะปิ", "motor_num": "2"}}, {"type": "Feature", "geometry": {"type": "Point", "coordinates": [100.6232, 13.76195], "crs": null}, "properties": {"pump_name": "สถานีสูบน้ำคลองจิกกานดา", "hy_lname": "คลองแสนแสบ", "district_t": "บางกะปิ", "motor_num": "(1,1)"}}, {"type": "Feature", "geometry": {"type": "Point", "coordinates": [100.62418, 13.76209], "crs": null}, "properties": {"pump_name": "สถานีสูบน้ำมหาดไทย 65", "hy_lname": "คลองแสนแสบ", "district_t": "บางกะปิ", "motor_num": "2"}}, {"type": "Feature", "geometry": {"type": "Point", "coordinates": [100.62272, 13.76248], "crs": null}, "properties": {"pump_name": "สถานีสูบน้ำคลองจิตมิตรมหาดไทย (ตอนคลองแสนแสบ)", "hy_lname": "คลองแสนแสบ", "district_t": "วังทองหลาง", "motor_num": "(1,2)"}}, {"type": "Feature", "geometry": {"type": "Point", "coordinates": [100.6411, 13.7624], "crs": null}, "properties": {"pump_name": "สถานีสูบน้ำคลองจิต (ถ.รามคำแหง)", "hy_lname": "คลองจิก", "district_t": "บางกะปิ", "motor_num": "(1,1,1)"}}, {"type": "Feature", "geometry": {"type": "Point", "coordinates": [100.59197, 13.76311], "crs": null}, "properties": {"pump_name": "สถานีสูบน้ำคลองชวดใหญ่ (ลาดพร้าว)", "hy_lname": "คลองชวดใหญ่", "district_t": "ห้วยขวาง", "motor_num": "(1,1)"}}, {"type": "Feature", "geometry": {"type": "Point", "coordinates": [100.64692, 13.7633], "crs": null}, "properties": {"pump_name": "สถานีสูบน้ำคลองโต๊ะยอ", "hy_lname": "คลองโต๊ะยอ", "district_t": "บางกะปิ", "motor_num": "(3,1)"}}, {"type": "Feature", "geometry": {"type": "Point", "coordinates": [100.59591, 13.76349], "crs": null}, "properties": {"pump_name": "สถานีสูบน้ำคลองพลับพลา  (ตอนคลองลาดพร้าว)", "hy_lname": "คลองพลับพลา", "district_t": "วังทองหลาง", "motor_num": "3"}}, {"type": "Feature", "geometry": {"type": "Point", "coordinates": [100.63384, 13.76369], "crs": null}, "properties": {"pump_name": "สถานีสูบน้ำลำรางสาธารณะซอยลาดพร้าว 130 (ตอนคลองแสนแสบ)", "hy_lname": "ลำรางเลียบซอยลาดพร้าว 130", "district_t": "บางกะปิ", "motor_num": "3"}}, {"type": "Feature", "geometry": {"type": "Point", "coordinates": [100.63629, 13.76434], "crs": null}, "properties": {"pump_name": "สถานีสูบน้ำคูน้ำข้างวัดกลาง (ตอนคลองแสนแสบ)", "hy_lname": "คลองแสนแสบ", "district_t": "บางกะปิ", "motor_num": "(1,1)"}}, {"type": "Feature", "geometry": {"type": "Point", "coordinates": [100.6437, 13.7649], "crs": null}, "properties": {"pump_name": "สถานีสูบน้ำคลองตาหนัง", "hy_lname": "คลองตาหนัง", "district_t": "บางกะปิ", "motor_num": "3"}}, {"type": "Feature", "geometry": {"type": "Point", "coordinates": [100.63952, 13.76777], "crs": null}, "properties": {"pump_name": "สถานีสูบน้ำคลองยายเผื่อน", "hy_lname": "คลองยายเผื่อน", "district_t": "บางกะปิ", "motor_num": "2"}}, {"type": "Feature", "geometry": {"type": "Point", "coordinates": [100.59329, 13.7688], "crs": null}, "properties": {"pump_name": "สถานีสูบน้ำคลองชวดตาเชียง (ตอนคลองลาดพร้าว)", "hy_lname": "-", "district_t": "วังทองหลาง", "motor_num": "(1,1,1)"}}, {"type": "Feature", "geometry": {"type": "Point", "coordinates": [100.5512, 13.7691], "crs": null}, "properties": {"pump_name": "สถานีสูบน้ำดินแดง-ขาเข้า", "hy_lname": "คูระบายน้ำข้างถนนวิภาวดีรังสิต", "district_t": "พญาไท", "motor_num": "3"}}, {"type": "Feature", "geometry": {"type": "Point", "coordinates": [100.6519, 13.7686], "crs": null}, "properties": {"pump_name": "สถานีสูบน้ำคลองลำพังพวย (นิด้า)", "hy_lname": "คลองลำพังพวย", "district_t": "บางกะปิ", "motor_num": "(4,1)"}}, {"type": "Feature", "geometry": {"type": "Point", "coordinates": [100.62816, 13.77471], "crs": null}, "properties": {"pump_name": "สถานีสูบน้ำจิตมิตรมหาดไทย (ตอนคลองจั่น)", "hy_lname": "คลองจิตรมิตรมหาดไทย", "district_t": "วังทองหลาง", "motor_num": "2"}}, {"type": "Feature", "geometry": {"type": "Point", "coordinates": [100.56548, 13.77529], "crs": null}, "properties": {"pump_name": "สถานีสูบน้ำประชาสงเคราะห์ 24", "hy_lname": "คลองนาซอง", "district_t": "ดินแดง", "motor_num": "2"}}, {"type": "Feature", "geometry": {"type": "Point", "coordinates": [100.5399, 13.7841], "crs": null}, "properties": {"pump_name": "สถานีสูบน้ำบึงพิบูลย์วัฒนา", "hy_lname": "-", "district_t": "พญาไท", "motor_num": "4"}}, {"type": "Feature", "geometry": {"type": "Point", "coordinates": [100.66503, 13.78498], "crs": null}, "properties": {"pump_name": "สถานีสูบน้ำบึงกุ่ม (ตอนสวนเสรีไทย)", "hy_lname": "-", "district_t": "บึงกุ่ม", "motor_num": "3"}}, {"type": "Feature", "geometry": {"type": "Point", "coordinates": [100.66171, 13.78455], "crs": null}, "properties": {"pump_name": "สถานีสูบน้ำบึงกุ่ม (ตอนคลองบางเตย)", "hy_lname": "คลองบางเตย", "district_t": "บึงกุ่ม", "motor_num": "2"}}, {"type": "Feature", "geometry": {"type": "Point", "coordinates": [100.56133, 13.78731], "crs": null}, "properties": {"pump_name": "สถานีสูบน้ำสุทธิสาร-ขาเข้า", "hy_lname": "คูระบายน้ำข้างถนนวิภาวดีรังสิต", "district_t": "ดินแดง", "motor_num": "3"}}, {"type": "Feature", "geometry": {"type": "Point", "coordinates": [100.56072, 13.78782], "crs": null}, "properties": {"pump_name": "สถานีสูบน้ำสุทธิสาร-ขาออก", "hy_lname": "คูระบายน้ำช่วงถนนวิภาวดีรังสิต", "district_t": "พญาไท", "motor_num": "3"}}, {"type": "Feature", "geometry": {"type": "Point", "coordinates": [100.62801, 13.78848], "crs": null}, "properties": {"pump_name": "สถานีสูบน้ำคลองลำพังพวย (ตอนคลองจั่น)", "hy_lname": "-", "district_t": "บางกะปิ", "motor_num": "4"}}, {"type": "Feature", "geometry": {"type": "Point", "coordinates": [100.5696, 13.79058], "crs": null}, "properties": {"pump_name": "สถานีสูบน้ำคลองห้วยขวาง", "hy_lname": "คลองห้วยขวาง", "district_t": "ดินแดง", "motor_num": "(3,2)"}}, {"type": "Feature", "geometry": {"type": "Point", "coordinates": [100.65675, 13.79237], "crs": null}, "properties": {"pump_name": "สถานีสูบน้ำลำรางสาธารณะ (ตอนคลองบางเตย นวมินทร์ 26)", "hy_lname": "คลองบางเตย", "district_t": "บึงกุ่ม", "motor_num": "2"}}, {"type": "Feature", "geometry": {"type": "Point", "coordinates": [100.56156, 13.79473], "crs": null}, "properties": {"pump_name": "สถานีสูบน้ำคลองบางซื่อ-ขาเข้า (ฝั่งใต้)", "hy_lname": "คลองบางซื่อ", "district_t": "ดินแดง", "motor_num": "(1,2)"}}, {"type": "Feature", "geometry": {"type": "Point", "coordinates": [100.56152, 13.79512], "crs": null}, "properties": {"pump_name": "สถานีสูบน้ำคลองบางซื่อ-ขาเข้า (ฝั่งเหนือ)", "hy_lname": "คลองบางซื่อ", "district_t": "จตุจักร", "motor_num": "(1,2)"}}, {"type": "Feature", "geometry": {"type": "Point", "coordinates": [100.56081, 13.79531], "crs": null}, "properties": {"pump_name": "สถานีสูบน้ำคลองบางซื่อ-ขาออก(ฝั่งเหนือ)", "hy_lname": "คูระบายน้ำช่วงถนนวิภาวดีรังสิต", "district_t": "จตุจักร", "motor_num": "(1,2)"}}, {"type": "Feature", "geometry": {"type": "Point", "coordinates": [100.6735, 13.7946], "crs": null}, "properties": {"pump_name": "สถานีสูบน้ำคลองระหัส", "hy_lname": "คลองระหัส", "district_t": "บึงกุ่ม", "motor_num": "2"}}, {"type": "Feature", "geometry": {"type": "Point", "coordinates": [100.62347, 13.80015], "crs": null}, "properties": {"pump_name": "สถานีสูบน้ำคลองทรงกระเทียม (ตอนคลองจั่น)", "hy_lname": "คลองจั่น", "district_t": "วังทองหลาง", "motor_num": "(2,1,1)"}}, {"type": "Feature", "geometry": {"type": "Point", "coordinates": [100.65171, 13.80104], "crs": null}, "properties": {"pump_name": "สถานีสูบน้ำคลองบวบขม (ตอนคลองบางเตย)", "hy_lname": "คลองบางเตย", "district_t": "บึงกุ่ม", "motor_num": "4"}}, {"type": "Feature", "geometry": {"type": "Point", "coordinates": [100.58896, 13.80279], "crs": null}, "properties": {"pump_name": "สถานีสูบน้ำคลองทรงกระเทียม (ตอนวัดลาดพร้าว)", "hy_lname": "คลองทรงกระเทียม", "district_t": "ลาดพร้าว", "motor_num": "(1,2)"}}, {"type": "Feature", "geometry": {"type": "Point", "coordinates": [100.536, 13.8046], "crs": null}, "properties": {"pump_name": "สถานีสูบน้ำคลองเปรมประชากร", "hy_lname": "คลองเปรมประชากร", "district_t": "บางซื่อ", "motor_num": "8"}}, {"type": "Feature", "geometry": {"type": "Point", "coordinates": [100.51955, 13.80519], "crs": null}, "properties": {"pump_name": "สถานีสูบน้ำคลองขรัวตาแก่น", "hy_lname": "คลองขรัวตาแก่น", "district_t": "บางซื่อ", "motor_num": "4"}}, {"type": "Feature", "geometry": {"type": "Point", "coordinates": [100.70285, 13.80461], "crs": null}, "properties": {"pump_name": "สถานีสูบน้ำบึงกระเทียม", "hy_lname": "-", "district_t": "มีนบุรี", "motor_num": "2"}}, {"type": "Feature", "geometry": {"type": "Point", "coordinates": [100.51589, 13.80681], "crs": null}, "properties": {"pump_name": "สถานีสูบน้ำคลองสวนแดน 2", "hy_lname": "คลองสวนแดน", "district_t": "บางพลัด", "motor_num": "2"}}, {"type": "Feature", "geometry": {"type": "Point", "coordinates": [100.6498, 13.80603], "crs": null}, "properties": {"pump_name": "สถานีสูบน้ำลำรางบางเตย (นวมินทร 66)", "hy_lname": "ลำรางแยกคลองบางเตย ตอน 1", "district_t": "บึงกุ่ม", "motor_num": "2"}}, {"type": "Feature", "geometry": {"type": "Point", "coordinates": [100.70117, 13.80583], "crs": null}, "properties": {"pump_name": "สถานีสูบน้ำบึงสวนสยาม", "hy_lname": "คลองบางชัน", "district_t": "คันนายาว", "motor_num": "2"}}, {"type": "Feature", "geometry": {"type": "Point", "coordinates": [100.5189, 13.8081], "crs": null}, "properties": {"pump_name": "สถานีสูบน้ำบางโพ", "hy_lname": "คลองบางโพ", "district_t": "บางซื่อ", "motor_num": "2"}}, {"type": "Feature", "geometry": {"type": "Point", "coordinates": [100.51828, 13.81077], "crs": null}, "properties": {"pump_name": "สถานีสูบน้ำคูน้ำข้างวัดอนัมนิกายาราม", "hy_lname": "-", "district_t": "บางซื่อ", "motor_num": "2"}}, {"type": "Feature", "geometry": {"type": "Point", "coordinates": [100.5892, 13.81048], "crs": null}, "properties": {"pump_name": "สถานีสูบน้ำคลองหนองบอน (ตอนถนนลาดพร้าว-วังหิน)", "hy_lname": "คลองลาดพร้าว", "district_t": "ลาดพร้าว", "motor_num": "(1,1,1)"}}, {"type": "Feature", "geometry": {"type": "Point", "coordinates": [100.51814, 13.81212], "crs": null}, "properties": {"pump_name": "สถานีสูบน้ำวัดสร้อยทอง", "hy_lname": "คลองกระดาษ", "district_t": "บางซื่อ", "motor_num": "(2,3)"}}, {"type": "Feature", "geometry": {"type": "Point", "coordinates": [100.51636, 13.81452], "crs": null}, "properties": {"pump_name": "สถานีสูบน้ำคลองส้มป่อย", "hy_lname": "คลองส้มป่อยพระราม 6", "district_t": "บางซื่อ", "motor_num": "2"}}, {"type": "Feature", "geometry": {"type": "Point", "coordinates": [100.6265, 13.81924], "crs": null}, "properties": {"pump_name": "สถานีสูบน้ำคลองลำเจียก", "hy_lname": "คลองลำเจียก 1", "district_t": "บางกะปิ", "motor_num": "4"}}, {"type": "Feature", "geometry": {"type": "Point", "coordinates": [100.5582, 13.82048], "crs": null}, "properties": {"pump_name": "สถานีสูบน้ำหลัง รร.หอวัง", "hy_lname": "คูระบายน้ำข้างถนนวิภาวดีรังสิต", "district_t": "จตุจักร", "motor_num": "(1,1,2)"}}, {"type": "Feature", "geometry": {"type": "Point", "coordinates": [100.59135, 13.82162], "crs": null}, "properties": {"pump_name": "สถานีสูบน้ำคลองเสือน้อย (ตอนถนนลาดพร้าว-วังหิน)", "hy_lname": "คลองเสือน้อย", "district_t": "ลาดพร้าว", "motor_num": "(2,1,1)"}}, {"type": "Feature", "geometry": {"type": "Point", "coordinates": [100.54494, 13.82197], "crs": null}, "properties": {"pump_name": "สถานีสูบน้ำบึงบางซื่อ", "hy_lname": "-", "district_t": "จตุจักร", "motor_num": "1"}}, {"type": "Feature", "geometry": {"type": "Point", "coordinates": [100.6261, 13.82252], "crs": null}, "properties": {"pump_name": "สถานีสูบน้ำคลองเสือน้อย (ตอนคลองจั่น)", "hy_lname": "คลองเสือน้อย", "district_t": "ลาดพร้าว", "motor_num": "5"}}, {"type": "Feature", "geometry": {"type": "Point", "coordinates": [100.65994, 13.82376], "crs": null}, "properties": {"pump_name": "สถานีคลองดอนอีกา", "hy_lname": "คลองหนองแขม", "district_t": "บึงกุ่ม", "motor_num": "4"}}, {"type": "Feature", "geometry": {"type": "Point", "coordinates": [100.55701, 13.83018], "crs": null}, "properties": {"pump_name": "สถานีสูบน้ำรัชดาวิภาวดี", "hy_lname": "คูระบายน้ำข้างถนนวิภาวดีรังสิต", "district_t": "จตุจักร", "motor_num": "(4,1)"}}, {"type": "Feature", "geometry": {"type": "Point", "coordinates": [100.62879, 13.84265], "crs": null}, "properties": {"pump_name": "สถานีสูบน้ำคลองบางขวด", "hy_lname": "คลองโคกคราม", "district_t": "ลาดพร้าว", "motor_num": "4"}}, {"type": "Feature", "geometry": {"type": "Point", "coordinates": [100.55926, 13.84404], "crs": null}, "properties": {"pump_name": "สถานีสูบน้ำคลองลาดยาว", "hy_lname": "คลองลาดยาว", "district_t": "จตุจักร", "motor_num": "(1,3)"}}, {"type": "Feature", "geometry": {"type": "Point", "coordinates": [100.5568, 13.84576], "crs": null}, "properties": {"pump_name": "สถานีสูบน้ำเรือนจำกลางคลองเปรมฯ", "hy_lname": "-", "district_t": "จตุจักร", "motor_num": "2"}}, {"type": "Feature", "geometry": {"type": "Point", "coordinates": [100.77669, 13.849], "crs": null}, "properties": {"pump_name": "สถานีสูบน้ำบึงมะขามเทศ (ตอนลำรางสาธารณะเชื่อมคลองพระราชดำริ)", "hy_lname": "-", "district_t": "คลองสามวา", "motor_num": "2"}}, {"type": "Feature", "geometry": {"type": "Point", "coordinates": [100.56561, 13.8544], "crs": null}, "properties": {"pump_name": "สถานีสูบน้ำคลองบางเขน-ขาเข้า(ฝั่งใต้)", "hy_lname": "คูระบายน้ำข้างถนนวิภาวดีรังสิต", "district_t": "จตุจักร", "motor_num": "(2,2)"}}, {"type": "Feature", "geometry": {"type": "Point", "coordinates": [100.77101, 13.85403], "crs": null}, "properties": {"pump_name": "สถานีสูบน้ำบึงสะแกงามสามเดือน (ตอนคลองโต๊ะเจริญ)", "hy_lname": "-", "district_t": "คลองสามวา", "motor_num": "2"}}, {"type": "Feature", "geometry": {"type": "Point", "coordinates": [100.56566, 13.85599], "crs": null}, "properties": {"pump_name": "สถานีสูบน้ำคลองบางเขน-ขาออก(ฝั่งเหนือ)", "hy_lname": "คูน้ำข้างถนนวิภาวดีรังสิต", "district_t": "หลักสี่", "motor_num": "(1,2)"}}, {"type": "Feature", "geometry": {"type": "Point", "coordinates": [100.56702, 13.85707], "crs": null}, "properties": {"pump_name": "สถานีสูบน้ำคลองบางเขน-ขาเข้า(ฝั่งเหนือ)", "hy_lname": "คูน้ำข้างถนนวิภาวดีรังสิต", "district_t": "หลักสี่", "motor_num": "(2,3)"}}, {"type": "Feature", "geometry": {"type": "Point", "coordinates": [100.57361, 13.87566], "crs": null}, "properties": {"pump_name": "สถานีสูบน้ำคลองบางตลาด ตอนคลองเปรมประชากร", "hy_lname": "คลองบางตลาด", "district_t": "หลักสี่", "motor_num": "(4,1,1)"}}, {"type": "Feature", "geometry": {"type": "Point", "coordinates": [100.56269, 13.88195], "crs": null}, "properties": {"pump_name": "สถานีสูบน้ำคลองบางตลาด (ศูนย์ราชการแจ้งวัฒนะ)", "hy_lname": "ลำรางบางตลาด", "district_t": "หลักสี่", "motor_num": "-"}}, {"type": "Feature", "geometry": {"type": "Point", "coordinates": [100.5854, 13.8903], "crs": null}, "properties": {"pump_name": "สถานีสูบน้ำคลองวัดหลักสี่-ขาเข้า", "hy_lname": "คลองวัดหลักสี่", "district_t": "ดอนเมือง", "motor_num": "(3,2)"}}, {"type": "Feature", "geometry": {"type": "Point", "coordinates": [100.58475, 13.89058], "crs": null}, "properties": {"pump_name": "สถานีสูบน้ำคลองวัดหลักสี่-ขาออก", "hy_lname": "คลองวัดหลักสี่", "district_t": "หลักสี่", "motor_num": "(1,1)"}}]}