{"type": "FeatureCollection", "features": [{"type": "Feature", "geometry": {"type": "MultiLineString", "coordinates": [[[100.5072248, 13.8162227], [100.5088088, 13.8158123], [100.5095966, 13.8156082], [100.5119915, 13.8148659], [100.51346, 13.8142853], [100.5135695, 13.8142209]], [[100.5123773, 13.7289077], [100.5124836, 13.7283718], [100.5124887, 13.728331], [100.5127358, 13.7263395], [100.5127623, 13.7257667], [100.5127051, 13.7242873], [100.5126318, 13.7223888], [100.512085, 13.7193408], [100.5120759, 13.7193107]], [[100.5150455, 13.8132151], [100.5161607, 13.8121405], [100.5166207, 13.8113907], [100.5168747, 13.8106003], [100.5171637, 13.8097008], [100.51736, 13.80909], [100.5174861, 13.8080692], [100.5175947, 13.8071908], [100.5175576, 13.8051638], [100.5175495, 13.8047203], [100.5175265, 13.8045775], [100.5173643, 13.8035698], [100.5172527, 13.8028768], [100.5167863, 13.8010878], [100.5165327, 13.8004887]], [[100.5056892, 13.7863153], [100.5056109, 13.7862184], [100.5052911, 13.7857904], [100.5036621, 13.7832974], [100.5035124, 13.7830684], [100.5029917, 13.7822715], [100.5028031, 13.7818741], [100.5024239, 13.7810751]], [[100.4992431, 13.7728868], [100.4991798, 13.772757], [100.4986254, 13.7717108], [100.4981025, 13.7707238], [100.4972027, 13.7690257], [100.495273, 13.7663156], [100.4951158, 13.7661615], [100.4945877, 13.7655274], [100.4945632, 13.7655]], [[100.5393757, 13.9557869], [100.5393746, 13.9557289], [100.5391814, 13.9543955], [100.5387862, 13.9528951], [100.5383164, 13.9517445], [100.5376685, 13.9506984], [100.5365146, 13.9492272], [100.5351894, 13.9477698], [100.5340306, 13.9467905], [100.5323533, 13.9456299], [100.5309633, 13.9448831], [100.5293807, 13.9442069], [100.5280181, 13.9438581], [100.5262157, 13.9436186], [100.5242225, 13.9434858]], [[100.501809, 13.9362612], [100.5013714, 13.935136], [100.5007625, 13.9331196], [100.5002963, 13.9310059], [100.499361, 13.9251326]], [[100.5546882, 13.6562575], [100.5499191, 13.6580406], [100.5459836, 13.6598613], [100.5455434, 13.660065], [100.543769, 13.6605932], [100.5421436, 13.6608225], [100.5406719, 13.6608078], [100.5396579, 13.6606818], [100.5392792, 13.6605869]], [[100.5338976, 13.9663645], [100.5347396, 13.9652759], [100.5361344, 13.9634123], [100.5371322, 13.9620483], [100.5379521, 13.9606045], [100.5385872, 13.959133], [100.5391012, 13.9576468], [100.5393489, 13.9563255], [100.5393757, 13.9557869]], [[100.5101328, 13.7344203], [100.5109712, 13.7330581], [100.5119108, 13.7307434], [100.5119666, 13.7306059], [100.5121486, 13.7299456], [100.5122871, 13.729384]], [[100.499361, 13.9251326], [100.4985568, 13.9213998], [100.4978781, 13.919785], [100.4968868, 13.9182132], [100.4962626, 13.9176074], [100.4949507, 13.9163343], [100.4929441, 13.915095], [100.4908858, 13.9143518]], [[100.488825, 13.8991792], [100.4891968, 13.8988473], [100.4896581, 13.8984359], [100.4899947, 13.8979001], [100.4903394, 13.8969675], [100.4906021, 13.895635], [100.4906774, 13.894947], [100.4906579, 13.8943223]], [[100.4849925, 13.885673], [100.4815322, 13.8825324], [100.4803347, 13.8813083], [100.4795086, 13.8802876], [100.477759, 13.8776555], [100.4768046, 13.8754645], [100.4765406, 13.8741258], [100.4763753, 13.8726796], [100.4763524, 13.8711801], [100.4769985, 13.8665924], [100.4780235, 13.8596745]], [[100.5021369, 13.819527], [100.5028707, 13.8185803], [100.503568, 13.8178849], [100.5043914, 13.817347], [100.5050352, 13.8169941], [100.5056226, 13.8167362], [100.5071672, 13.8162403], [100.5072248, 13.8162227]], [[100.4906579, 13.8943223], [100.4903322, 13.8933467], [100.4880166, 13.8891719], [100.4868314, 13.8875793], [100.4849925, 13.885673]], [[100.4743773, 13.9184062], [100.4734039, 13.918624], [100.4724274, 13.9187562], [100.4716873, 13.9187542], [100.4710329, 13.9186761], [100.4702685, 13.918462], [100.4701468, 13.9184037], [100.4688907, 13.9178014], [100.4684561, 13.9175513]], [[100.4684561, 13.9175513], [100.4679778, 13.9172103], [100.4675877, 13.9168693], [100.4671436, 13.9164006], [100.4668486, 13.9159685], [100.4665449, 13.9153079], [100.4663873, 13.9147917], [100.4663014, 13.9140835], [100.4663062, 13.9131706]], [[100.4672538, 13.909273], [100.4677498, 13.9083245], [100.4683409, 13.9073912], [100.4695362, 13.9059136], [100.4708719, 13.9045199], [100.4718697, 13.903638], [100.4729129, 13.902875], [100.4739457, 13.9022998], [100.4749353, 13.9018573], [100.4762095, 13.9014041], [100.4776542, 13.9010604], [100.4786879, 13.9009355], [100.4798466, 13.9008469], [100.4830999, 13.900698], [100.4851991, 13.9004102], [100.4866648, 13.9000658], [100.4876947, 13.8997117], [100.488825, 13.8991792]], [[100.4908858, 13.9143518], [100.4898291, 13.9142333], [100.4885691, 13.9142345], [100.4869722, 13.9143426], [100.4857045, 13.9145574], [100.4844364, 13.9148589], [100.4821728, 13.9155733], [100.4798899, 13.9164144], [100.4759356, 13.9179449], [100.4743773, 13.9184062]], [[100.5493849, 14.1103576], [100.5496912, 14.1088615], [100.549761, 14.1073908], [100.5495679, 14.1058924], [100.549067, 14.1043272], [100.5481389, 14.102064], [100.5468321, 14.0995451], [100.5460167, 14.0983276], [100.5451063, 14.0972891], [100.5431723, 14.0954419]], [[100.5215145, 14.1314918], [100.5251727, 14.124259], [100.5264795, 14.122738], [100.5279787, 14.1214466], [100.5297303, 14.1203033], [100.5316632, 14.1194845], [100.5362674, 14.1181251]], [[100.5402233, 14.0272188], [100.5384873, 14.0257467], [100.5378445, 14.025067], [100.5372083, 14.0242272], [100.5366546, 14.0232959], [100.5364456, 14.0228039], [100.5362588, 14.0220465], [100.5362052, 14.0212554], [100.5362739, 14.0201808], [100.5370786, 14.016319], [100.5372662, 14.0149498], [100.5372834, 14.0122357], [100.5373692, 14.0110698], [100.5376848, 14.0095059], [100.5393853, 14.004707], [100.5397349, 14.0031115], [100.5398567, 14.0018834]], [[100.5545639, 14.0420195], [100.55453, 14.0419039], [100.5543745, 14.0416069], [100.5535912, 14.0404335], [100.5528328, 14.0395137], [100.5516225, 14.0384403], [100.5492545, 14.0369361], [100.5485511, 14.0364122], [100.5474865, 14.0356193], [100.546781, 14.0349656], [100.546106, 14.0342504]], [[100.4937779, 13.7407529], [100.4941305, 13.7405125], [100.4947639, 13.7401843], [100.4957946, 13.7398214], [100.4976627, 13.739312]], [[100.4882248, 13.7480852], [100.4886955, 13.7468574], [100.4895687, 13.7454531]], [[100.4911291, 13.7619452], [100.49108, 13.7619034]], [[100.4976627, 13.739312], [100.4992124, 13.7388893], [100.4998706, 13.7387098], [100.4999337, 13.7386948]], [[100.5222613, 13.9434658], [100.5158345, 13.9439755], [100.5139053, 13.9439907], [100.512296, 13.9438866], [100.5098585, 13.9435247], [100.5083692, 13.9430848], [100.506835, 13.9423351], [100.5053252, 13.9412016], [100.503906, 13.9397527], [100.5027937, 13.9381568], [100.501809, 13.9362612]], [[100.4663062, 13.9131706], [100.4664616, 13.9121664], [100.4668205, 13.9105026], [100.4672538, 13.909273]], [[100.4780235, 13.8596745], [100.4786752, 13.8565447], [100.4790044, 13.8556327], [100.4794807, 13.8547143]], [[100.4909243, 13.8396367], [100.4918939, 13.837249], [100.4930842, 13.8352655], [100.4938051, 13.8343415], [100.4953353, 13.8323803], [100.4964899, 13.8309004], [100.4968167, 13.8304816], [100.4985351, 13.827721], [100.4987929, 13.8273068], [100.4995179, 13.8257245], [100.5002015, 13.8239795], [100.5009932, 13.8218147], [100.5011924, 13.8212701], [100.5021369, 13.819527]], [[100.4794807, 13.8547143], [100.4806477, 13.8532739], [100.4822704, 13.851913], [100.4854267, 13.8502156], [100.4867908, 13.8493436], [100.4881554, 13.8482705], [100.4887193, 13.8476742], [100.4891163, 13.8469242], [100.4894506, 13.8459822], [100.4906219, 13.8407501], [100.4909243, 13.8396367]], [[100.5081878, 13.7123371], [100.5081763, 13.712323], [100.506371, 13.7103811], [100.5060627, 13.7100544], [100.5051185, 13.7092187], [100.5050502, 13.7091582], [100.5039136, 13.7082088], [100.5029614, 13.7076064], [100.5007088, 13.7063345], [100.498767, 13.705296], [100.4984651, 13.7051524]], [[100.4899019, 13.7449565], [100.490909, 13.7435562], [100.4919034, 13.7424385], [100.4920261, 13.7423108]], [[100.4898046, 13.7451015], [100.4899019, 13.7449565]], [[100.4895687, 13.7454531], [100.489693, 13.7452678]], [[100.489693, 13.7452678], [100.4898046, 13.7451015]], [[100.4893673, 13.7601779], [100.4891758, 13.7599057], [100.4885363, 13.758692], [100.4879844, 13.7571224], [100.4877523, 13.7556928], [100.4875804, 13.752461], [100.4876545, 13.7515499], [100.4878848, 13.7495631], [100.4882075, 13.7481302], [100.4882248, 13.7480852]], [[100.49108, 13.7619034], [100.4910193, 13.7618519], [100.4901881, 13.7611741], [100.4899585, 13.7609489], [100.4898811, 13.7608471]], [[100.5875234, 13.6093876], [100.589211, 13.6084503], [100.5902946, 13.6073763], [100.5915084, 13.6053613], [100.5921292, 13.6036223], [100.592494, 13.6017452], [100.5926227, 13.5997222], [100.5924904, 13.5975112], [100.5919575, 13.5948314], [100.5915522, 13.593597], [100.5905407, 13.5905164], [100.5890178, 13.5877193], [100.588245, 13.586464]], [[100.5600127, 14.1970338], [100.5539759, 14.1946017], [100.5482234, 14.1927619], [100.5446259, 14.1922883], [100.5417162, 14.192461], [100.5392121, 14.1931391], [100.5335564, 14.1951565]], [[100.5321964, 14.1956416], [100.5302192, 14.1963396], [100.5261823, 14.198063], [100.5238202, 14.1991193]], [[100.5064492, 14.1985867], [100.5041543, 14.1927394], [100.5036583, 14.1873335], [100.5038594, 14.1839968]], [[100.5042009, 14.1783301], [100.5047238, 14.1732501], [100.507246, 14.1655831]], [[100.5137032, 14.1528824], [100.5147974, 14.1499296], [100.5165407, 14.1447198], [100.5168976, 14.143653]], [[100.507246, 14.1655831], [100.5110658, 14.1591539], [100.5130314, 14.1546955], [100.5137032, 14.1528824]], [[100.5168976, 14.143653], [100.5178983, 14.1410172]], [[100.5380629, 14.1176322], [100.5401311, 14.1169407], [100.5456712, 14.1145443], [100.546794, 14.1137907], [100.5479157, 14.1127806], [100.5488371, 14.1114599], [100.5493849, 14.1103576]], [[100.5067191, 13.6857619], [100.507374, 13.6856849], [100.5103592, 13.6853338], [100.5111126, 13.6851847], [100.5133442, 13.6845753], [100.5143872, 13.6842905], [100.5148133, 13.6840519], [100.5150631, 13.683912], [100.5166038, 13.683049], [100.5169692, 13.6827775]], [[100.4912312, 13.6996945], [100.4906487, 13.6988258], [100.4901307, 13.6976832], [100.489878, 13.6966152], [100.4898405, 13.6957812], [100.4899148, 13.6953242]], [[100.5169692, 13.6827775], [100.5188202, 13.6814022], [100.5205935, 13.6800846], [100.5209418, 13.6797769], [100.5222425, 13.678628], [100.5228322, 13.6781679]], [[100.4899148, 13.6953242], [100.4899961, 13.694973], [100.4905532, 13.6932847], [100.49127, 13.6919276], [100.4920507, 13.6910483], [100.4933027, 13.6901659], [100.4951948, 13.6889777], [100.4965796, 13.6882325], [100.4976549, 13.6876539], [100.4983206, 13.6873685], [100.5000455, 13.6868265], [100.5000768, 13.6868186]], [[100.4999337, 13.7386948], [100.5025681, 13.7380681], [100.5040513, 13.7376375]], [[100.5122871, 13.729384], [100.5123488, 13.7290515], [100.5123773, 13.7289077]], [[100.511323, 13.7173163], [100.5101331, 13.7150456], [100.5083604, 13.7125478], [100.5081878, 13.7123371]], [[100.4922102, 13.7009166], [100.4912312, 13.6996945]], [[100.498397, 13.7051179], [100.4977318, 13.7047685], [100.4966812, 13.7041534], [100.4943099, 13.7027002], [100.4939676, 13.7024652], [100.4926307, 13.701379], [100.4922102, 13.7009166]], [[100.5120759, 13.7193107], [100.5117743, 13.7183172], [100.5114207, 13.7175152], [100.511323, 13.7173163]], [[100.4898811, 13.7608471], [100.4895462, 13.7604109], [100.4893673, 13.7601779]], [[100.5165327, 13.8004887], [100.5164651, 13.8003291], [100.5152357, 13.7974692], [100.5149523, 13.7969833], [100.5142987, 13.7958627], [100.5130136, 13.7942402], [100.5126166, 13.793739], [100.5120328, 13.7930019], [100.5099315, 13.7907689], [100.5095466, 13.79036], [100.5089894, 13.7897678], [100.5083797, 13.789135]], [[100.5024239, 13.7810751], [100.5018264, 13.7798162], [100.5014532, 13.7790297], [100.5010421, 13.7778373], [100.5007468, 13.7769906], [100.50036, 13.7758815], [100.5001034, 13.7751458], [100.4994975, 13.7734087], [100.4993324, 13.77307], [100.4992431, 13.7728868]], [[100.506591, 13.7368529], [100.50813, 13.7361713], [100.5092221, 13.7354456], [100.5101328, 13.7344203]], [[100.5040513, 13.7376375], [100.5060792, 13.7370467], [100.5065542, 13.7368668], [100.506591, 13.7368529]], [[100.4920261, 13.7423108], [100.4923003, 13.7420252], [100.4932769, 13.7411518], [100.4936547, 13.7408369], [100.4937779, 13.7407529]], [[100.4945632, 13.7655], [100.4939379, 13.764802], [100.4922681, 13.7629381], [100.4917395, 13.7624773], [100.4911291, 13.7619452]], [[100.5083797, 13.789135], [100.5083244, 13.7890796], [100.5070925, 13.7878729], [100.5067781, 13.7875239], [100.5056892, 13.7863153]], [[100.5500015, 13.6758661], [100.5506403, 13.6771639], [100.5512716, 13.6788809], [100.5514233, 13.6794528], [100.5517372, 13.6806366], [100.551799, 13.6808698], [100.5521805, 13.683143], [100.5522199, 13.6833776], [100.552336, 13.6840699]], [[100.5549525, 13.7055962], [100.5564531, 13.7061357], [100.556509, 13.706145], [100.5577342, 13.7063477], [100.5587632, 13.7064326], [100.5599323, 13.7063996], [100.5607371, 13.706294], [100.5623509, 13.7060344], [100.5630012, 13.7058147], [100.5678671, 13.7041708], [100.5695715, 13.7035432], [100.5716331, 13.702784]], [[100.5289502, 13.6731105], [100.5305495, 13.6719808], [100.5310736, 13.6716106], [100.5315393, 13.6713398], [100.532316, 13.670888], [100.5326687, 13.670719], [100.5334966, 13.6703222], [100.5344574, 13.6699664], [100.5351556, 13.6697079], [100.5366057, 13.669353], [100.5379164, 13.669147], [100.5391522, 13.6690876], [100.5394541, 13.6691121]], [[100.5000768, 13.6868186], [100.5020226, 13.68633], [100.5027539, 13.6861987], [100.5041997, 13.6860434], [100.5066128, 13.6857741], [100.5067191, 13.6857619]], [[100.4984651, 13.7051524], [100.4984443, 13.7051425], [100.498397, 13.7051179]], [[100.582446, 13.6976035], [100.5834132, 13.696863], [100.5845032, 13.6958021]], [[100.588784, 13.6830743], [100.5879658, 13.6812076], [100.5873279, 13.6797521], [100.5858219, 13.6773542]], [[100.5845032, 13.6958021], [100.5860945, 13.6942199], [100.5876909, 13.691702], [100.5878575, 13.6914392], [100.5885493, 13.6900418], [100.5889173, 13.6889448], [100.589093, 13.6878286], [100.5892432, 13.686874], [100.5892796, 13.6854743], [100.5891251, 13.6841897], [100.588809, 13.6831561]], [[100.5858219, 13.6773542], [100.5856641, 13.6771336], [100.5848713, 13.6760255], [100.5842484, 13.6752563], [100.5793479, 13.669205], [100.5793424, 13.6691978]], [[100.5524048, 13.6901158], [100.552345, 13.6907324], [100.5521874, 13.6923572], [100.5521458, 13.6927447], [100.5519299, 13.6947547], [100.5518762, 13.6951003], [100.5516218, 13.6967376], [100.5514149, 13.6980694], [100.5513561, 13.6988305], [100.55136, 13.6990352], [100.551372, 13.6996642], [100.551469, 13.7006293], [100.5516593, 13.7015581], [100.5519718, 13.7023979], [100.5523684, 13.7031561], [100.5528304, 13.7038782], [100.5534604, 13.7046185], [100.5540967, 13.7051267], [100.5549525, 13.7055962]], [[100.5340518, 13.6487155], [100.5344358, 13.6455392], [100.534451, 13.6454134], [100.5350293, 13.6421906], [100.5354702, 13.6404453], [100.5360711, 13.6387094], [100.5362913, 13.638225]], [[100.588809, 13.6831561], [100.588784, 13.6830743]], [[100.552336, 13.6840699], [100.5524461, 13.6852477], [100.5525389, 13.6862407], [100.5525513, 13.6870004], [100.5525737, 13.6883752], [100.552557, 13.6885472], [100.5525406, 13.688716], [100.5524048, 13.6901158]], [[100.5716331, 13.702784], [100.5740089, 13.7018935], [100.5781914, 13.7000064], [100.5801808, 13.6991088], [100.5812324, 13.698446], [100.5818729, 13.6980423], [100.582446, 13.6976035]], [[100.5228322, 13.6781679], [100.5233183, 13.6777226], [100.5237893, 13.6772911], [100.5264778, 13.6750501], [100.5278454, 13.6740074], [100.5289502, 13.6731105]], [[100.5392792, 13.6605869], [100.5382934, 13.6601376], [100.5373263, 13.6593734], [100.5365601, 13.6584861], [100.5358618, 13.6572935], [100.5351376, 13.6558496], [100.5343466, 13.653572], [100.5340326, 13.6521798], [100.5339253, 13.6509287], [100.5339448, 13.6498557], [100.5340518, 13.6487155]], [[100.5394541, 13.6691121], [100.5399495, 13.6691522], [100.5404343, 13.6692225], [100.5407368, 13.6692664], [100.5412785, 13.6693787], [100.5424839, 13.6696287], [100.5444825, 13.6703772], [100.5466857, 13.6716664], [100.5479433, 13.6729855], [100.5483189, 13.6733795], [100.549459, 13.6750117], [100.5499867, 13.6758338], [100.5500015, 13.6758661]], [[100.5704713, 13.6603891], [100.5702648, 13.6602408], [100.568853, 13.6592275], [100.5664853, 13.657711], [100.5660287, 13.6574811], [100.5649209, 13.6569234], [100.5632579, 13.6563083], [100.5627192, 13.6561988], [100.5622813, 13.6561098], [100.5610667, 13.6558629], [100.5609341, 13.6558359], [100.5589449, 13.6557141], [100.5571751, 13.6558283]], [[100.5793424, 13.6691978], [100.5767323, 13.6663383]], [[100.5763049, 13.565535], [100.5762523, 13.5644826], [100.5763578, 13.5621054], [100.5768378, 13.560082], [100.5780195, 13.5568912], [100.5794684, 13.5544962], [100.5815077, 13.5520509], [100.5848214, 13.5492704], [100.5945495, 13.5421629]], [[100.5767323, 13.6663383], [100.5752203, 13.664748], [100.574891, 13.6644017], [100.5742474, 13.6637248], [100.5731525, 13.6627114], [100.5704713, 13.6603891]], [[100.5571751, 13.6558283], [100.556002, 13.6559835], [100.5546882, 13.6562575]], [[100.5387123, 13.6332478], [100.5401802, 13.6304307], [100.5411901, 13.6288503], [100.5414578, 13.6284723], [100.5426443, 13.6270352], [100.5428624, 13.626771], [100.5438711, 13.6256867], [100.545491, 13.6239453], [100.5491771, 13.6205342], [100.5493582, 13.6203715], [100.5496718, 13.6200899], [100.5512728, 13.6185647]], [[100.583747, 13.5805965], [100.5810678, 13.5774678], [100.5790667, 13.5746493], [100.5778524, 13.572299], [100.5771625, 13.5703446], [100.5766984, 13.5684092], [100.5763416, 13.5659166], [100.5763049, 13.565535]], [[100.5681433, 13.6109232], [100.5689164, 13.6108211], [100.5711097, 13.6105615], [100.5715186, 13.610545], [100.5735576, 13.6104628], [100.5741917, 13.6104877], [100.5778491, 13.6106315], [100.5810532, 13.6107574], [100.5833745, 13.610515], [100.5858161, 13.610018], [100.5875234, 13.6093876]], [[100.5512728, 13.6185647], [100.5530454, 13.6172384], [100.5559087, 13.6155514], [100.556455, 13.6152501], [100.5590538, 13.6138166], [100.5610907, 13.6128194], [100.5631652, 13.6119454], [100.5653056, 13.6113609], [100.5681433, 13.6109232]], [[100.588245, 13.586464], [100.5872262, 13.5850078], [100.5837795, 13.5806344], [100.583747, 13.5805965]], [[100.5267029, 13.9835466], [100.5264795, 13.9820875], [100.5264795, 13.9807445], [100.5266823, 13.9792689], [100.5271232, 13.9774546], [100.5277606, 13.9758593], [100.5281296, 13.9750059]], [[100.5295033, 13.990445], [100.5287057, 13.9892553], [100.5280784, 13.9880526]], [[100.5280784, 13.9880526], [100.5276543, 13.986965], [100.5272295, 13.9856092], [100.5267077, 13.9835777], [100.5267029, 13.9835466]], [[100.5351103, 13.9946457], [100.533581, 13.9935473], [100.5314137, 13.9921211], [100.5303248, 13.9912882], [100.5295033, 13.990445]], [[100.5427624, 14.0298352], [100.5419826, 14.0288852], [100.5410777, 14.0279433], [100.5402233, 14.0272188]], [[100.5398567, 14.0018834], [100.5398743, 14.0017065], [100.539793, 14.000392], [100.5394184, 13.9990776], [100.5388059, 13.9979768], [100.5379057, 13.9968081], [100.5367835, 13.995874], [100.5351103, 13.9946457]], [[100.5281296, 13.9750059], [100.5288184, 13.9734775], [100.52974, 13.9718561], [100.5312565, 13.9696461], [100.5332216, 13.9672386], [100.5338976, 13.9663645]], [[100.5242225, 13.9434858], [100.5222613, 13.9434658]], [[100.5431723, 14.0954419], [100.5424118, 14.0947793], [100.539258, 14.0924142], [100.5360067, 14.0904296], [100.5311497, 14.0880486], [100.5294378, 14.0871377]], [[100.5307381, 14.0675982], [100.5325242, 14.0665989]], [[100.5512427, 14.0528379], [100.5529438, 14.0514873], [100.5534772, 14.0509547]], [[100.5362674, 14.1181251], [100.5380629, 14.1176322]], [[100.5294378, 14.0871377], [100.5276378, 14.0858318], [100.5265439, 14.0848076], [100.5256104, 14.0836395], [100.5247369, 14.0821754], [100.524359, 14.0813159], [100.5240172, 14.0801534], [100.5238724, 14.0791049], [100.5238777, 14.0780252], [100.5240351, 14.0767747]], [[100.5240351, 14.0767747], [100.5246271, 14.0746959], [100.5254066, 14.0728219], [100.5264673, 14.0711082], [100.5275109, 14.0699945], [100.5285713, 14.0690914], [100.53001, 14.0680192], [100.5307381, 14.0675982]], [[100.5325242, 14.0665989], [100.534848, 14.0652664], [100.5367148, 14.0638956], [100.5462724, 14.0564766], [100.5495181, 14.0541005], [100.5512427, 14.0528379]], [[100.5534772, 14.0509547], [100.5542217, 14.0497904], [100.5546856, 14.0483333], [100.5549431, 14.046616], [100.5549756, 14.0451825], [100.5548358, 14.0435976], [100.5545639, 14.0420195]], [[100.546106, 14.0342504], [100.5456841, 14.0338033], [100.5450971, 14.0330737], [100.5447593, 14.0326539], [100.5445313, 14.0323179], [100.5434475, 14.0307205], [100.5427624, 14.0298352]], [[100.5362913, 13.638225], [100.5363691, 13.6380539], [100.5368872, 13.6369142], [100.537471, 13.6356299], [100.5376104, 13.6353623], [100.5387123, 13.6332478]], [[100.5038594, 14.1839968], [100.5042009, 14.1783301]], [[100.5178983, 14.1410172], [100.5215145, 14.1314918]], [[100.5135695, 13.8142209], [100.5144133, 13.8137241], [100.5149806, 13.8132674], [100.5150455, 13.8132151]]]}, "properties": {"name_th": "แม่น้ำเจ้าพระยา", "name_en": "Chao Phraya River", "type": "river"}}, {"type": "Feature", "geometry": {"type": "MultiLineString", "coordinates": [[[100.1934393, 13.7966199], [100.1954392, 13.7948361], [100.1983939, 13.7916384], [100.2016458, 13.7881688], [100.2020263, 13.7877628], [100.2057646, 13.7844457], [100.2090825, 13.7828311], [100.2093664, 13.7828053], [100.211551, 13.7826071], [100.2122394, 13.7825446], [100.2159006, 13.7831474], [100.2191037, 13.784107], [100.2199406, 13.7843766], [100.2229559, 13.7853481], [100.2253055, 13.786711], [100.2256908, 13.7871498], [100.2269669, 13.7886031], [100.227719, 13.7911726], [100.2283378, 13.7922716], [100.2287238, 13.7929572], [100.2299265, 13.7934712], [100.2319188, 13.7933441], [100.2340812, 13.7926173], [100.2363214, 13.791504], [100.2393417, 13.7894815], [100.2409276, 13.7877076], [100.2413897, 13.7871908], [100.2428687, 13.784862], [100.2437722, 13.7817663], [100.2437722, 13.7797803], [100.2428737, 13.7777517], [100.2414919, 13.7761277], [100.2393185, 13.7746048], [100.2386946, 13.7728636], [100.2390107, 13.7715221], [100.2391591, 13.7708921], [100.2407931, 13.7692387], [100.2428469, 13.7679889], [100.2464325, 13.7664143], [100.2494903, 13.7659225], [100.2500553, 13.7658316], [100.2510933, 13.7658798], [100.2535095, 13.7659919], [100.2558535, 13.7667685], [100.2577426, 13.7683581], [100.2595463, 13.7704228], [100.2607685, 13.772829], [100.2624108, 13.775006], [100.2624314, 13.7750107], [100.2658858, 13.7757915], [100.2670856, 13.7756688], [100.2683671, 13.7755378], [100.2687128, 13.7755025], [100.2689094, 13.7754564], [100.2724558, 13.7746241], [100.2742482, 13.7743426], [100.2782231, 13.7737074], [100.2798506, 13.7732779], [100.2820807, 13.7725616], [100.2826641, 13.7716712], [100.2835321, 13.7703464], [100.2840286, 13.7672145], [100.283987, 13.7662305], [100.283914, 13.7645027], [100.2836114, 13.7636352], [100.2827682, 13.761218], [100.2824859, 13.7599727], [100.2821189, 13.7583535], [100.2810495, 13.7556417], [100.2797433, 13.7533525], [100.2780406, 13.7516498], [100.2763668, 13.7499759], [100.2740383, 13.7483011], [100.2730768, 13.7476095], [100.2701909, 13.7459068], [100.2665851, 13.7439708], [100.2643299, 13.7431704], [100.2627753, 13.7432538], [100.2593357, 13.7439489], [100.2554239, 13.7448775], [100.25198, 13.7455924], [100.2494383, 13.7462709], [100.2481959, 13.7467924], [100.2472561, 13.7471869], [100.2452981, 13.7485719], [100.2437456, 13.750305], [100.2423101, 13.7516598], [100.2405516, 13.7524289], [100.2391483, 13.752532], [100.2374381, 13.7516181], [100.2358772, 13.7501779], [100.2337128, 13.7472054], [100.2327445, 13.7452932], [100.2321544, 13.7441464], [100.2315435, 13.7423738], [100.2313066, 13.7416864], [100.2313288, 13.7404739], [100.2313484, 13.7394019], [100.2323022, 13.7376709], [100.2339083, 13.7361055], [100.2361614, 13.7350841], [100.2386719, 13.7345463], [100.2408606, 13.7333332], [100.2421009, 13.7312926], [100.2426888, 13.728489], [100.2425987, 13.7261835], [100.2421343, 13.7247347], [100.2419088, 13.7240314], [100.2407844, 13.7225628], [100.2402315, 13.7221591], [100.2392513, 13.7214434], [100.2389987, 13.7213468], [100.2370358, 13.720596], [100.2354801, 13.7204897], [100.2316145, 13.7209545], [100.2292786, 13.7210871], [100.2290803, 13.7210984], [100.2256621, 13.7211244], [100.2229338, 13.721312], [100.2211388, 13.7216116], [100.2205606, 13.7217081], [100.2187281, 13.7225388], [100.2164261, 13.7235697], [100.2140975, 13.7241449], [100.2116149, 13.7244722], [100.2099058, 13.7242606], [100.2081881, 13.72321], [100.2070757, 13.7214918], [100.2069789, 13.7191045], [100.2070768, 13.718815], [100.2077128, 13.7169334], [100.2089649, 13.7139077], [100.2096153, 13.7104098], [100.2089422, 13.7070724], [100.2089227, 13.7069756], [100.208028, 13.7040608], [100.2077796, 13.7021566], [100.2075951, 13.700742], [100.207937, 13.6990399], [100.2090689, 13.6976306], [100.2109717, 13.6970769], [100.2113685, 13.6970163], [100.2140214, 13.6966112], [100.2160009, 13.6963894], [100.2172885, 13.6962452], [100.2208374, 13.6962828], [100.2229289, 13.6973099], [100.2242654, 13.6986464], [100.2245985, 13.6995624], [100.2250808, 13.7008889], [100.2253174, 13.7035984], [100.225286, 13.7065243], [100.2257421, 13.7081131], [100.2265099, 13.7086721], [100.2278188, 13.7088121], [100.2291762, 13.7084889], [100.2307828, 13.7080277], [100.2310591, 13.7079086], [100.233403, 13.7067602], [100.2355046, 13.7047662], [100.2374015, 13.7033867], [100.2376258, 13.7032236], [100.2390239, 13.7019219], [100.2404702, 13.7001864], [100.2415308, 13.6985955], [100.241616, 13.698155], [100.24182, 13.697101], [100.2416272, 13.6953655], [100.2408076, 13.6934371], [100.2406881, 13.6932348], [100.2401809, 13.6923765], [100.2395635, 13.6910187], [100.2391858, 13.6900962], [100.239185, 13.6900072], [100.239174, 13.6887984], [100.2393768, 13.6874183], [100.2400989, 13.686257], [100.2402818, 13.6861224], [100.241411, 13.6852917], [100.2427843, 13.6845412], [100.244311, 13.6838928], [100.2452045, 13.6836815], [100.2456156, 13.6835842], [100.2470297, 13.6834154], [100.248256, 13.6834508], [100.2485847, 13.6835174], [100.2495209, 13.6837073], [100.251215, 13.6844786], [100.25146, 13.6847236], [100.2523845, 13.6856482], [100.252806, 13.6861892], [100.2532503, 13.6867595], [100.2541408, 13.6877967], [100.2550742, 13.6885066], [100.2551462, 13.6885089], [100.256264, 13.6885451], [100.2565512, 13.6884661], [100.2574388, 13.688222], [100.2584162, 13.687314], [100.2593271, 13.6860913], [100.2598807, 13.6853345], [100.2602004, 13.6847055]], [[100.2674873, 13.6659531], [100.2675505, 13.6644839], [100.2673706, 13.6640576], [100.2668239, 13.662762], [100.2651336, 13.6609928], [100.2641448, 13.6603714], [100.2624366, 13.6592978], [100.2600311, 13.6577859], [100.259896, 13.6577315], [100.2567769, 13.6564748], [100.2531965, 13.6560642], [100.2523694, 13.6559693], [100.2521333, 13.656048], [100.250142, 13.6567117], [100.2488309, 13.6582756], [100.2480094, 13.6611981], [100.2474165, 13.6639192], [100.2470619, 13.664783], [100.2465829, 13.6654575], [100.246098, 13.6659847], [100.2453909, 13.6664182], [100.2450284, 13.666552], [100.2445535, 13.6667273], [100.2436233, 13.666808], [100.2431872, 13.6668513], [100.2426105, 13.6667476], [100.2421283, 13.6664854], [100.2415326, 13.666032], [100.2406795, 13.6651], [100.2401279, 13.6637307], [100.2400681, 13.6628969], [100.2401316, 13.6625101], [100.2404584, 13.6605188], [100.2412008, 13.6581019], [100.2413263, 13.6574903], [100.24158, 13.6562536], [100.2413679, 13.6552462], [100.241264, 13.6547529], [100.2402782, 13.6536199], [100.2402056, 13.6535365], [100.2385193, 13.6531099], [100.2375201, 13.6528572], [100.2366305, 13.6532], [100.2357982, 13.6535207], [100.2356663, 13.6536624], [100.2345646, 13.654846], [100.234009, 13.6557447], [100.2338072, 13.6567815], [100.233796, 13.6569518], [100.2336972, 13.6584494], [100.2335895, 13.6600788], [100.2335074, 13.6613201], [100.2332799, 13.6619844], [100.2332178, 13.6621656], [100.2327336, 13.6629832], [100.2322663, 13.6632969], [100.231837, 13.663585], [100.2307589, 13.6638994], [100.2296966, 13.663757], [100.2283587, 13.663388], [100.2266292, 13.6627437], [100.2257893, 13.6623371], [100.2256437, 13.6622666], [100.224289, 13.6616108], [100.2236976, 13.6613245], [100.2226768, 13.6606438], [100.2220549, 13.6602283], [100.2191796, 13.6583072], [100.2188052, 13.658105], [100.2162255, 13.6567117], [100.2161047, 13.6566106], [100.2140835, 13.6549178], [100.213698, 13.6545949], [100.2130064, 13.6532526], [100.2129263, 13.6530957], [100.2124658, 13.6521937], [100.2123683, 13.6508291], [100.212364, 13.6507696], [100.2122762, 13.6496346], [100.2122992, 13.6491132], [100.2123868, 13.6471228], [100.2125606, 13.6441372], [100.2136506, 13.6411989], [100.2157358, 13.6394138], [100.2165408, 13.6391228], [100.2177894, 13.6386714], [100.2202569, 13.6388012], [100.2204908, 13.6388135], [100.2220037, 13.6395105], [100.2233026, 13.6401089], [100.2243556, 13.6411563], [100.2262725, 13.643063], [100.2278527, 13.6438477], [100.2285947, 13.6442162], [100.2301457, 13.6446264], [100.2305532, 13.6446425], [100.2308284, 13.6445222], [100.2309859, 13.6444534], [100.2317857, 13.643916], [100.232903, 13.6422528], [100.2331667, 13.6415668], [100.233476, 13.6384344], [100.233557, 13.6367001], [100.2332865, 13.6337426], [100.2326704, 13.6305042], [100.2317699, 13.6286875], [100.230364, 13.6271868], [100.2297571, 13.6267507], [100.2289264, 13.6263338], [100.2280174, 13.6260985], [100.2269992, 13.6259704], [100.2244085, 13.6260178], [100.2213122, 13.6276923], [100.2188478, 13.6292088], [100.2177162, 13.6296337], [100.2166678, 13.6299197], [100.2160725, 13.6299992], [100.2153563, 13.6299455], [100.214784, 13.6298089], [100.2143779, 13.6295435], [100.2139665, 13.6289403], [100.2129555, 13.6260652], [100.212972, 13.6253623], [100.2130187, 13.6233797], [100.2135716, 13.6220369], [100.2145352, 13.6209627], [100.2156568, 13.6202361], [100.2175367, 13.6201413], [100.2205066, 13.6210575], [100.222576, 13.6221949], [100.2235873, 13.6223853], [100.2245824, 13.6224885], [100.2256248, 13.6224319], [100.2262953, 13.6221173], [100.2268017, 13.62167], [100.2271917, 13.6210188], [100.2279154, 13.6190355], [100.2281254, 13.616763], [100.228184, 13.6161288], [100.2280418, 13.6126692], [100.2280436, 13.612582], [100.2280771, 13.6109243], [100.228104, 13.6095992], [100.2281208, 13.6087673], [100.2280437, 13.6056092], [100.2280014, 13.6038752], [100.2271141, 13.6019627], [100.2269777, 13.6016687], [100.2250554, 13.5994562], [100.2245664, 13.5988934], [100.223611, 13.5972328], [100.223429, 13.5958452], [100.2239295, 13.5947533], [100.2254308, 13.5938889], [100.2289113, 13.5928425], [100.2306174, 13.5912956], [100.2312316, 13.589817], [100.2306629, 13.5866551], [100.2301169, 13.5852219], [100.2288203, 13.5830836], [100.2283426, 13.5814685], [100.2282288, 13.5804904], [100.2282442, 13.5804443], [100.2286383, 13.579262], [100.2297757, 13.5780791], [100.2314818, 13.576191], [100.232427, 13.5754463], [100.2337338, 13.5744167], [100.2354172, 13.5735978], [100.2373053, 13.5731883], [100.23846, 13.5725536], [100.2393298, 13.5718007], [100.2399797, 13.5706815], [100.2400619, 13.5703521], [100.2402852, 13.5694576], [100.2407857, 13.5668644], [100.2411427, 13.5650079], [100.2415665, 13.5637512], [100.2423985, 13.5626467], [100.2429013, 13.5621101], [100.2441071, 13.5615542], [100.2465409, 13.5609954], [100.2489554, 13.5606994], [100.2499253, 13.5603401], [100.2505095, 13.5598755], [100.2516618, 13.5585228], [100.2520255, 13.5578479], [100.2527506, 13.5556735], [100.252924, 13.5548446], [100.2530348, 13.5539326], [100.2531434, 13.5530392], [100.2531461, 13.5519555], [100.2529374, 13.5510319], [100.2514545, 13.5476651], [100.2503514, 13.5449947], [100.2499216, 13.5432691], [100.2498671, 13.5430305], [100.2498346, 13.5426439], [100.2496259, 13.5400025], [100.2496049, 13.538989], [100.2496169, 13.5383333], [100.2497054, 13.5376488], [100.2497325, 13.5374607], [100.2511815, 13.535222], [100.253934, 13.5327197], [100.2552397, 13.5320974], [100.2573822, 13.5315586], [100.2593999, 13.5315217], [100.2610674, 13.5318694], [100.2626919, 13.532697], [100.264007, 13.534195], [100.2648279, 13.5358774], [100.2656311, 13.5385906], [100.2663999, 13.5412957], [100.2684323, 13.5432375], [100.2697193, 13.5436815], [100.2722714, 13.5437839], [100.273285, 13.5433699], [100.274369, 13.5429272], [100.2755372, 13.5420855], [100.2775463, 13.5398853], [100.2781715, 13.5376422], [100.2781605, 13.5360864], [100.2773567, 13.5346177], [100.2761288, 13.5336645], [100.2755534, 13.5334288], [100.273118, 13.532431], [100.269198, 13.5318139], [100.2669029, 13.5306528], [100.2655614, 13.5293167], [100.2650504, 13.5281697], [100.2650947, 13.5265654], [100.2654217, 13.5251674], [100.2674235, 13.5226197], [100.2682754, 13.5214906], [100.2710632, 13.5184568], [100.2753704, 13.5142956], [100.2765443, 13.512776], [100.2784856, 13.5086505], [100.2792605, 13.5065915]], [[100.1308715, 14.1389076], [100.1308728, 14.138195], [100.1310069, 14.1373637], [100.1314039, 14.1356429], [100.1321559, 14.1335611], [100.1323126, 14.1328931], [100.1323748, 14.1320338], [100.1322783, 14.1309424], [100.1319231, 14.1299404], [100.1314006, 14.1287918], [100.1310691, 14.1283548], [100.130707, 14.1279843], [100.1302773, 14.127665], [100.1298995, 14.1274112], [100.1296652, 14.1272716], [100.1293326, 14.1271366], [100.1290253, 14.1270709], [100.1252267, 14.1267144], [100.1238089, 14.1266745], [100.1214153, 14.1267245], [100.1208542, 14.1266246], [100.1204561, 14.1264165], [100.1201944, 14.1260815], [100.1200839, 14.1256757], [100.1200484, 14.1236862], [100.1201183, 14.1221642], [100.1203489, 14.120848], [100.1208423, 14.1190627], [100.1209935, 14.1181823], [100.1221327, 14.115555], [100.123115, 14.1138834], [100.124801, 14.1123248], [100.1258858, 14.1111774], [100.127715, 14.1095643], [100.1292215, 14.1086756], [100.1307126, 14.1084332], [100.1325016, 14.1082864], [100.1375921, 14.1077552], [100.1391009, 14.1073079], [100.1400837, 14.1068262], [100.1407159, 14.1062042], [100.1430605, 14.1030938], [100.1453349, 14.1000765], [100.1463388, 14.0991397], [100.1477132, 14.0981545], [100.1488894, 14.097698], [100.1502289, 14.0975122], [100.1516515, 14.0975576], [100.1531272, 14.098057], [100.1553443, 14.0988512], [100.1582419, 14.0999472], [100.1627034, 14.1013304], [100.1634912, 14.1013437], [100.1641571, 14.1011985], [100.1647612, 14.1008624], [100.1684763, 14.0975284], [100.169698, 14.0964909], [100.1706217, 14.095758], [100.1714894, 14.095109], [100.1724054, 14.094463], [100.1731733, 14.0939581], [100.1737693, 14.0935978], [100.1743827, 14.0932146], [100.1747738, 14.0929284], [100.1749685, 14.0927039], [100.1750442, 14.0924825], [100.1750455, 14.0922247], [100.1750045, 14.0919258], [100.1749562, 14.0917348], [100.1748441, 14.0915218], [100.174707, 14.0913756], [100.1744755, 14.091264], [100.1742682, 14.0911917], [100.1739833, 14.0910483], [100.1735821, 14.0907783], [100.1732669, 14.0905436], [100.1727831, 14.0901815], [100.1721383, 14.0896963], [100.1715951, 14.089228], [100.1711354, 14.0887967], [100.1706952, 14.0882723], [100.1703425, 14.0877556], [100.170008, 14.0872613], [100.1696376, 14.0866377], [100.1694367, 14.086261], [100.1693453, 14.0859886], [100.1692377, 14.0855086], [100.1691814, 14.0849914], [100.1691194, 14.0842617], [100.1690953, 14.0837291], [100.1691406, 14.0830995], [100.1692364, 14.0826196], [100.1693783, 14.0820238], [100.169569, 14.0813984], [100.1697194, 14.0809631], [100.1699099, 14.0804672], [100.1701776, 14.0798894], [100.1704836, 14.079239], [100.1707583, 14.0786492], [100.170916, 14.0782738], [100.1711477, 14.0778013], [100.1714275, 14.0772066], [100.1717196, 14.0766129], [100.1719572, 14.0761113], [100.1722879, 14.0754721], [100.1725913, 14.0748323], [100.1728721, 14.0743952], [100.1730237, 14.0740711], [100.1732701, 14.0734573], [100.1734668, 14.0729682], [100.1751959, 14.069432], [100.1757328, 14.0683556], [100.1771347, 14.0639829], [100.1773447, 14.0630524], [100.1774927, 14.0612499], [100.1774192, 14.0595358], [100.1770587, 14.0578992], [100.1763728, 14.0558593], [100.1758814, 14.0547345], [100.1754367, 14.0538733], [100.1750113, 14.0530495], [100.174545, 14.0522073], [100.1727268, 14.0497253], [100.172409, 14.0492931], [100.1720989, 14.0484656], [100.171774, 14.0470196], [100.1728861, 14.0410044], [100.1742509, 14.0354947], [100.173984, 14.0275939], [100.1740608, 14.0272835], [100.1741498, 14.0269236], [100.1748801, 14.0251205], [100.1760976, 14.0230876], [100.1776079, 14.0210594], [100.1789101, 14.0194764], [100.1795273, 14.0177443], [100.179682, 14.016671], [100.1797781, 14.0153925], [100.1794769, 14.0136687], [100.1790702, 14.0124931], [100.1786685, 14.011332], [100.1781401, 14.0100584], [100.177811, 14.0090474], [100.1778174, 14.0078716], [100.1780162, 14.0064755], [100.1785178, 14.005257], [100.1806633, 14.0003908], [100.1808727, 13.9980893], [100.1795079, 13.9937927], [100.1777799, 13.9903722], [100.1776254, 13.9888423], [100.1776548, 13.9879683], [100.1778318, 13.9872223], [100.1794102, 13.9837654], [100.1798887, 13.9824036], [100.1802165, 13.9805692], [100.1801709, 13.97698], [100.1806231, 13.9748754], [100.181527, 13.973739], [100.1826176, 13.9729082], [100.1838691, 13.9725765], [100.1855728, 13.972587], [100.1874048, 13.9729763], [100.1897286, 13.9730055], [100.1936543, 13.9734127], [100.197421, 13.9744531], [100.2000253, 13.9753818], [100.2005639, 13.9754906], [100.2010103, 13.9754549], [100.2016416, 13.9751035], [100.2021376, 13.9745723], [100.2028666, 13.9728815], [100.2027822, 13.9716394], [100.2024566, 13.9704901], [100.2008896, 13.9688221], [100.1977959, 13.9669826], [100.1966088, 13.965944], [100.1959144, 13.9643385], [100.1958092, 13.9629551], [100.1964334, 13.961765], [100.1973507, 13.9609833], [100.2011068, 13.9591792], [100.2071383, 13.9555892], [100.2079799, 13.9548424], [100.2085048, 13.9540515], [100.2086988, 13.9532027], [100.2085223, 13.9521918], [100.206579, 13.9495919], [100.204434, 13.945962], [100.2028391, 13.942717], [100.2019591, 13.9388121], [100.2017391, 13.9360071], [100.2020075, 13.9317135], [100.2020691, 13.9307272], [100.2023991, 13.9262722], [100.203224, 13.9217073], [100.2037024, 13.9208057], [100.2043361, 13.9201689], [100.2055099, 13.9195191], [100.2067019, 13.9194952], [100.2086577, 13.920423], [100.2110631, 13.9215331], [100.2125909, 13.92143], [100.2142464, 13.9204574], [100.2150053, 13.9196341], [100.2152681, 13.9188167], [100.2153346, 13.917942], [100.2151589, 13.9168674], [100.2146873, 13.9160359], [100.2137839, 13.9148874], [100.2122733, 13.9136561], [100.2104281, 13.9127157], [100.2065614, 13.9109554], [100.2051755, 13.9101007], [100.2044634, 13.9089697], [100.2044301, 13.9078153], [100.2048099, 13.9066697], [100.2051067, 13.9061709], [100.2056862, 13.9051971], [100.206835, 13.9038857], [100.2104897, 13.9005702], [100.2128673, 13.8987052], [100.2144948, 13.8975245], [100.2172783, 13.8966189], [100.2183443, 13.8962721], [100.2193426, 13.8959271], [100.2213513, 13.895016], [100.2219896, 13.8941586], [100.2222007, 13.8929781], [100.2219835, 13.89169], [100.2215388, 13.8896977], [100.2206588, 13.8845278], [100.2191188, 13.8799629], [100.2171388, 13.8763879], [100.2145539, 13.874188], [100.2132339, 13.872208], [100.2128881, 13.8711107], [100.2128691, 13.86984], [100.2134016, 13.8671423], [100.2139675, 13.864789], [100.2145565, 13.8628755], [100.2151646, 13.861871], [100.2154103, 13.8614652], [100.2162565, 13.8605087], [100.2176998, 13.8595725], [100.221423, 13.8576366], [100.2223049, 13.8569629], [100.2228716, 13.8560724], [100.2230033, 13.8558793], [100.2233196, 13.8535603], [100.2232327, 13.8524082], [100.2229351, 13.8503645], [100.2227574, 13.8491438], [100.2222147, 13.843898], [100.2221769, 13.8435324], [100.2221295, 13.8420323], [100.222406, 13.8393603], [100.2231809, 13.8374212], [100.2244461, 13.8336337], [100.2244141, 13.8288602], [100.2244079, 13.8274845], [100.224305, 13.8250047], [100.2241531, 13.8213426], [100.224026, 13.8182797], [100.2237516, 13.8120057], [100.2236474, 13.8115485], [100.2231857, 13.8107555]], [[100.2231857, 13.8107555], [100.2219803, 13.8100518], [100.2191716, 13.809942], [100.2182465, 13.8099791], [100.2128279, 13.8103433], [100.2055219, 13.8104794], [100.2028088, 13.8113173], [100.2011786, 13.8118383], [100.1997876, 13.8136771], [100.1991755, 13.8154135], [100.1987378, 13.8170871], [100.1980605, 13.8180008], [100.1967859, 13.8186103], [100.1951739, 13.818572], [100.1945195, 13.8183873], [100.1933776, 13.8180224], [100.1914132, 13.8167569], [100.1891891, 13.8152155], [100.1873426, 13.8133631], [100.1864364, 13.8115454], [100.186214, 13.8110993], [100.1857939, 13.8083111], [100.1862569, 13.8052151], [100.1864999, 13.8045087], [100.187024, 13.8031892], [100.189255, 13.8001822], [100.192353, 13.7975415], [100.1934393, 13.7966199]], [[100.2602004, 13.6847055], [100.2603442, 13.6844224], [100.2605824, 13.6836447], [100.2606192, 13.6831804], [100.2606274, 13.6830766], [100.2603786, 13.6817976], [100.2596361, 13.6807234], [100.2585644, 13.6796517], [100.2584943, 13.6795877], [100.2582618, 13.6793491], [100.257638, 13.6786398]], [[100.257638, 13.6786398], [100.2571086, 13.6780379], [100.2567485, 13.6766805], [100.2566979, 13.6764898], [100.2567769, 13.6752892], [100.257077, 13.6734725], [100.2576299, 13.6728722], [100.2588305, 13.6719244], [100.2605998, 13.6710713], [100.2624638, 13.6707712], [100.2642805, 13.6698392], [100.2659392, 13.6690335], [100.2667923, 13.6679593], [100.2672413, 13.6670255], [100.2674873, 13.6659531]], [[100.1225697, 14.1997961], [100.1250341, 14.1991232], [100.126283, 14.1988554], [100.1270152, 14.1987181], [100.1273709, 14.1985927], [100.127682, 14.1984112], [100.1279422, 14.1981658], [100.1280704, 14.1979208], [100.128146, 14.1975552], [100.128094, 14.1971579]], [[100.128094, 14.1971579], [100.1279659, 14.1968782], [100.1277428, 14.1965583], [100.1274681, 14.1963061], [100.1269789, 14.1958386], [100.126239, 14.195267], [100.1257734, 14.1949607], [100.1248839, 14.1944822], [100.1231512, 14.1936948], [100.1211246, 14.1925964], [100.1206257, 14.1923172], [100.1201831, 14.1919765], [100.1198446, 14.1916536], [100.1194257, 14.1911647], [100.1190399, 14.1906613], [100.1187175, 14.1900835], [100.1184944, 14.1894828], [100.1183732, 14.1888665], [100.1184209, 14.18822], [100.118606, 14.1876115], [100.1188758, 14.1871013], [100.1198591, 14.1857444], [100.1205575, 14.1846923], [100.121175, 14.1836116], [100.1213332, 14.1833078], [100.1214545, 14.1828668], [100.121477, 14.1825038], [100.1214706, 14.1821127], [100.1213804, 14.1816571], [100.1211466, 14.180867], [100.1208998, 14.1802877], [100.1203204, 14.1792932], [100.1199245, 14.1787898], [100.1192991, 14.1781823], [100.1185743, 14.17732], [100.1174805, 14.176195], [100.1171704, 14.1758996], [100.1168604, 14.175562], [100.1166002, 14.1752125], [100.1163502, 14.1748027], [100.1161078, 14.1742061], [100.1159441, 14.1735856], [100.1158932, 14.172821], [100.1159484, 14.1719119], [100.1162022, 14.1707921], [100.1164589, 14.1700913], [100.1167895, 14.1694], [100.117429, 14.1680625], [100.1178265, 14.1675231], [100.1181886, 14.1671517], [100.1185706, 14.1668667], [100.1190727, 14.1665463], [100.1198993, 14.1661588], [100.1220269, 14.1654325], [100.1235112, 14.1651211], [100.1241801, 14.1648663], [100.1246302, 14.164626], [100.124981, 14.1643025]], [[100.124981, 14.1643025], [100.1253801, 14.1633471], [100.1259852, 14.1615895], [100.1268011, 14.158981], [100.1275661, 14.1564531], [100.1279089, 14.1554736], [100.1300411, 14.1506454]], [[100.1300411, 14.1506454], [100.1309259, 14.1483525], [100.1311202, 14.1473463], [100.1311959, 14.1462374], [100.1311834, 14.1458097], [100.1311402, 14.1443365], [100.1309565, 14.1419925], [100.1308715, 14.1389076]], [[100.1308715, 14.1389076], [100.1308728, 14.138195], [100.1310069, 14.1373637], [100.1314039, 14.1356429], [100.1321559, 14.1335611], [100.1323126, 14.1328931], [100.1323748, 14.1320338], [100.1322783, 14.1309424], [100.1319231, 14.1299404], [100.1314006, 14.1287918], [100.1310691, 14.1283548], [100.130707, 14.1279843], [100.1302773, 14.127665], [100.1298995, 14.1274112], [100.1296652, 14.1272716], [100.1293326, 14.1271366], [100.1290253, 14.1270709], [100.1252267, 14.1267144], [100.1238089, 14.1266745], [100.1214153, 14.1267245], [100.1208542, 14.1266246], [100.1204561, 14.1264165], [100.1201944, 14.1260815], [100.1200839, 14.1256757], [100.1200484, 14.1236862], [100.1201183, 14.1221642], [100.1203489, 14.120848], [100.1208423, 14.1190627], [100.1209935, 14.1181823], [100.1221327, 14.115555], [100.123115, 14.1138834], [100.124801, 14.1123248], [100.1258858, 14.1111774], [100.127715, 14.1095643], [100.1292215, 14.1086756], [100.1307126, 14.1084332], [100.1325016, 14.1082864], [100.1375921, 14.1077552], [100.1391009, 14.1073079], [100.1400837, 14.1068262], [100.1407159, 14.1062042], [100.1430605, 14.1030938], [100.1453349, 14.1000765], [100.1463388, 14.0991397], [100.1477132, 14.0981545], [100.1488894, 14.097698], [100.1502289, 14.0975122], [100.1516515, 14.0975576], [100.1531272, 14.098057], [100.1553443, 14.0988512], [100.1582419, 14.0999472], [100.1627034, 14.1013304], [100.1634912, 14.1013437], [100.1641571, 14.1011985], [100.1647612, 14.1008624], [100.1684763, 14.0975284], [100.169698, 14.0964909], [100.1706217, 14.095758], [100.1714894, 14.095109], [100.1724054, 14.094463], [100.1731733, 14.0939581], [100.1737693, 14.0935978], [100.1743827, 14.0932146], [100.1747738, 14.0929284], [100.1749685, 14.0927039], [100.1750442, 14.0924825], [100.1750455, 14.0922247], [100.1750045, 14.0919258], [100.1749562, 14.0917348], [100.1748441, 14.0915218], [100.174707, 14.0913756], [100.1744755, 14.091264], [100.1742682, 14.0911917], [100.1739833, 14.0910483], [100.1735821, 14.0907783], [100.1732669, 14.0905436], [100.1727831, 14.0901815], [100.1721383, 14.0896963], [100.1715951, 14.089228], [100.1711354, 14.0887967], [100.1706952, 14.0882723], [100.1703425, 14.0877556], [100.170008, 14.0872613], [100.1696376, 14.0866377], [100.1694367, 14.086261], [100.1693453, 14.0859886], [100.1692377, 14.0855086], [100.1691814, 14.0849914], [100.1691194, 14.0842617], [100.1690953, 14.0837291], [100.1691406, 14.0830995], [100.1692364, 14.0826196], [100.1693783, 14.0820238], [100.169569, 14.0813984], [100.1697194, 14.0809631], [100.1699099, 14.0804672], [100.1701776, 14.0798894], [100.1704836, 14.079239], [100.1707583, 14.0786492], [100.170916, 14.0782738], [100.1711477, 14.0778013], [100.1714275, 14.0772066], [100.1717196, 14.0766129], [100.1719572, 14.0761113], [100.1722879, 14.0754721], [100.1725913, 14.0748323], [100.1728721, 14.0743952], [100.1730237, 14.0740711], [100.1732701, 14.0734573], [100.1734668, 14.0729682], [100.1751959, 14.069432], [100.1757328, 14.0683556], [100.1771347, 14.0639829], [100.1773447, 14.0630524], [100.1774927, 14.0612499], [100.1774192, 14.0595358], [100.1770587, 14.0578992], [100.1763728, 14.0558593], [100.1758814, 14.0547345], [100.1754367, 14.0538733], [100.1750113, 14.0530495], [100.174545, 14.0522073], [100.1727268, 14.0497253], [100.172409, 14.0492931], [100.1720989, 14.0484656], [100.171774, 14.0470196], [100.1728861, 14.0410044], [100.1742509, 14.0354947], [100.173984, 14.0275939], [100.1740608, 14.0272835], [100.1741498, 14.0269236], [100.1748801, 14.0251205], [100.1760976, 14.0230876], [100.1776079, 14.0210594], [100.1789101, 14.0194764], [100.1795273, 14.0177443], [100.179682, 14.016671], [100.1797781, 14.0153925], [100.1794769, 14.0136687], [100.1790702, 14.0124931], [100.1786685, 14.011332], [100.1781401, 14.0100584], [100.177811, 14.0090474], [100.1778174, 14.0078716], [100.1780162, 14.0064755], [100.1785178, 14.005257], [100.1806633, 14.0003908], [100.1808727, 13.9980893], [100.1795079, 13.9937927], [100.1777799, 13.9903722], [100.1776254, 13.9888423], [100.1776548, 13.9879683], [100.1778318, 13.9872223], [100.1794102, 13.9837654], [100.1798887, 13.9824036], [100.1802165, 13.9805692], [100.1801709, 13.97698], [100.1806231, 13.9748754], [100.181527, 13.973739], [100.1826176, 13.9729082], [100.1838691, 13.9725765], [100.1855728, 13.972587], [100.1874048, 13.9729763], [100.1897286, 13.9730055], [100.1936543, 13.9734127], [100.197421, 13.9744531], [100.2000253, 13.9753818], [100.2005639, 13.9754906], [100.2010103, 13.9754549], [100.2016416, 13.9751035], [100.2021376, 13.9745723], [100.2028666, 13.9728815], [100.2027822, 13.9716394], [100.2024566, 13.9704901], [100.2008896, 13.9688221], [100.1977959, 13.9669826], [100.1966088, 13.965944], [100.1959144, 13.9643385], [100.1958092, 13.9629551], [100.1964334, 13.961765], [100.1973507, 13.9609833], [100.2011068, 13.9591792], [100.2071383, 13.9555892], [100.2079799, 13.9548424], [100.2085048, 13.9540515], [100.2086988, 13.9532027], [100.2085223, 13.9521918], [100.206579, 13.9495919], [100.204434, 13.945962], [100.2028391, 13.942717], [100.2019591, 13.9388121], [100.2017391, 13.9360071], [100.2020075, 13.9317135], [100.2020691, 13.9307272], [100.2023991, 13.9262722], [100.203224, 13.9217073], [100.2037024, 13.9208057], [100.2043361, 13.9201689], [100.2055099, 13.9195191], [100.2067019, 13.9194952], [100.2086577, 13.920423], [100.2110631, 13.9215331], [100.2125909, 13.92143], [100.2142464, 13.9204574], [100.2150053, 13.9196341], [100.2152681, 13.9188167], [100.2153346, 13.917942], [100.2151589, 13.9168674], [100.2146873, 13.9160359], [100.2137839, 13.9148874], [100.2122733, 13.9136561], [100.2104281, 13.9127157], [100.2065614, 13.9109554], [100.2051755, 13.9101007], [100.2044634, 13.9089697], [100.2044301, 13.9078153], [100.2048099, 13.9066697], [100.2051067, 13.9061709], [100.2056862, 13.9051971], [100.206835, 13.9038857], [100.2104897, 13.9005702], [100.2128673, 13.8987052], [100.2144948, 13.8975245], [100.2172783, 13.8966189], [100.2183443, 13.8962721], [100.2193426, 13.8959271], [100.2213513, 13.895016], [100.2219896, 13.8941586], [100.2222007, 13.8929781], [100.2219835, 13.89169], [100.2215388, 13.8896977], [100.2206588, 13.8845278], [100.2191188, 13.8799629], [100.2171388, 13.8763879], [100.2145539, 13.874188], [100.2132339, 13.872208], [100.2128881, 13.8711107], [100.2128691, 13.86984], [100.2134016, 13.8671423], [100.2139675, 13.864789], [100.2145565, 13.8628755], [100.2151646, 13.861871], [100.2154103, 13.8614652], [100.2162565, 13.8605087], [100.2176998, 13.8595725], [100.221423, 13.8576366], [100.2223049, 13.8569629], [100.2228716, 13.8560724], [100.2230033, 13.8558793], [100.2233196, 13.8535603], [100.2232327, 13.8524082], [100.2229351, 13.8503645], [100.2227574, 13.8491438], [100.2222147, 13.843898], [100.2221769, 13.8435324], [100.2221295, 13.8420323], [100.222406, 13.8393603], [100.2231809, 13.8374212], [100.2244461, 13.8336337], [100.2244141, 13.8288602], [100.2244079, 13.8274845], [100.224305, 13.8250047], [100.2241531, 13.8213426], [100.224026, 13.8182797], [100.2237516, 13.8120057], [100.2236474, 13.8115485], [100.2231857, 13.8107555]], [[100.2231857, 13.8107555], [100.2219803, 13.8100518], [100.2191716, 13.809942], [100.2182465, 13.8099791], [100.2128279, 13.8103433], [100.2055219, 13.8104794], [100.2028088, 13.8113173], [100.2011786, 13.8118383], [100.1997876, 13.8136771], [100.1991755, 13.8154135], [100.1987378, 13.8170871], [100.1980605, 13.8180008], [100.1967859, 13.8186103], [100.1951739, 13.818572], [100.1945195, 13.8183873], [100.1933776, 13.8180224], [100.1914132, 13.8167569], [100.1891891, 13.8152155], [100.1873426, 13.8133631], [100.1864364, 13.8115454], [100.186214, 13.8110993], [100.1857939, 13.8083111], [100.1862569, 13.8052151], [100.1864999, 13.8045087], [100.187024, 13.8031892], [100.189255, 13.8001822], [100.192353, 13.7975415], [100.1934393, 13.7966199]], [[100.1934393, 13.7966199], [100.1954392, 13.7948361], [100.1983939, 13.7916384], [100.2016458, 13.7881688], [100.2020263, 13.7877628], [100.2057646, 13.7844457], [100.2090825, 13.7828311], [100.2093664, 13.7828053], [100.211551, 13.7826071], [100.2122394, 13.7825446], [100.2159006, 13.7831474], [100.2191037, 13.784107], [100.2199406, 13.7843766], [100.2229559, 13.7853481], [100.2253055, 13.786711], [100.2256908, 13.7871498], [100.2269669, 13.7886031], [100.227719, 13.7911726], [100.2283378, 13.7922716], [100.2287238, 13.7929572], [100.2299265, 13.7934712], [100.2319188, 13.7933441], [100.2340812, 13.7926173], [100.2363214, 13.791504], [100.2393417, 13.7894815], [100.2409276, 13.7877076], [100.2413897, 13.7871908], [100.2428687, 13.784862], [100.2437722, 13.7817663], [100.2437722, 13.7797803], [100.2428737, 13.7777517], [100.2414919, 13.7761277], [100.2393185, 13.7746048], [100.2386946, 13.7728636], [100.2390107, 13.7715221], [100.2391591, 13.7708921], [100.2407931, 13.7692387], [100.2428469, 13.7679889], [100.2464325, 13.7664143], [100.2494903, 13.7659225], [100.2500553, 13.7658316], [100.2510933, 13.7658798], [100.2535095, 13.7659919], [100.2558535, 13.7667685], [100.2577426, 13.7683581], [100.2595463, 13.7704228], [100.2607685, 13.772829], [100.2624108, 13.775006], [100.2624314, 13.7750107], [100.2658858, 13.7757915], [100.2670856, 13.7756688], [100.2683671, 13.7755378], [100.2687128, 13.7755025], [100.2689094, 13.7754564], [100.2724558, 13.7746241], [100.2742482, 13.7743426], [100.2782231, 13.7737074], [100.2798506, 13.7732779], [100.2820807, 13.7725616], [100.2826641, 13.7716712], [100.2835321, 13.7703464], [100.2840286, 13.7672145], [100.283987, 13.7662305], [100.283914, 13.7645027], [100.2836114, 13.7636352], [100.2827682, 13.761218], [100.2824859, 13.7599727], [100.2821189, 13.7583535], [100.2810495, 13.7556417], [100.2797433, 13.7533525], [100.2780406, 13.7516498], [100.2763668, 13.7499759], [100.2740383, 13.7483011], [100.2730768, 13.7476095], [100.2701909, 13.7459068], [100.2665851, 13.7439708], [100.2643299, 13.7431704], [100.2627753, 13.7432538], [100.2593357, 13.7439489], [100.2554239, 13.7448775], [100.25198, 13.7455924], [100.2494383, 13.7462709], [100.2481959, 13.7467924], [100.2472561, 13.7471869], [100.2452981, 13.7485719], [100.2437456, 13.750305], [100.2423101, 13.7516598], [100.2405516, 13.7524289], [100.2391483, 13.752532], [100.2374381, 13.7516181], [100.2358772, 13.7501779], [100.2337128, 13.7472054], [100.2327445, 13.7452932], [100.2321544, 13.7441464], [100.2315435, 13.7423738], [100.2313066, 13.7416864], [100.2313288, 13.7404739], [100.2313484, 13.7394019], [100.2323022, 13.7376709], [100.2339083, 13.7361055], [100.2361614, 13.7350841], [100.2386719, 13.7345463], [100.2408606, 13.7333332], [100.2421009, 13.7312926], [100.2426888, 13.728489], [100.2425987, 13.7261835], [100.2421343, 13.7247347], [100.2419088, 13.7240314], [100.2407844, 13.7225628], [100.2402315, 13.7221591], [100.2392513, 13.7214434], [100.2389987, 13.7213468], [100.2370358, 13.720596], [100.2354801, 13.7204897], [100.2316145, 13.7209545], [100.2292786, 13.7210871], [100.2290803, 13.7210984], [100.2256621, 13.7211244], [100.2229338, 13.721312], [100.2211388, 13.7216116], [100.2205606, 13.7217081], [100.2187281, 13.7225388], [100.2164261, 13.7235697], [100.2140975, 13.7241449], [100.2116149, 13.7244722], [100.2099058, 13.7242606], [100.2081881, 13.72321], [100.2070757, 13.7214918], [100.2069789, 13.7191045], [100.2070768, 13.718815], [100.2077128, 13.7169334], [100.2089649, 13.7139077], [100.2096153, 13.7104098], [100.2089422, 13.7070724], [100.2089227, 13.7069756], [100.208028, 13.7040608], [100.2077796, 13.7021566], [100.2075951, 13.700742], [100.207937, 13.6990399], [100.2090689, 13.6976306], [100.2109717, 13.6970769], [100.2113685, 13.6970163], [100.2140214, 13.6966112], [100.2160009, 13.6963894], [100.2172885, 13.6962452], [100.2208374, 13.6962828], [100.2229289, 13.6973099], [100.2242654, 13.6986464], [100.2245985, 13.6995624], [100.2250808, 13.7008889], [100.2253174, 13.7035984], [100.225286, 13.7065243], [100.2257421, 13.7081131], [100.2265099, 13.7086721], [100.2278188, 13.7088121], [100.2291762, 13.7084889], [100.2307828, 13.7080277], [100.2310591, 13.7079086], [100.233403, 13.7067602], [100.2355046, 13.7047662], [100.2374015, 13.7033867], [100.2376258, 13.7032236], [100.2390239, 13.7019219], [100.2404702, 13.7001864], [100.2415308, 13.6985955], [100.241616, 13.698155], [100.24182, 13.697101], [100.2416272, 13.6953655], [100.2408076, 13.6934371], [100.2406881, 13.6932348], [100.2401809, 13.6923765], [100.2395635, 13.6910187], [100.2391858, 13.6900962], [100.239185, 13.6900072], [100.239174, 13.6887984], [100.2393768, 13.6874183], [100.2400989, 13.686257], [100.2402818, 13.6861224], [100.241411, 13.6852917], [100.2427843, 13.6845412], [100.244311, 13.6838928], [100.2452045, 13.6836815], [100.2456156, 13.6835842], [100.2470297, 13.6834154], [100.248256, 13.6834508], [100.2485847, 13.6835174], [100.2495209, 13.6837073], [100.251215, 13.6844786], [100.25146, 13.6847236], [100.2523845, 13.6856482], [100.252806, 13.6861892], [100.2532503, 13.6867595], [100.2541408, 13.6877967], [100.2550742, 13.6885066], [100.2551462, 13.6885089], [100.256264, 13.6885451], [100.2565512, 13.6884661], [100.2574388, 13.688222], [100.2584162, 13.687314], [100.2593271, 13.6860913], [100.2598807, 13.6853345], [100.2602004, 13.6847055]], [[100.2602004, 13.6847055], [100.2603442, 13.6844224], [100.2605824, 13.6836447], [100.2606192, 13.6831804], [100.2606274, 13.6830766], [100.2603786, 13.6817976], [100.2596361, 13.6807234], [100.2585644, 13.6796517], [100.2584943, 13.6795877], [100.2582618, 13.6793491], [100.257638, 13.6786398]], [[100.257638, 13.6786398], [100.2571086, 13.6780379], [100.2567485, 13.6766805], [100.2566979, 13.6764898], [100.2567769, 13.6752892], [100.257077, 13.6734725], [100.2576299, 13.6728722], [100.2588305, 13.6719244], [100.2605998, 13.6710713], [100.2624638, 13.6707712], [100.2642805, 13.6698392], [100.2659392, 13.6690335], [100.2667923, 13.6679593], [100.2672413, 13.6670255], [100.2674873, 13.6659531]], [[100.2674873, 13.6659531], [100.2675505, 13.6644839], [100.2673706, 13.6640576], [100.2668239, 13.662762], [100.2651336, 13.6609928], [100.2641448, 13.6603714], [100.2624366, 13.6592978], [100.2600311, 13.6577859], [100.259896, 13.6577315], [100.2567769, 13.6564748], [100.2531965, 13.6560642], [100.2523694, 13.6559693], [100.2521333, 13.656048], [100.250142, 13.6567117], [100.2488309, 13.6582756], [100.2480094, 13.6611981], [100.2474165, 13.6639192], [100.2470619, 13.664783], [100.2465829, 13.6654575], [100.246098, 13.6659847], [100.2453909, 13.6664182], [100.2450284, 13.666552], [100.2445535, 13.6667273], [100.2436233, 13.666808], [100.2431872, 13.6668513], [100.2426105, 13.6667476], [100.2421283, 13.6664854], [100.2415326, 13.666032], [100.2406795, 13.6651], [100.2401279, 13.6637307], [100.2400681, 13.6628969], [100.2401316, 13.6625101], [100.2404584, 13.6605188], [100.2412008, 13.6581019], [100.2413263, 13.6574903], [100.24158, 13.6562536], [100.2413679, 13.6552462], [100.241264, 13.6547529], [100.2402782, 13.6536199], [100.2402056, 13.6535365], [100.2385193, 13.6531099], [100.2375201, 13.6528572], [100.2366305, 13.6532], [100.2357982, 13.6535207], [100.2356663, 13.6536624], [100.2345646, 13.654846], [100.234009, 13.6557447], [100.2338072, 13.6567815], [100.233796, 13.6569518], [100.2336972, 13.6584494], [100.2335895, 13.6600788], [100.2335074, 13.6613201], [100.2332799, 13.6619844], [100.2332178, 13.6621656], [100.2327336, 13.6629832], [100.2322663, 13.6632969], [100.231837, 13.663585], [100.2307589, 13.6638994], [100.2296966, 13.663757], [100.2283587, 13.663388], [100.2266292, 13.6627437], [100.2257893, 13.6623371], [100.2256437, 13.6622666], [100.224289, 13.6616108], [100.2236976, 13.6613245], [100.2226768, 13.6606438], [100.2220549, 13.6602283], [100.2191796, 13.6583072], [100.2188052, 13.658105], [100.2162255, 13.6567117], [100.2161047, 13.6566106], [100.2140835, 13.6549178], [100.213698, 13.6545949], [100.2130064, 13.6532526], [100.2129263, 13.6530957], [100.2124658, 13.6521937], [100.2123683, 13.6508291], [100.212364, 13.6507696], [100.2122762, 13.6496346], [100.2122992, 13.6491132], [100.2123868, 13.6471228], [100.2125606, 13.6441372], [100.2136506, 13.6411989], [100.2157358, 13.6394138], [100.2165408, 13.6391228], [100.2177894, 13.6386714], [100.2202569, 13.6388012], [100.2204908, 13.6388135], [100.2220037, 13.6395105], [100.2233026, 13.6401089], [100.2243556, 13.6411563], [100.2262725, 13.643063], [100.2278527, 13.6438477], [100.2285947, 13.6442162], [100.2301457, 13.6446264], [100.2305532, 13.6446425], [100.2308284, 13.6445222], [100.2309859, 13.6444534], [100.2317857, 13.643916], [100.232903, 13.6422528], [100.2331667, 13.6415668], [100.233476, 13.6384344], [100.233557, 13.6367001], [100.2332865, 13.6337426], [100.2326704, 13.6305042], [100.2317699, 13.6286875], [100.230364, 13.6271868], [100.2297571, 13.6267507], [100.2289264, 13.6263338], [100.2280174, 13.6260985], [100.2269992, 13.6259704], [100.2244085, 13.6260178], [100.2213122, 13.6276923], [100.2188478, 13.6292088], [100.2177162, 13.6296337], [100.2166678, 13.6299197], [100.2160725, 13.6299992], [100.2153563, 13.6299455], [100.214784, 13.6298089], [100.2143779, 13.6295435], [100.2139665, 13.6289403], [100.2129555, 13.6260652], [100.212972, 13.6253623], [100.2130187, 13.6233797], [100.2135716, 13.6220369], [100.2145352, 13.6209627], [100.2156568, 13.6202361], [100.2175367, 13.6201413], [100.2205066, 13.6210575], [100.222576, 13.6221949], [100.2235873, 13.6223853], [100.2245824, 13.6224885], [100.2256248, 13.6224319], [100.2262953, 13.6221173], [100.2268017, 13.62167], [100.2271917, 13.6210188], [100.2279154, 13.6190355], [100.2281254, 13.616763], [100.228184, 13.6161288], [100.2280418, 13.6126692], [100.2280436, 13.612582], [100.2280771, 13.6109243], [100.228104, 13.6095992], [100.2281208, 13.6087673], [100.2280437, 13.6056092], [100.2280014, 13.6038752], [100.2271141, 13.6019627], [100.2269777, 13.6016687], [100.2250554, 13.5994562], [100.2245664, 13.5988934], [100.223611, 13.5972328], [100.223429, 13.5958452], [100.2239295, 13.5947533], [100.2254308, 13.5938889], [100.2289113, 13.5928425], [100.2306174, 13.5912956], [100.2312316, 13.589817], [100.2306629, 13.5866551], [100.2301169, 13.5852219], [100.2288203, 13.5830836], [100.2283426, 13.5814685], [100.2282288, 13.5804904], [100.2282442, 13.5804443], [100.2286383, 13.579262], [100.2297757, 13.5780791], [100.2314818, 13.576191], [100.232427, 13.5754463], [100.2337338, 13.5744167], [100.2354172, 13.5735978], [100.2373053, 13.5731883], [100.23846, 13.5725536], [100.2393298, 13.5718007], [100.2399797, 13.5706815], [100.2400619, 13.5703521], [100.2402852, 13.5694576], [100.2407857, 13.5668644], [100.2411427, 13.5650079], [100.2415665, 13.5637512], [100.2423985, 13.5626467], [100.2429013, 13.5621101], [100.2441071, 13.5615542], [100.2465409, 13.5609954], [100.2489554, 13.5606994], [100.2499253, 13.5603401], [100.2505095, 13.5598755], [100.2516618, 13.5585228], [100.2520255, 13.5578479], [100.2527506, 13.5556735], [100.252924, 13.5548446], [100.2530348, 13.5539326], [100.2531434, 13.5530392], [100.2531461, 13.5519555], [100.2529374, 13.5510319], [100.2514545, 13.5476651], [100.2503514, 13.5449947], [100.2499216, 13.5432691], [100.2498671, 13.5430305], [100.2498346, 13.5426439], [100.2496259, 13.5400025], [100.2496049, 13.538989], [100.2496169, 13.5383333], [100.2497054, 13.5376488], [100.2497325, 13.5374607], [100.2511815, 13.535222], [100.253934, 13.5327197], [100.2552397, 13.5320974], [100.2573822, 13.5315586], [100.2593999, 13.5315217], [100.2610674, 13.5318694], [100.2626919, 13.532697], [100.264007, 13.534195], [100.2648279, 13.5358774], [100.2656311, 13.5385906], [100.2663999, 13.5412957], [100.2684323, 13.5432375], [100.2697193, 13.5436815], [100.2722714, 13.5437839], [100.273285, 13.5433699], [100.274369, 13.5429272], [100.2755372, 13.5420855], [100.2775463, 13.5398853], [100.2781715, 13.5376422], [100.2781605, 13.5360864], [100.2773567, 13.5346177], [100.2761288, 13.5336645], [100.2755534, 13.5334288], [100.273118, 13.532431], [100.269198, 13.5318139], [100.2669029, 13.5306528], [100.2655614, 13.5293167], [100.2650504, 13.5281697], [100.2650947, 13.5265654], [100.2654217, 13.5251674], [100.2674235, 13.5226197], [100.2682754, 13.5214906], [100.2710632, 13.5184568], [100.2753704, 13.5142956], [100.2765443, 13.512776], [100.2784856, 13.5086505], [100.2792605, 13.5065915]]]}, "properties": {"name_th": "แม่น้ำท่าจีน", "name_en": "Tha Chin River", "type": "river"}}, {"type": "Feature", "geometry": {"type": "MultiLineString", "coordinates": [[[101.161948, 13.8530808], [101.1623539, 13.8526266], [101.1628065, 13.8502183], [101.1619838, 13.8471122], [101.1599691, 13.8447113], [101.1581054, 13.8417395], [101.1579674, 13.8405856], [101.1581589, 13.8397209], [101.1585092, 13.8390683], [101.159128, 13.8381781], [101.1609738, 13.8368067], [101.1623196, 13.8352587], [101.1626554, 13.8327739], [101.1618327, 13.8314307], [101.1594822, 13.8297853], [101.1576353, 13.8281231], [101.1573781, 13.8269585], [101.1576689, 13.8256047], [101.1585999, 13.8247767], [101.1598516, 13.8244462], [101.1614535, 13.8244074], [101.1636292, 13.8251346], [101.1657722, 13.8256459], [101.167066, 13.8257295], [101.1681626, 13.8256835], [101.1694854, 13.8250578], [101.1730986, 13.8213066], [101.1752588, 13.8189819], [101.1786051, 13.8164325], [101.1798333, 13.8150901], [101.1821837, 13.813463], [101.1875578, 13.8094054], [101.1883287, 13.8078891], [101.1884231, 13.8071815], [101.1876787, 13.8054162], [101.1853093, 13.8040139], [101.1830667, 13.8032497], [101.1812959, 13.8022248], [101.1807064, 13.8003939], [101.1806431, 13.7983565], [101.1811645, 13.7971306], [101.1823839, 13.7958904], [101.1840924, 13.7952728], [101.1863489, 13.7949717], [101.1888442, 13.7948561], [101.1912085, 13.7953827], [101.1945691, 13.7966641], [101.1961645, 13.7964804], [101.1971319, 13.7957212], [101.1977121, 13.7941255], [101.1971319, 13.7917562], [101.1954395, 13.7900638], [101.1928284, 13.788734], [101.1916959, 13.7873977], [101.1912678, 13.785667], [101.191547, 13.7837052], [101.193191, 13.7818436], [101.196745, 13.7813359], [101.1999364, 13.7809974], [101.2016288, 13.7801995], [101.2023783, 13.7786522], [101.2017255, 13.7740102], [101.2029827, 13.7697792], [101.2043366, 13.766878], [101.2035871, 13.7647262], [101.2017013, 13.763469], [101.1979539, 13.7627921], [101.1956329, 13.7623569], [101.1941339, 13.7610755], [101.1933119, 13.7589479], [101.1944724, 13.7557566], [101.1954878, 13.7533147], [101.1946416, 13.7500991], [101.1920547, 13.747899], [101.189371, 13.7475364], [101.1856961, 13.7487694], [101.1834422, 13.7498914], [101.1813876, 13.7519288], [101.180717, 13.7540755], [101.180619, 13.7566995], [101.1800871, 13.7604227], [101.1787177, 13.7609545], [101.1775968, 13.7613898], [101.1744055, 13.760592], [101.1715042, 13.7585369], [101.1701261, 13.7557082], [101.1704646, 13.7511871], [101.1727131, 13.7437164], [101.1745215, 13.7400648], [101.1760979, 13.737648], [101.1792892, 13.7355929], [101.183496, 13.7349643], [101.1898546, 13.7359797], [101.1958747, 13.736705], [101.2005408, 13.7374304], [101.2047476, 13.7401624], [101.2063606, 13.7411031], [101.2077238, 13.741299], [101.2092574, 13.7409832], [101.2097519, 13.7405455], [101.2108279, 13.7373892], [101.2105332, 13.7343058], [101.2090318, 13.7311028], [101.2076622, 13.7296665], [101.2019458, 13.7235952], [101.2004133, 13.7226412], [101.1990913, 13.7219766], [101.1976207, 13.7217013], [101.1960438, 13.7217733], [101.1945353, 13.7223124], [101.1929306, 13.7233171], [101.1909192, 13.724791], [101.1877067, 13.7262813], [101.1839643, 13.7249897], [101.1826396, 13.7204525], [101.1820434, 13.716677], [101.1804538, 13.7146568], [101.1763471, 13.7137626], [101.1721742, 13.7140606], [101.1686305, 13.7127359], [101.1665109, 13.7103845], [101.165683, 13.7069733], [101.1662129, 13.7010783], [101.1663785, 13.6988262], [101.1646563, 13.6966404], [101.1609802, 13.695415], [101.1579541, 13.6954647], [101.1569397, 13.6954813], [101.1553501, 13.6961767], [101.1527337, 13.6992899], [101.1527006, 13.7063441], [101.1518064, 13.7092254], [101.1490576, 13.7114112], [101.1465075, 13.7112125], [101.1439905, 13.7095566], [101.1429307, 13.7080331], [101.1371891, 13.7079367]], [[101.1371891, 13.7079367], [101.1338984, 13.7078814], [101.1269882, 13.7096235], [101.1217039, 13.7115978], [101.1152977, 13.7099057], [101.1115348, 13.7070626], [101.1100715, 13.7033416], [101.109737, 13.699746], [101.1078138, 13.6986589], [101.1028802, 13.7002895], [101.0991592, 13.7005822], [101.0947274, 13.6992024], [101.0915253, 13.6967913], [101.0903374, 13.6956068], [101.0890831, 13.6921784], [101.0893408, 13.6883118], [101.0893757, 13.6877884], [101.0885625, 13.6865879], [101.0884977, 13.6864923], [101.086031, 13.6864923], [101.0859291, 13.686576], [101.0843779, 13.6878495], [101.0821635, 13.6896677], [101.082059, 13.6897535], [101.0795003, 13.689419], [101.0788039, 13.6889915], [101.0761221, 13.6873452], [101.0753397, 13.6856301], [101.0743828, 13.6835322], [101.0741469, 13.681826], [101.0739967, 13.6807393], [101.0743124, 13.678793], [101.0744497, 13.6779464], [101.0752557, 13.6760935], [101.0769335, 13.6722365], [101.0773596, 13.6712569], [101.077289, 13.6706925], [101.0772484, 13.670367], [101.0771885, 13.6698884], [101.0771757, 13.6697858], [101.0767565, 13.6696179], [101.0762418, 13.6694119], [101.0757541, 13.6692166], [101.0751655, 13.6693244], [101.0743575, 13.6694724], [101.0742763, 13.6694873], [101.0707396, 13.6715771], [101.0701204, 13.671943], [101.0689551, 13.6721014], [101.0677451, 13.672022], [101.0665265, 13.6715166], [101.0659827, 13.6710835], [101.0657744, 13.6707513], [101.0653126, 13.6700147], [101.0646941, 13.668495], [101.0642757, 13.6671936], [101.0637599, 13.6655894], [101.0636322, 13.6641841], [101.0636273, 13.6641303], [101.0634637, 13.6623284], [101.0632447, 13.6599181], [101.0633041, 13.6595471], [101.0636461, 13.6574095], [101.0642219, 13.6564152], [101.0646701, 13.6556411], [101.0652472, 13.6551764], [101.0662108, 13.6544006], [101.0688329, 13.6536394], [101.0690753, 13.653643], [101.0717874, 13.6536838], [101.0734465, 13.6537624], [101.0777704, 13.6539671], [101.0791325, 13.6537645], [101.0798222, 13.6528655], [101.0799378, 13.6527148], [101.0799908, 13.6508661], [101.0795043, 13.6497767], [101.0740135, 13.6448158], [101.0738539, 13.6432135], [101.0745915, 13.6419741], [101.075871, 13.6415036], [101.0770961, 13.6417332], [101.0836465, 13.6456346], [101.0860205, 13.6457887], [101.088174, 13.6451529], [101.0909675, 13.6418296], [101.0921235, 13.6360016], [101.0905822, 13.6310888], [101.0888067, 13.627811], [101.0869733, 13.6252257], [101.0856771, 13.6241121], [101.084227, 13.6231284], [101.0823834, 13.6228192], [101.080782, 13.6230759], [101.0767372, 13.6250705], [101.0719432, 13.6290654], [101.0702491, 13.6293047], [101.0686558, 13.6291639], [101.0677707, 13.6287547], [101.0634653, 13.6242947], [101.0603578, 13.6210755], [101.0566735, 13.6165035], [101.056366, 13.6148424], [101.0571174, 13.6113988], [101.0594256, 13.6042966], [101.0617782, 13.6017221], [101.0648854, 13.6018552], [101.0702564, 13.6063385], [101.0735856, 13.6066048], [101.0761601, 13.6045186], [101.0762146, 13.6034781], [101.0764786, 13.5984379], [101.0762205, 13.5911768], [101.0744637, 13.5874932], [101.0735067, 13.5868552], [101.0702223, 13.5846656], [101.0596581, 13.5837623], [101.050704, 13.5809347], [101.0491776, 13.5809198], [101.0477586, 13.5814452], [101.0460663, 13.5825884], [101.0452452, 13.5844692], [101.0459804, 13.5884701], [101.0470517, 13.5918131], [101.0464626, 13.5949941], [101.0437654, 13.5972427], [101.03854, 13.5961569], [101.0333533, 13.5914827], [101.03082, 13.5866323], [101.0312369, 13.5812815], [101.0359623, 13.5758264], [101.0404901, 13.5719372], [101.0413306, 13.5697157], [101.0408284, 13.5680655], [101.0404901, 13.5669538], [101.0370678, 13.5648524], [101.0293826, 13.5654528], [101.0257802, 13.5658731], [101.0228983, 13.5639518], [101.0222869, 13.562638], [101.0221778, 13.5584281], [101.0234987, 13.5546456], [101.0245107, 13.5516614], [101.024048, 13.5493147], [101.0224817, 13.5482709], [101.0207969, 13.5485815], [101.014973, 13.5511032], [101.0129692, 13.5514723], [101.0104099, 13.5519438], [101.0067036, 13.5514439], [101.0053224, 13.5512576], [101.0024796, 13.5498245], [100.9984466, 13.5467592], [100.9952117, 13.5419453], [100.9949165, 13.5404011], [100.9956419, 13.5367302], [100.9970906, 13.5343877], [100.9996365, 13.5302709], [101.0007992, 13.5250745], [100.9999523, 13.5232062], [100.9969055, 13.5164847], [100.9966869, 13.5149407], [100.9966177, 13.5134121], [100.9970661, 13.5114357], [100.9979353, 13.5098004], [100.9985008, 13.5092352], [100.9993657, 13.5087993], [101.0003324, 13.5083893], [101.0017356, 13.5081347], [101.0024855, 13.5081907], [101.0071514, 13.5098839], [101.0113735, 13.511416], [101.0173215, 13.5098004], [101.0199406, 13.5058398], [101.0203323, 13.5052476], [101.0203323, 13.5021361], [101.0203323, 13.5013032], [101.0203323, 13.4994335], [101.0203323, 13.4987855], [101.0177393, 13.4944098], [101.0175547, 13.4940984], [101.0168075, 13.4928375], [101.0145792, 13.4908265], [101.0131585, 13.4895444], [101.010786, 13.4874034], [101.0079939, 13.4860315], [101.0071144, 13.4858614], [101.0031496, 13.4867165], [100.9996242, 13.4874769], [100.997316, 13.4897852], [100.9942636, 13.4928375], [100.9926203, 13.4944808], [100.9924848, 13.4946163], [100.9891004, 13.4979705], [100.9875063, 13.4989351], [100.9841335, 13.5005505], [100.9817379, 13.5010482], [100.9808044, 13.5012125], [100.9787454, 13.5008526], [100.9771133, 13.4985502], [100.9765044, 13.4964169], [100.976615, 13.4946888], [100.9768316, 13.4929951], [100.9771552, 13.4913189], [100.9818359, 13.4843778], [100.9820973, 13.4802335], [100.9743242, 13.473835]], [[101.1615602, 13.895554], [101.1619518, 13.8941756], [101.1620975, 13.8928639], [101.162182, 13.8915231], [101.1620305, 13.8905437], [101.1614242, 13.8891212], [101.1598082, 13.8871148], [101.1590107, 13.8861247], [101.1561355, 13.8826082], [101.1542886, 13.8805935], [101.1527216, 13.8796421], [101.1510146, 13.8794882], [101.1497834, 13.8800338], [101.1475448, 13.8825802], [101.1460337, 13.8851267], [101.1447185, 13.8871274], [101.1432494, 13.887911], [101.1416684, 13.8875192], [101.1404232, 13.886162], [101.1394858, 13.8840913], [101.1393738, 13.8819366], [101.1397656, 13.8801597], [101.1407745, 13.8773407], [101.1424701, 13.8745342], [101.1441929, 13.8716836], [101.1459495, 13.8701421], [101.1498789, 13.868262], [101.1524977, 13.8671254], [101.1563929, 13.8653121], [101.1598683, 13.8643383], [101.161094, 13.8628609], [101.1609261, 13.8605943], [101.1596501, 13.8587138], [101.1567287, 13.8573035], [101.1520948, 13.8562793], [101.1488711, 13.8554902], [101.147763, 13.8538112], [101.1479504, 13.8527787], [101.1485521, 13.852233], [101.1496212, 13.8516267]], [[101.1612115, 13.853912], [101.161948, 13.8530808]], [[100.9743242, 13.473835], [100.9709269, 13.4710385]], [[101.1496212, 13.8516267], [101.150718, 13.8515279], [101.153908, 13.8521994], [101.1590289, 13.8541303], [101.1612115, 13.853912]], [[100.9743242, 13.473835], [100.9709269, 13.4710385]], [[101.1371891, 13.7079367], [101.1338984, 13.7078814], [101.1269882, 13.7096235], [101.1217039, 13.7115978], [101.1152977, 13.7099057], [101.1115348, 13.7070626], [101.1100715, 13.7033416], [101.109737, 13.699746], [101.1078138, 13.6986589], [101.1028802, 13.7002895], [101.0991592, 13.7005822], [101.0947274, 13.6992024], [101.0915253, 13.6967913], [101.0903374, 13.6956068], [101.0890831, 13.6921784], [101.0893408, 13.6883118], [101.0893757, 13.6877884], [101.0885625, 13.6865879], [101.0884977, 13.6864923], [101.086031, 13.6864923], [101.0859291, 13.686576], [101.0843779, 13.6878495], [101.0821635, 13.6896677], [101.082059, 13.6897535], [101.0795003, 13.689419], [101.0788039, 13.6889915], [101.0761221, 13.6873452], [101.0753397, 13.6856301], [101.0743828, 13.6835322], [101.0741469, 13.681826], [101.0739967, 13.6807393], [101.0743124, 13.678793], [101.0744497, 13.6779464], [101.0752557, 13.6760935], [101.0769335, 13.6722365], [101.0773596, 13.6712569], [101.077289, 13.6706925], [101.0772484, 13.670367], [101.0771885, 13.6698884], [101.0771757, 13.6697858], [101.0767565, 13.6696179], [101.0762418, 13.6694119], [101.0757541, 13.6692166], [101.0751655, 13.6693244], [101.0743575, 13.6694724], [101.0742763, 13.6694873], [101.0707396, 13.6715771], [101.0701204, 13.671943], [101.0689551, 13.6721014], [101.0677451, 13.672022], [101.0665265, 13.6715166], [101.0659827, 13.6710835], [101.0657744, 13.6707513], [101.0653126, 13.6700147], [101.0646941, 13.668495], [101.0642757, 13.6671936], [101.0637599, 13.6655894], [101.0636322, 13.6641841], [101.0636273, 13.6641303], [101.0634637, 13.6623284], [101.0632447, 13.6599181], [101.0633041, 13.6595471], [101.0636461, 13.6574095], [101.0642219, 13.6564152], [101.0646701, 13.6556411], [101.0652472, 13.6551764], [101.0662108, 13.6544006], [101.0688329, 13.6536394], [101.0690753, 13.653643], [101.0717874, 13.6536838], [101.0734465, 13.6537624], [101.0777704, 13.6539671], [101.0791325, 13.6537645], [101.0798222, 13.6528655], [101.0799378, 13.6527148], [101.0799908, 13.6508661], [101.0795043, 13.6497767], [101.0740135, 13.6448158], [101.0738539, 13.6432135], [101.0745915, 13.6419741], [101.075871, 13.6415036], [101.0770961, 13.6417332], [101.0836465, 13.6456346], [101.0860205, 13.6457887], [101.088174, 13.6451529], [101.0909675, 13.6418296], [101.0921235, 13.6360016], [101.0905822, 13.6310888], [101.0888067, 13.627811], [101.0869733, 13.6252257], [101.0856771, 13.6241121], [101.084227, 13.6231284], [101.0823834, 13.6228192], [101.080782, 13.6230759], [101.0767372, 13.6250705], [101.0719432, 13.6290654], [101.0702491, 13.6293047], [101.0686558, 13.6291639], [101.0677707, 13.6287547], [101.0634653, 13.6242947], [101.0603578, 13.6210755], [101.0566735, 13.6165035], [101.056366, 13.6148424], [101.0571174, 13.6113988], [101.0594256, 13.6042966], [101.0617782, 13.6017221], [101.0648854, 13.6018552], [101.0702564, 13.6063385], [101.0735856, 13.6066048], [101.0761601, 13.6045186], [101.0762146, 13.6034781], [101.0764786, 13.5984379], [101.0762205, 13.5911768], [101.0744637, 13.5874932], [101.0735067, 13.5868552], [101.0702223, 13.5846656], [101.0596581, 13.5837623], [101.050704, 13.5809347], [101.0491776, 13.5809198], [101.0477586, 13.5814452], [101.0460663, 13.5825884], [101.0452452, 13.5844692], [101.0459804, 13.5884701], [101.0470517, 13.5918131], [101.0464626, 13.5949941], [101.0437654, 13.5972427], [101.03854, 13.5961569], [101.0333533, 13.5914827], [101.03082, 13.5866323], [101.0312369, 13.5812815], [101.0359623, 13.5758264], [101.0404901, 13.5719372], [101.0413306, 13.5697157], [101.0408284, 13.5680655], [101.0404901, 13.5669538], [101.0370678, 13.5648524], [101.0293826, 13.5654528], [101.0257802, 13.5658731], [101.0228983, 13.5639518], [101.0222869, 13.562638], [101.0221778, 13.5584281], [101.0234987, 13.5546456], [101.0245107, 13.5516614], [101.024048, 13.5493147], [101.0224817, 13.5482709], [101.0207969, 13.5485815], [101.014973, 13.5511032], [101.0129692, 13.5514723], [101.0104099, 13.5519438], [101.0067036, 13.5514439], [101.0053224, 13.5512576], [101.0024796, 13.5498245], [100.9984466, 13.5467592], [100.9952117, 13.5419453], [100.9949165, 13.5404011], [100.9956419, 13.5367302], [100.9970906, 13.5343877], [100.9996365, 13.5302709], [101.0007992, 13.5250745], [100.9999523, 13.5232062], [100.9969055, 13.5164847], [100.9966869, 13.5149407], [100.9966177, 13.5134121], [100.9970661, 13.5114357], [100.9979353, 13.5098004], [100.9985008, 13.5092352], [100.9993657, 13.5087993], [101.0003324, 13.5083893], [101.0017356, 13.5081347], [101.0024855, 13.5081907], [101.0071514, 13.5098839], [101.0113735, 13.511416], [101.0173215, 13.5098004], [101.0199406, 13.5058398], [101.0203323, 13.5052476], [101.0203323, 13.5021361], [101.0203323, 13.5013032], [101.0203323, 13.4994335], [101.0203323, 13.4987855], [101.0177393, 13.4944098], [101.0175547, 13.4940984], [101.0168075, 13.4928375], [101.0145792, 13.4908265], [101.0131585, 13.4895444], [101.010786, 13.4874034], [101.0079939, 13.4860315], [101.0071144, 13.4858614], [101.0031496, 13.4867165], [100.9996242, 13.4874769], [100.997316, 13.4897852], [100.9942636, 13.4928375], [100.9926203, 13.4944808], [100.9924848, 13.4946163], [100.9891004, 13.4979705], [100.9875063, 13.4989351], [100.9841335, 13.5005505], [100.9817379, 13.5010482], [100.9808044, 13.5012125], [100.9787454, 13.5008526], [100.9771133, 13.4985502], [100.9765044, 13.4964169], [100.976615, 13.4946888], [100.9768316, 13.4929951], [100.9771552, 13.4913189], [100.9818359, 13.4843778], [100.9820973, 13.4802335], [100.9743242, 13.473835]], [[101.161948, 13.8530808], [101.1623539, 13.8526266], [101.1628065, 13.8502183], [101.1619838, 13.8471122], [101.1599691, 13.8447113], [101.1581054, 13.8417395], [101.1579674, 13.8405856], [101.1581589, 13.8397209], [101.1585092, 13.8390683], [101.159128, 13.8381781], [101.1609738, 13.8368067], [101.1623196, 13.8352587], [101.1626554, 13.8327739], [101.1618327, 13.8314307], [101.1594822, 13.8297853], [101.1576353, 13.8281231], [101.1573781, 13.8269585], [101.1576689, 13.8256047], [101.1585999, 13.8247767], [101.1598516, 13.8244462], [101.1614535, 13.8244074], [101.1636292, 13.8251346], [101.1657722, 13.8256459], [101.167066, 13.8257295], [101.1681626, 13.8256835], [101.1694854, 13.8250578], [101.1730986, 13.8213066], [101.1752588, 13.8189819], [101.1786051, 13.8164325], [101.1798333, 13.8150901], [101.1821837, 13.813463], [101.1875578, 13.8094054], [101.1883287, 13.8078891], [101.1884231, 13.8071815], [101.1876787, 13.8054162], [101.1853093, 13.8040139], [101.1830667, 13.8032497], [101.1812959, 13.8022248], [101.1807064, 13.8003939], [101.1806431, 13.7983565], [101.1811645, 13.7971306], [101.1823839, 13.7958904], [101.1840924, 13.7952728], [101.1863489, 13.7949717], [101.1888442, 13.7948561], [101.1912085, 13.7953827], [101.1945691, 13.7966641], [101.1961645, 13.7964804], [101.1971319, 13.7957212], [101.1977121, 13.7941255], [101.1971319, 13.7917562], [101.1954395, 13.7900638], [101.1928284, 13.788734], [101.1916959, 13.7873977], [101.1912678, 13.785667], [101.191547, 13.7837052], [101.193191, 13.7818436], [101.196745, 13.7813359], [101.1999364, 13.7809974], [101.2016288, 13.7801995], [101.2023783, 13.7786522], [101.2017255, 13.7740102], [101.2029827, 13.7697792], [101.2043366, 13.766878], [101.2035871, 13.7647262], [101.2017013, 13.763469], [101.1979539, 13.7627921], [101.1956329, 13.7623569], [101.1941339, 13.7610755], [101.1933119, 13.7589479], [101.1944724, 13.7557566], [101.1954878, 13.7533147], [101.1946416, 13.7500991], [101.1920547, 13.747899], [101.189371, 13.7475364], [101.1856961, 13.7487694], [101.1834422, 13.7498914], [101.1813876, 13.7519288], [101.180717, 13.7540755], [101.180619, 13.7566995], [101.1800871, 13.7604227], [101.1787177, 13.7609545], [101.1775968, 13.7613898], [101.1744055, 13.760592], [101.1715042, 13.7585369], [101.1701261, 13.7557082], [101.1704646, 13.7511871], [101.1727131, 13.7437164], [101.1745215, 13.7400648], [101.1760979, 13.737648], [101.1792892, 13.7355929], [101.183496, 13.7349643], [101.1898546, 13.7359797], [101.1958747, 13.736705], [101.2005408, 13.7374304], [101.2047476, 13.7401624], [101.2063606, 13.7411031], [101.2077238, 13.741299], [101.2092574, 13.7409832], [101.2097519, 13.7405455], [101.2108279, 13.7373892], [101.2105332, 13.7343058], [101.2090318, 13.7311028], [101.2076622, 13.7296665], [101.2019458, 13.7235952], [101.2004133, 13.7226412], [101.1990913, 13.7219766], [101.1976207, 13.7217013], [101.1960438, 13.7217733], [101.1945353, 13.7223124], [101.1929306, 13.7233171], [101.1909192, 13.724791], [101.1877067, 13.7262813], [101.1839643, 13.7249897], [101.1826396, 13.7204525], [101.1820434, 13.716677], [101.1804538, 13.7146568], [101.1763471, 13.7137626], [101.1721742, 13.7140606], [101.1686305, 13.7127359], [101.1665109, 13.7103845], [101.165683, 13.7069733], [101.1662129, 13.7010783], [101.1663785, 13.6988262], [101.1646563, 13.6966404], [101.1609802, 13.695415], [101.1579541, 13.6954647], [101.1569397, 13.6954813], [101.1553501, 13.6961767], [101.1527337, 13.6992899], [101.1527006, 13.7063441], [101.1518064, 13.7092254], [101.1490576, 13.7114112], [101.1465075, 13.7112125], [101.1439905, 13.7095566], [101.1429307, 13.7080331], [101.1371891, 13.7079367]], [[101.1612115, 13.853912], [101.161948, 13.8530808]], [[101.1496212, 13.8516267], [101.150718, 13.8515279], [101.153908, 13.8521994], [101.1590289, 13.8541303], [101.1612115, 13.853912]], [[101.1615602, 13.895554], [101.1619518, 13.8941756], [101.1620975, 13.8928639], [101.162182, 13.8915231], [101.1620305, 13.8905437], [101.1614242, 13.8891212], [101.1598082, 13.8871148], [101.1590107, 13.8861247], [101.1561355, 13.8826082], [101.1542886, 13.8805935], [101.1527216, 13.8796421], [101.1510146, 13.8794882], [101.1497834, 13.8800338], [101.1475448, 13.8825802], [101.1460337, 13.8851267], [101.1447185, 13.8871274], [101.1432494, 13.887911], [101.1416684, 13.8875192], [101.1404232, 13.886162], [101.1394858, 13.8840913], [101.1393738, 13.8819366], [101.1397656, 13.8801597], [101.1407745, 13.8773407], [101.1424701, 13.8745342], [101.1441929, 13.8716836], [101.1459495, 13.8701421], [101.1498789, 13.868262], [101.1524977, 13.8671254], [101.1563929, 13.8653121], [101.1598683, 13.8643383], [101.161094, 13.8628609], [101.1609261, 13.8605943], [101.1596501, 13.8587138], [101.1567287, 13.8573035], [101.1520948, 13.8562793], [101.1488711, 13.8554902], [101.147763, 13.8538112], [101.1479504, 13.8527787], [101.1485521, 13.852233], [101.1496212, 13.8516267]]]}, "properties": {"name_th": "แม่น้ำบางปะกง", "name_en": "Bang Pakong River", "type": "river"}}]}