{"type": "FeatureCollection", "features": [{"type": "Feature", "geometry": {"type": "Point", "coordinates": [100.42846, 13.66676], "crs": null}, "properties": {"name": "ถ.บางขุนเทียน ช่วงตรงข้าม ซ.บางขุนเทียน 10", "code": "FL.BBN.06", "district": "บางบอน", "flood": 0, "device_status": "normal", "road": "ถนนบางขุนเทียน", "date_updated": "2025-03-03T07:19:49.348Z"}}, {"type": "Feature", "geometry": {"type": "Point", "coordinates": [100.43026, 13.65622], "crs": null}, "properties": {"name": "ถ.บางขุนเทียน ชายทะเล ช่วงถ.พระรามที่ 2", "code": "FL.BKT.01", "district": "บางขุนเทียน", "flood": 0, "device_status": "normal", "road": "ถนนบางขุนเทียน", "date_updated": "2025-03-03T07:19:54.446Z"}}, {"type": "Feature", "geometry": {"type": "Point", "coordinates": [100.51274, 13.7848], "crs": null}, "properties": {"name": "ถ.นครไชยศรี ช่วงตลาดศรีย่าน", "code": "FL.DST.07", "district": "ดุสิต", "flood": 0, "device_status": "normal", "road": "ถนนนครไชยศรี", "date_updated": "2025-03-03T07:20:01.353Z"}}, {"type": "Feature", "geometry": {"type": "Point", "coordinates": [100.67343, 13.71956], "crs": null}, "properties": {"name": "ถ.อ่อนนุช ช่วง ซ.อ่อนนุช 59", "code": "FL.PWT.04", "district": "ประเวศ", "flood": 0, "device_status": "normal", "road": "ถนนอ่อนนุช", "date_updated": "2025-03-03T07:20:10.427Z"}}, {"type": "Feature", "geometry": {"type": "Point", "coordinates": [100.64656, 13.86732], "crs": null}, "properties": {"name": "ถ.สุขาภิบาล 5 ช่วงแยกวัชรพล", "code": "FL.BKA.11", "district": "บางเขน", "flood": 0, "device_status": "normal", "road": "ถนนสุขาภิบาล", "date_updated": "2025-03-03T07:19:50.748Z"}}, {"type": "Feature", "geometry": {"type": "Point", "coordinates": [100.60186, 13.66106], "crs": null}, "properties": {"name": "ถ.สุขุมวิท ช่วงแบริ่ง", "code": "FL.BNA.04", "district": "บางนา", "flood": 0, "device_status": "normal", "road": "ถนนสุขุมวิท", "date_updated": "2025-03-03T07:19:55.452Z"}}, {"type": "Feature", "geometry": {"type": "Point", "coordinates": [100.56792, 13.77672], "crs": null}, "properties": {"name": "ถ.ประชาสงเคราะห์ ตลาดห้วยขวาง", "code": "FL.DDG.02", "district": "ดินแดง", "flood": 0, "device_status": "normal", "road": "ถนนประชาสงเคราะห์ ", "date_updated": "2025-03-03T07:19:59.023Z"}}, {"type": "Feature", "geometry": {"type": "Point", "coordinates": [100.64576, 13.75448], "crs": null}, "properties": {"name": "ถ.ศรีนครินทร์ หน้าบริษัทกรีนสปอร์ต", "code": "FL.BKP.02", "district": "บางกะปิ", "flood": 0, "device_status": "malfunction", "road": "ถนนศรีนครินทร์", "date_updated": "2025-03-03T07:19:53.048Z"}}, {"type": "Feature", "geometry": {"type": "Point", "coordinates": [100.57424, 13.79421], "crs": null}, "properties": {"name": "ถ.รัชดาภิเษก ช่วงคลองบางซื่อ", "code": "FL.DDG.04", "district": "ดินแดง", "flood": 0, "device_status": "normal", "road": "ถนนรัชดาภิเษก", "date_updated": "2025-03-03T07:19:59.255Z"}}, {"type": "Feature", "geometry": {"type": "Point", "coordinates": [100.43187, 13.67744], "crs": null}, "properties": {"name": "ถ.เอกชัย ช่วง ซ.เอกชัย 62/1", "code": "FL.BBN.03", "district": "บางบอน", "flood": 0, "device_status": "normal", "road": "ถนนเอกชัย", "date_updated": "2025-05-06T09:57:48.502Z"}}, {"type": "Feature", "geometry": {"type": "Point", "coordinates": [100.57265, 13.76955], "crs": null}, "properties": {"name": "ถ.รัชดาภิเษก ช่วงแยกเทียมร่วมมิตร", "code": "FL.DDG.01", "district": "ดินแดง", "flood": 0, "device_status": "normal", "road": "ถนนรัชดาภิเษก", "date_updated": "2025-03-03T07:19:58.892Z"}}, {"type": "Feature", "geometry": {"type": "Point", "coordinates": [100.50703, 13.77899], "crs": null}, "properties": {"name": "ถ.ราชวิถี เชิงสะพานกรุงธนบุรี", "code": "FL.DST.06", "district": "ดุสิต", "flood": 0, "device_status": "normal", "road": "ถนนราชวิถี", "date_updated": "2025-03-03T07:20:01.217Z"}}, {"type": "Feature", "geometry": {"type": "Point", "coordinates": [100.42658, 13.67556], "crs": null}, "properties": {"name": "ถ.บางบอน 1 ช่วงตลาดเอกชัยบางบอน", "code": "FL.BBN.04", "district": "บางบอน", "flood": 0, "device_status": "normal", "road": "ถนนบางบอน", "date_updated": "2025-03-03T07:19:49.037Z"}}, {"type": "Feature", "geometry": {"type": "Point", "coordinates": [100.44231, 13.65694], "crs": null}, "properties": {"name": "ถ.ท่าข้าม ช่วง ซ.ท่าข้าม 3", "code": "FL.BKT.03", "district": "บางขุนเทียน", "flood": 0, "device_status": "normal", "road": "ถนนท่าข้าม", "date_updated": "2025-03-03T07:19:54.683Z"}}, {"type": "Feature", "geometry": {"type": "Point", "coordinates": [100.60236, 13.65821], "crs": null}, "properties": {"name": "ถ.สุขุมวิท ช่วง ซ.แบริ่ง 107", "code": "FL.BNA.06", "district": "บางนา", "flood": 0, "device_status": "normal", "road": "ถนนสุขุมวิท", "date_updated": "2025-03-03T07:19:55.702Z"}}, {"type": "Feature", "geometry": {"type": "Point", "coordinates": [100.53091, 13.70035], "crs": null}, "properties": {"name": "ถ.สาธุประดิษฐ์ ช่วง ซ.สาธุประดิษฐ์ 15", "code": "FL.YNW.02", "district": "ยานนาวา", "flood": 0, "device_status": "normal", "road": "ถนนสาธุประดิษฐ์", "date_updated": "2025-03-03T07:20:19.551Z"}}, {"type": "Feature", "geometry": {"type": "Point", "coordinates": [100.57538, 13.81779], "crs": null}, "properties": {"name": "ถ.รัชดาภิเษก ช่วงตรงข้ามหน้ามหาวิทยาลัยราชภัฏจันทรเกษม", "code": "FL.CTC.12", "district": "จตุจักร", "flood": 0, "device_status": "normal", "road": "ถนนรัชดาภิเษก", "date_updated": "2025-03-03T07:19:58.327Z"}}, {"type": "Feature", "geometry": {"type": "Point", "coordinates": [100.56814, 13.77836], "crs": null}, "properties": {"name": "ถ.ประชาสงเคราะห์ ช่วงหน้าตลาดห้วยขวาง", "code": "FL.DDG.13", "district": "ดินแดง", "flood": 0, "device_status": "normal", "road": "ถนนประชาสงเคราะห์", "date_updated": "2025-05-06T06:58:50.033Z"}}, {"type": "Feature", "geometry": {"type": "Point", "coordinates": [100.43563, 13.67942], "crs": null}, "properties": {"name": "ถ.เอกชัย ช่วงห้างบิ๊กซีบางบอน", "code": "FL.BBN.01", "district": "บางบอน", "flood": 0, "device_status": "normal", "road": "ถนนเอกชัย", "date_updated": "2025-04-21T14:42:15.664Z"}}, {"type": "Feature", "geometry": {"type": "Point", "coordinates": [100.60867, 13.93333], "crs": null}, "properties": {"name": "ถ.วิภาวดีขาออก ช่วงแยก ถ.กำแพงเพชร 6", "code": "FL.DMG.01", "district": "ดอนเมือง", "flood": 0, "device_status": "normal", "road": "ถนนวิภาวดีขาออก", "date_updated": "2025-03-03T07:20:00.579Z"}}, {"type": "Feature", "geometry": {"type": "Point", "coordinates": [100.58717, 13.91452], "crs": null}, "properties": {"name": "ถ.ช่างอากาศอุทิศ ช่วง ซ.ช่างอากาศอุทิศ 7", "code": "FL.DMG.02", "district": "ดอนเมือง", "flood": 0, "device_status": "normal", "road": "ถนนช่างอากาศอุทิศ", "date_updated": "2025-03-03T07:20:00.711Z"}}, {"type": "Feature", "geometry": {"type": "Point", "coordinates": [100.42306, 13.67247], "crs": null}, "properties": {"name": "ถ.เอกชัย ช่วง ซ.เอกชัย 87/1", "code": "FL.BBN.07", "district": "บางบอน", "flood": 0, "device_status": "normal", "road": "ถนนเอกชัย", "date_updated": "2025-03-03T07:19:49.474Z"}}, {"type": "Feature", "geometry": {"type": "Point", "coordinates": [100.51689, 13.7254], "crs": null}, "properties": {"name": "ถ.สุรวงศ์ ช่วงทางด่วน", "code": "FL.BRK.01", "district": "บางรัก", "flood": 0, "device_status": "normal", "road": "ถนนสุรวงศ์", "date_updated": "2025-03-03T07:19:56.236Z"}}, {"type": "Feature", "geometry": {"type": "Point", "coordinates": [100.51112, 13.76854], "crs": null}, "properties": {"name": "ถ.ศรีอยุธยา ลานพระราชวังดุสิต", "code": "FL.DST.03", "district": "ดุสิต", "flood": 0, "device_status": "normal", "road": "ถนนศรีอยุธยา", "date_updated": "2025-03-03T07:20:00.958Z"}}, {"type": "Feature", "geometry": {"type": "Point", "coordinates": [100.61491, 13.76635], "crs": null}, "properties": {"name": "ซ.รามคำแหง 43/1", "code": "FL.WTL.03", "district": "วังทองหลาง", "flood": 0, "device_status": "normal", "road": "ซอยรามคำแหง 43/1", "date_updated": "2025-03-03T07:20:17.052Z"}}, {"type": "Feature", "geometry": {"type": "Point", "coordinates": [100.59725, 13.76142], "crs": null}, "properties": {"name": "ถ.ประดิษฐ์มนูธรรม ช่วงหน้าศูนย์แพทย์พัฒนา", "code": "FL.WTL.07", "district": "วังทองหลาง", "flood": 0, "device_status": "normal", "road": "ถนนประดิษฐ์มนูธรรม", "date_updated": "2025-03-03T07:20:17.649Z"}}, {"type": "Feature", "geometry": {"type": "Point", "coordinates": [100.78604, 13.7343], "crs": null}, "properties": {"name": "ถ.ฉลองกรุง ช่วง ถ.คู่ขนานมอเตอร์เวย์ตัดเข้าถ.ฉลองกรุง", "code": "FL.LKB.07", "district": "ลาดกระบัง", "flood": 0, "device_status": "normal", "road": "ถนนฉลองกรุง", "date_updated": "2025-03-03T07:20:05.081Z"}}, {"type": "Feature", "geometry": {"type": "Point", "coordinates": [100.5967, 13.87642], "crs": null}, "properties": {"name": "ถ.พหลโยธิน ช่วงซอยพหลโยธิน 55/1", "code": "FL.BKA.02", "district": "บางเขน", "flood": 0, "device_status": "normal", "road": "ถนนพหลโยธิน", "date_updated": "2025-03-03T07:19:49.597Z"}}, {"type": "Feature", "geometry": {"type": "Point", "coordinates": [100.6065, 13.89022], "crs": null}, "properties": {"name": "ถ.เทพรักษ์ ช่วงบิ๊กซีสะพานใหม่", "code": "FL.BKA.06", "district": "บางเขน", "flood": 0, "device_status": "normal", "road": "ถนนเทพรักษ์", "date_updated": "2025-03-03T07:19:50.122Z"}}, {"type": "Feature", "geometry": {"type": "Point", "coordinates": [100.51071, 13.77732], "crs": null}, "properties": {"name": "ถ.ราชวิถี หน้ามหาวิทยาลัยสวนดุสิต", "code": "FL.DST.08", "district": "ดุสิต", "flood": 0, "device_status": "normal", "road": "ถนนราชวิถี", "date_updated": "2025-03-03T07:20:01.473Z"}}, {"type": "Feature", "geometry": {"type": "Point", "coordinates": [100.56524, 13.74857], "crs": null}, "properties": {"name": "ถ.เพชรบุรีตัดใหม่ ช่วงสิงห์คอมเพล็กซ์", "code": "FL.HKG.01", "district": "ห้วยขวาง", "flood": 0, "device_status": "malfunction", "road": "ถนนเพชรบุรีตัดใหม่ ", "date_updated": "2025-03-03T07:20:01.629Z"}}, {"type": "Feature", "geometry": {"type": "Point", "coordinates": [100.62312, 13.82882], "crs": null}, "properties": {"name": "ถ.สุคนธสวัสดิ์ ช่วง ซ.สุคนธสวัสดิ์ 15", "code": "FL.LPW.01", "district": "ลาดพร้าว", "flood": 0, "device_status": "normal", "road": "ถนนสุคนธสวัสดิ์", "date_updated": "2025-03-03T07:20:05.580Z"}}, {"type": "Feature", "geometry": {"type": "Point", "coordinates": [100.59172, 13.82517], "crs": null}, "properties": {"name": "ถ.ลาดพร้าววังหิน ช่วง ซ.ลาดพร้าววังหิน 64", "code": "FL.LPW.07", "district": "ลาดพร้าว", "flood": 0, "device_status": "normal", "road": "ถนนลาดพร้าววังหิน", "date_updated": "2025-03-03T07:20:06.361Z"}}, {"type": "Feature", "geometry": {"type": "Point", "coordinates": [100.48657, 13.72731], "crs": null}, "properties": {"name": "ถ.อินทรพิทักษ์ ช่วงหน้าสถานีดับเพลิงธนบุรี", "code": "FL.TBR.01", "district": "ธนบุรี", "flood": 0, "device_status": "normal", "road": "ถนนอินทรพิทักษ์", "date_updated": "2025-03-03T07:20:16.000Z"}}, {"type": "Feature", "geometry": {"type": "Point", "coordinates": [100.57365, 13.77844], "crs": null}, "properties": {"name": "อ.ห้วยขวาง(ขาเข้า)", "code": "TN.HKG.02(IN)", "district": "ห้วยขวาง", "flood": 0, "device_status": "normal", "road": "ถนนรัชดาภิเษก", "date_updated": "2025-03-03T07:20:20.781Z"}}, {"type": "Feature", "geometry": {"type": "Point", "coordinates": [100.57565, 13.81875], "crs": null}, "properties": {"name": "ถ.รัชดาภิเษก ช่วงหน้ามหาวิทยาลัยราชภัฏจันทรเกษม", "code": "FL.CTC.11", "district": "จตุจักร", "flood": 0, "device_status": "normal", "road": "ถนนรัชดาภิเษก", "date_updated": "2025-03-03T07:19:58.207Z"}}, {"type": "Feature", "geometry": {"type": "Point", "coordinates": [100.50935, 13.77218], "crs": null}, "properties": {"name": "ถ.ราชสีมา แยกอู่ทองนอก", "code": "FL.DST.04", "district": "ดุสิต", "flood": 0, "device_status": "normal", "road": "ถนนราชสีมา", "date_updated": "2025-03-03T07:20:01.090Z"}}, {"type": "Feature", "geometry": {"type": "Point", "coordinates": [100.62963, 13.85652], "crs": null}, "properties": {"name": "ถ.รามอินทรา ช่วงแฟลตการเคหะรามอินทรา กม.4", "code": "FL.BKA.10", "district": "บางเขน", "flood": 0, "device_status": "normal", "road": "ถนนรามอินทรา", "date_updated": "2025-03-03T07:19:50.641Z"}}, {"type": "Feature", "geometry": {"type": "Point", "coordinates": [100.57669, 13.88717], "crs": null}, "properties": {"name": "ถ.แจ้งวัฒนะ ช่วงตรงข้ามบริษัท โทรคมนาคมแห่งชาติ จำกัด (มหาชน)", "code": "FL.LSI.07", "district": "หลักสี่", "flood": 0, "device_status": "normal", "road": "ถนนแจ้งวัฒนะ", "date_updated": "2025-03-03T07:20:07.297Z"}}, {"type": "Feature", "geometry": {"type": "Point", "coordinates": [100.64323, 13.87795], "crs": null}, "properties": {"name": "ถ.วัชรพล ช่วง ซ.วัชรพล 1/9", "code": "FL.BKA.09", "district": "บางเขน", "flood": 0, "device_status": "normal", "road": "ถนนวัชรพล", "date_updated": "2025-03-03T07:19:50.514Z"}}, {"type": "Feature", "geometry": {"type": "Point", "coordinates": [100.37549, 13.71857], "crs": null}, "properties": {"name": "ถ.หมู่บ้านเศรษฐกิจ ช่วงวงเวียนอู่ทอง", "code": "FL.BKE.05", "district": "บางแค", "flood": 0, "device_status": "normal", "road": "ถนนหมู่บ้านเศรษฐกิจ", "date_updated": "2025-03-03T07:19:51.405Z"}}, {"type": "Feature", "geometry": {"type": "Point", "coordinates": [100.64443, 13.66866], "crs": null}, "properties": {"name": "ถ.ศรีนครินทร์ ช่วงวัดศรีเอี่ยม", "code": "FL.BNA.02", "district": "บางนา", "flood": 0, "device_status": "normal", "road": "ถนนศรีนครินทร์", "date_updated": "2025-03-03T07:19:55.201Z"}}, {"type": "Feature", "geometry": {"type": "Point", "coordinates": [100.57861, 13.91838], "crs": null}, "properties": {"name": "ถ.ช่างอากาศอุทิศ ช่วง ซ.ช่างอากาศอุทิศ 15", "code": "FL.DMG.03", "district": "ดอนเมือง", "flood": 0, "device_status": "normal", "road": "ถนนช่างอากาศอุทิศ", "date_updated": "2025-03-03T07:20:00.817Z"}}, {"type": "Feature", "geometry": {"type": "Point", "coordinates": [100.57916, 13.77749], "crs": null}, "properties": {"name": "ถ.ประชาราษฎร์บำเพ็ญ ช่วง ซ.ประชาราษฎร์บำเพ็ญ 14", "code": "FL.HKG.03", "district": "ห้วยขวาง", "flood": 0, "device_status": "normal", "road": "ถนนประชาราษฎร์บำเพ็ญ", "date_updated": "2025-03-03T07:20:01.897Z"}}, {"type": "Feature", "geometry": {"type": "Point", "coordinates": [100.57755, 13.78958], "crs": null}, "properties": {"name": "ถ.สุทธิสารวินิจฉัย ช่วงหน้าโรงพยาบาลโกลเด้นเยียส์", "code": "FL.HKG.05", "district": "ห้วยขวาง", "flood": 0, "device_status": "normal", "road": "ถนนสุทธิสารวินิจฉัย", "date_updated": "2025-03-03T07:20:02.165Z"}}, {"type": "Feature", "geometry": {"type": "Point", "coordinates": [100.63847, 13.76972], "crs": null}, "properties": {"name": "ถ.ลาดพร้าว แม็คโคร", "code": "FL.BKP.01", "district": "บางกะปิ", "flood": 0, "device_status": "normal", "road": "ถนนลาดพร้าว", "date_updated": "2025-03-03T07:19:52.908Z"}}, {"type": "Feature", "geometry": {"type": "Point", "coordinates": [100.65482, 13.82104], "crs": null}, "properties": {"name": "ถ.นวมินทร์ ช่วงซอย 135", "code": "FL.BKM.02", "district": "บึงกุ่ม", "flood": 0, "device_status": "normal", "road": "ถนนนวมินทร์", "date_updated": "2025-03-03T07:19:52.053Z"}}, {"type": "Feature", "geometry": {"type": "Point", "coordinates": [100.53565, 13.75748], "crs": null}, "properties": {"name": "ถ.ศรีอยุธยา ช่วงถนนพญาไท", "code": "FL.RTW.01", "district": "ราชเทวี", "flood": 0, "device_status": "normal", "road": "ถนนศรีอยุธยา", "date_updated": "2025-03-03T07:20:11.752Z"}}, {"type": "Feature", "geometry": {"type": "Point", "coordinates": [100.64679, 13.67782], "crs": null}, "properties": {"name": "ถ.เฉลิมพระเกียรติ ร.9 ช่วงแยกศรีอุดม", "code": "FL.PWT.02", "district": "ประเวศ", "flood": 0, "device_status": "normal", "road": "ถนนศรีนครินทร์", "date_updated": "2025-03-03T07:20:10.176Z"}}, {"type": "Feature", "geometry": {"type": "Point", "coordinates": [100.65827, 13.82914], "crs": null}, "properties": {"name": "ถ.นวมินทร์ ช่วง ซ.นวมินทร์ 155", "code": "FL.BKM.04", "district": "บึงกุ่ม", "flood": 0, "device_status": "normal", "road": "ถนนนวมินทร์", "date_updated": "2025-03-03T07:19:52.327Z"}}, {"type": "Feature", "geometry": {"type": "Point", "coordinates": [100.58902, 13.86235], "crs": null}, "properties": {"name": "ถ.พหลโยธิน ช่วงหน้ากรมทหาราบที่ 11 ประตู2", "code": "FL.BKA.05", "district": "บางเขน", "flood": 0, "device_status": "normal", "road": "ถนนพหลโยธิน", "date_updated": "2025-03-03T07:19:49.983Z"}}, {"type": "Feature", "geometry": {"type": "Point", "coordinates": [100.64984, 13.80982], "crs": null}, "properties": {"name": "ถ.ประเสริฐมนูกิจ ช่วงแยกนวมินทร์", "code": "FL.BKM.05", "district": "บึงกุ่ม", "flood": 0, "device_status": "normal", "road": "ถนนประเสริฐมนูกิจ", "date_updated": "2025-03-03T07:19:52.440Z"}}, {"type": "Feature", "geometry": {"type": "Point", "coordinates": [100.56789, 13.76336], "crs": null}, "properties": {"name": "ถ.รัชดาภิเษก สถานฑูตจีน", "code": "FL.DDG.05", "district": "ดินแดง", "flood": 0, "device_status": "normal", "road": "ถนนรัชดาภิเษก", "date_updated": "2025-03-03T07:19:59.367Z"}}, {"type": "Feature", "geometry": {"type": "Point", "coordinates": [100.56721, 13.78278], "crs": null}, "properties": {"name": "ถ.ประชาสุข ซ.อินทามระ 53", "code": "FL.DDG.06", "district": "ดินแดง", "flood": 0, "device_status": "normal", "road": "ถนนประชาสุข", "date_updated": "2025-03-03T07:19:59.495Z"}}, {"type": "Feature", "geometry": {"type": "Point", "coordinates": [100.54802, 13.7894], "crs": null}, "properties": {"name": "ถ.พหลโยธิน ช่วงสะพานควาย", "code": "FL.PYT.02", "district": "พญาไท", "flood": 0, "device_status": "normal", "road": "ถนนพหลโยธิน", "date_updated": "2025-03-03T07:20:10.648Z"}}, {"type": "Feature", "geometry": {"type": "Point", "coordinates": [100.54766, 13.78994], "crs": null}, "properties": {"name": "ถ.ประดิพัทธ์ ช่วงสะพานควาย", "code": "FL.PYT.06", "district": "พญาไท", "flood": 0, "device_status": "normal", "road": "ถนนประดิพัทธ์", "date_updated": "2025-03-03T07:20:11.165Z"}}, {"type": "Feature", "geometry": {"type": "Point", "coordinates": [100.59125, 13.87858], "crs": null}, "properties": {"name": "ถ.แจ้งวัฒนะ ช่วงหน้ามหาวิทยาลัยหน้าราชภัฏพระนคร", "code": "FL.BKA.08", "district": "บางเขน", "flood": 0, "device_status": "normal", "road": "ถนนแจ้งวัฒนะ", "date_updated": "2025-03-03T07:19:50.384Z"}}, {"type": "Feature", "geometry": {"type": "Point", "coordinates": [100.55856, 13.71716], "crs": null}, "properties": {"name": "ถ.สุนทรโกษา แยก ณ ระนอง", "code": "FL.KTY.05", "district": "คลองเตย", "flood": 0, "device_status": "normal", "road": "ถนนสุนทรโกษา", "date_updated": "2025-03-03T07:20:03.439Z"}}, {"type": "Feature", "geometry": {"type": "Point", "coordinates": [100.46134, 13.78745], "crs": null}, "properties": {"name": "ถ.เลียบทางรถไฟสายใต้ฝั่ง(ขาออก) ช่วงวงเวียนชัยพฤกษ์", "code": "FL.TLC.02", "district": "ตลิ่งชัน", "flood": 0, "device_status": "normal", "road": "ถนนเลียบทางรถไฟสายใต้ฝั่ง(ขาออก)", "date_updated": "2025-03-03T07:20:16.694Z"}}, {"type": "Feature", "geometry": {"type": "Point", "coordinates": [100.6477, 13.76685], "crs": null}, "properties": {"name": "ถ.นวมินทร์ ช่วงแยกบางกะปิ", "code": "FL.BKP.03", "district": "บางกะปิ", "flood": 0, "device_status": "normal", "road": "ถนนนวมินทร์", "date_updated": "2025-03-03T07:19:53.175Z"}}, {"type": "Feature", "geometry": {"type": "Point", "coordinates": [100.60715, 13.67279], "crs": null}, "properties": {"name": "ถ.บางนา-ตราด (ขาเข้า) ช่วงแยกบางนา", "code": "FL.BNA.07", "district": "บางนา", "flood": 0, "device_status": "normal", "road": "ถนนบางนา-ตราด", "date_updated": "2025-03-03T07:19:55.849Z"}}, {"type": "Feature", "geometry": {"type": "Point", "coordinates": [100.55203, 13.80304], "crs": null}, "properties": {"name": "ถ.กำแพงเพชร 3", "code": "FL.CTC.02", "district": "จตุจักร", "flood": 0, "device_status": "normal", "road": "ถนนกำแพงเพชร 3", "date_updated": "2025-03-03T07:19:57.017Z"}}, {"type": "Feature", "geometry": {"type": "Point", "coordinates": [100.61256, 13.7542], "crs": null}, "properties": {"name": "ถ.รามคำแหง ช่วง ซ.รามคำแหง 20", "code": "FL.BKP.07", "district": "บางกะปิ", "flood": 0, "device_status": "normal", "road": "ถนนรามคำแหง", "date_updated": "2025-03-03T07:19:53.693Z"}}, {"type": "Feature", "geometry": {"type": "Point", "coordinates": [100.62168, 13.75345], "crs": null}, "properties": {"name": "ถ.หัวหมาก ช่วง ซ.รามคำแหง 24 แยก 18", "code": "FL.BKP.10", "district": "บางกะปิ", "flood": 0, "device_status": "normal", "road": "ถนนหัวหมาก", "date_updated": "2025-03-03T07:19:54.071Z"}}, {"type": "Feature", "geometry": {"type": "Point", "coordinates": [100.53287, 13.72768], "crs": null}, "properties": {"name": "ถ.สีลม ช่วงถนนคอนแวนต์", "code": "FL.BRK.02", "district": "บางรัก", "flood": 0, "device_status": "normal", "road": "ถนนสีลม", "date_updated": "2025-03-03T07:19:56.364Z"}}, {"type": "Feature", "geometry": {"type": "Point", "coordinates": [100.5752, 13.83882], "crs": null}, "properties": {"name": "ถ.พหลโยธิน ช่วงแยกเกษตร", "code": "FL.CTC.03", "district": "จตุจักร", "flood": 0, "device_status": "normal", "road": "ถนนพหลโยธิน", "date_updated": "2025-03-03T07:19:57.157Z"}}, {"type": "Feature", "geometry": {"type": "Point", "coordinates": [100.62051, 13.75977], "crs": null}, "properties": {"name": "ถ.รามคำแหง ช่วงตรงข้าม ซ.รามคำแหง 53", "code": "FL.BKP.04", "district": "บางกะปิ", "flood": 0, "device_status": "normal", "road": "ถนนรามคำแหง", "date_updated": "2025-03-03T07:19:53.335Z"}}, {"type": "Feature", "geometry": {"type": "Point", "coordinates": [100.53727, 13.72578], "crs": null}, "properties": {"name": "ถ.ศาลาแดง ช่วง ซ.ศาลาแดง 1/1", "code": "FL.BRK.03", "district": "บางรัก", "flood": 0, "device_status": "normal", "road": "ถนนศาลาแดง", "date_updated": "2025-03-03T07:19:56.504Z"}}, {"type": "Feature", "geometry": {"type": "Point", "coordinates": [100.6168, 13.75845], "crs": null}, "properties": {"name": "ถ.รามคำแหง ช่วงตรงข้าม ซ.รามคำแหง 43", "code": "FL.BKP.05", "district": "บางกะปิ", "flood": 0, "device_status": "normal", "road": "ถนนรามคำแหง", "date_updated": "2025-03-03T07:19:53.474Z"}}, {"type": "Feature", "geometry": {"type": "Point", "coordinates": [100.39995, 13.63008], "crs": null}, "properties": {"name": "ถ.บางกระดี่ ช่วงตรงข้าม ซ.บางกระดี่ 3", "code": "FL.BKT.02", "district": "บางขุนเทียน", "flood": 0, "device_status": "normal", "road": "ถนนบางกระดี่", "date_updated": "2025-03-03T07:19:54.555Z"}}, {"type": "Feature", "geometry": {"type": "Point", "coordinates": [100.55668, 13.89468], "crs": null}, "properties": {"name": "ถ.แจ้งวัฒนะขาเข้า (โลตัส)", "code": "FL.LSI.04", "district": "หลักสี่", "flood": 0, "device_status": "normal", "road": "ถนนแจ้งวัฒนะ", "date_updated": "2025-03-03T07:20:06.865Z"}}, {"type": "Feature", "geometry": {"type": "Point", "coordinates": [100.57602, 13.84072], "crs": null}, "properties": {"name": "ถ.พหลโยธิน ช่วงหน้ามหาวิทยาลัยเกษตรศาสตร์", "code": "FL.CTC.13", "district": "จตุจักร", "flood": 0, "device_status": "normal", "road": "ถนนพหลโยธิน", "date_updated": "2025-03-03T07:19:58.472Z"}}, {"type": "Feature", "geometry": {"type": "Point", "coordinates": [100.55161, 13.82795], "crs": null}, "properties": {"name": "ถ.กำแพงเพชร 2 ช่วงหน้าสถานีขนส่งนครชัยแอร์หมอชิต", "code": "FL.CTC.14", "district": "จตุจักร", "flood": 0, "device_status": "normal", "road": "ถนนกำแพงเพชร", "date_updated": "2025-03-03T07:19:58.598Z"}}, {"type": "Feature", "geometry": {"type": "Point", "coordinates": [100.58343, 13.83419], "crs": null}, "properties": {"name": "ถ.เสนานิคม 1 ช่วงเสนานิคม 1 ซ.15", "code": "FL.CTC.15", "district": "จตุจักร", "flood": 0, "device_status": "normal", "road": "ถนนเสนานิคม", "date_updated": "2025-03-03T07:19:58.726Z"}}, {"type": "Feature", "geometry": {"type": "Point", "coordinates": [100.55712, 13.75834], "crs": null}, "properties": {"name": "ถ.ดินแดง ซอยสุทธิพร 2", "code": "FL.DDG.03", "district": "ดินแดง", "flood": 0, "device_status": "malfunction", "road": "ถนนดินแดง", "date_updated": "2025-03-03T07:19:59.132Z"}}, {"type": "Feature", "geometry": {"type": "Point", "coordinates": [100.65096, 13.79619], "crs": null}, "properties": {"name": "ถ.นวมินทร์ ช่วงซอย 46 (สันติอโศก)", "code": "FL.BKM.01", "district": "บึงกุ่ม", "flood": 0, "device_status": "normal", "road": "ถนนนวมินทร์", "date_updated": "2025-03-03T07:19:51.939Z"}}, {"type": "Feature", "geometry": {"type": "Point", "coordinates": [100.5515, 13.79833], "crs": null}, "properties": {"name": "ถ.พหลโยธิน หน้ากรมการขนส่งทางบก", "code": "FL.CTC.05", "district": "จตุจักร", "flood": 0, "device_status": "normal", "road": "ถนนพหลโยธิน", "date_updated": "2025-03-03T07:19:57.420Z"}}, {"type": "Feature", "geometry": {"type": "Point", "coordinates": [100.5754, 13.81651], "crs": null}, "properties": {"name": "ถ.รัชดาภิเษก ช่วงหน้าศาลอาญา", "code": "FL.CTC.08", "district": "จตุจักร", "flood": 0, "device_status": "normal", "road": "ถนนรัชดาภิเษก", "date_updated": "2025-03-03T07:19:57.827Z"}}, {"type": "Feature", "geometry": {"type": "Point", "coordinates": [100.56866, 13.82662], "crs": null}, "properties": {"name": "ถ.รัชดาภิเษก ช่วงหน้าสถานีตำรวจนครบาลพหลโยธิน", "code": "FL.CTC.10", "district": "จตุจักร", "flood": 0, "device_status": "normal", "road": "ถนนรัชดาภิเษก", "date_updated": "2025-03-03T07:19:58.080Z"}}, {"type": "Feature", "geometry": {"type": "Point", "coordinates": [100.56773, 13.77516], "crs": null}, "properties": {"name": "ถ.ประชาสงเคราะห์ ช่วง ซ.เปรมสมบัติแยก 33", "code": "FL.DDG.09", "district": "ดินแดง", "flood": 0, "device_status": "normal", "road": "ถนนประชาสงเคราะห์", "date_updated": "2025-03-03T07:19:59.919Z"}}, {"type": "Feature", "geometry": {"type": "Point", "coordinates": [100.56708, 13.78576], "crs": null}, "properties": {"name": "ถ.ประชาสุข ช่วง ซ.อินทามระ 34", "code": "FL.DDG.10", "district": "ดินแดง", "flood": 0, "device_status": "normal", "road": "ถนนประชาสุข", "date_updated": "2025-03-03T07:20:00.063Z"}}, {"type": "Feature", "geometry": {"type": "Point", "coordinates": [100.55681, 13.76531], "crs": null}, "properties": {"name": "ถ.ประชาสงเคราะห์ ช่วง ซ.ประชาสงเคราะห์ 9", "code": "FL.DDG.11", "district": "ดินแดง", "flood": 0, "device_status": "normal", "road": "ถนนประชาสงเคราะห์", "date_updated": "2025-03-03T07:20:00.204Z"}}, {"type": "Feature", "geometry": {"type": "Point", "coordinates": [100.55011, 13.76299], "crs": null}, "properties": {"name": "ถ.ดินแดง ช่วงทางเข้าโรงเรียนพิบูลประชาสรรค์", "code": "FL.DDG.12", "district": "ดินแดง", "flood": 0, "device_status": "normal", "road": "ถนนดินแดง", "date_updated": "2025-03-03T07:20:00.317Z"}}, {"type": "Feature", "geometry": {"type": "Point", "coordinates": [100.57979, 13.77666], "crs": null}, "properties": {"name": "ถ.ประชาอุทิศ ช่วงตรงข้ามสำนักงานเขตห้วยขวาง", "code": "FL.HKG.02", "district": "ห้วยขวาง", "flood": 0, "device_status": "normal", "road": "ถนนประชาอุทิศ", "date_updated": "2025-03-03T07:20:01.770Z"}}, {"type": "Feature", "geometry": {"type": "Point", "coordinates": [100.56792, 13.89032], "crs": null}, "properties": {"name": "ถ.แจ้งวัฒนะ หน้าศาลปกครองกลาง", "code": "FL.LSI.03", "district": "หลักสี่", "flood": 0, "device_status": "normal", "road": "ถนนแจ้งวัฒนะ", "date_updated": "2025-03-03T07:20:06.764Z"}}, {"type": "Feature", "geometry": {"type": "Point", "coordinates": [100.54611, 13.84029], "crs": null}, "properties": {"name": "ถ.เทศบาลสงเคราะห์ ช่วงตลาดประชานิเวศน์", "code": "FL.CTC.04", "district": "จตุจักร", "flood": 0, "device_status": "normal", "road": "ถนนเทศบาลสงเคราะห์", "date_updated": "2025-03-03T07:19:57.297Z"}}, {"type": "Feature", "geometry": {"type": "Point", "coordinates": [100.55451, 13.77658], "crs": null}, "properties": {"name": "ถ.วิภาวดี(ขาออก) ช่วงกรมทหารราบที่ 1", "code": "FL.DDG.07", "district": "ดินแดง", "flood": 0, "device_status": "normal", "road": "ถนนวิภาวดี(ขาออก)", "date_updated": "2025-03-03T07:19:59.667Z"}}, {"type": "Feature", "geometry": {"type": "Point", "coordinates": [100.55123, 13.7624], "crs": null}, "properties": {"name": "ถ.ดินแดง ช่วงโรงเรียนพิบูลประชาสรรค์", "code": "FL.DDG.08", "district": "ดินแดง", "flood": 0, "device_status": "malfunction", "road": "ถนนดินแดง", "date_updated": "2025-03-03T07:19:59.794Z"}}, {"type": "Feature", "geometry": {"type": "Point", "coordinates": [100.56986, 13.71285], "crs": null}, "properties": {"name": "ถ.อาจณรงค์ ช่วงแฟลตการเคหะคลองเตย", "code": "FL.KTY.07", "district": "คลองเตย", "flood": 0, "device_status": "normal", "road": "ถนนอาจณรงค์", "date_updated": "2025-03-03T07:20:03.690Z"}}, {"type": "Feature", "geometry": {"type": "Point", "coordinates": [100.54166, 13.77169], "crs": null}, "properties": {"name": "ถ.พหลโยธิน ช่วงหน้าสนามเป้า", "code": "FL.PYT.01", "district": "พญาไท", "flood": 0, "device_status": "normal", "road": "ถนนพหลโยธิน", "date_updated": "2025-03-03T07:20:10.522Z"}}, {"type": "Feature", "geometry": {"type": "Point", "coordinates": [100.54707, 13.78617], "crs": null}, "properties": {"name": "ถ.พหลโยธิน ช่วงตรงข้าม ซ.พหลโยธิน 9", "code": "FL.PYT.08", "district": "พญาไท", "flood": 0, "device_status": "normal", "road": "ถนนพหลโยธิน", "date_updated": "2025-03-03T07:20:11.395Z"}}, {"type": "Feature", "geometry": {"type": "Point", "coordinates": [100.54072, 13.76373], "crs": null}, "properties": {"name": "ถ.ราชวิถี ช่วงสวนสันติภาพ", "code": "FL.RTW.06", "district": "ราชเทวี", "flood": 0, "device_status": "normal", "road": "ถนนราชวิถี", "date_updated": "2025-03-03T07:20:12.415Z"}}, {"type": "Feature", "geometry": {"type": "Point", "coordinates": [100.52494, 13.76043], "crs": null}, "properties": {"name": "ถ.พระรามที่ 6 ช่วงกองการพัสดุ กรมทางหลวง", "code": "FL.RTW.12", "district": "ราชเทวี", "flood": 0, "device_status": "normal", "road": "ถนนพระราม 6", "date_updated": "2025-03-03T07:20:13.208Z"}}, {"type": "Feature", "geometry": {"type": "Point", "coordinates": [100.60381, 13.66619], "crs": null}, "properties": {"name": "ถ.สุขุมวิท ช่วงกรมอุตุนิยมวิทยา", "code": "FL.BNA.01", "district": "บางนา", "flood": 0, "device_status": "normal", "road": "ถนนสุขุมวิท", "date_updated": "2025-03-03T07:19:55.078Z"}}, {"type": "Feature", "geometry": {"type": "Point", "coordinates": [100.57395, 13.84041], "crs": null}, "properties": {"name": "ถ.งามวงศ์วาน ช่วงแยกเกษตร", "code": "FL.CTC.06", "district": "จตุจักร", "flood": 0, "device_status": "normal", "road": "ถนนงามวงค์วาน", "date_updated": "2025-03-03T07:19:57.529Z"}}, {"type": "Feature", "geometry": {"type": "Point", "coordinates": [100.61441, 13.75642], "crs": null}, "properties": {"name": "ถ.รามคำแหง ช่วง ซ.รามคำแหง 33", "code": "FL.BKP.09", "district": "บางกะปิ", "flood": 0, "device_status": "normal", "road": "ถนนรามคำแหง", "date_updated": "2025-03-03T07:19:53.945Z"}}, {"type": "Feature", "geometry": {"type": "Point", "coordinates": [100.56848, 13.72014], "crs": null}, "properties": {"name": "ซ.สุขุมวิท26 ช่วงซ.อรรถกระวี 3", "code": "FL.KTY.08", "district": "คลองเตย", "flood": 0, "device_status": "normal", "road": "ซอยสุขุมวิท26", "date_updated": "2025-03-03T07:20:03.830Z"}}, {"type": "Feature", "geometry": {"type": "Point", "coordinates": [100.61317, 13.77231], "crs": null}, "properties": {"name": "ถ.อินทราภรณ์ ช่วง ซ.รามคำแหง 43/1", "code": "FL.WTL.10", "district": "วังทองหลาง", "flood": 0, "device_status": "normal", "road": "ถนนอินทราภรณ์", "date_updated": "2025-03-03T07:20:18.088Z"}}, {"type": "Feature", "geometry": {"type": "Point", "coordinates": [100.51292, 13.74621], "crs": null}, "properties": {"name": "ถ.หลวง ช่วงวัดเทพศิรินทราวาส", "code": "FL.PPS.02", "district": "ป้อมปราบศัตรูพ่าย", "flood": 0, "device_status": "normal", "road": "ถนนหลวง", "date_updated": "2025-03-03T07:20:08.799Z"}}, {"type": "Feature", "geometry": {"type": "Point", "coordinates": [100.59664, 13.80785], "crs": null}, "properties": {"name": "ถ.โชคชัย 4 ช่วง ซ.โชคชัย 28", "code": "FL.LPW.05", "district": "ลาดพร้าว", "flood": 0, "device_status": "normal", "road": "ถนนโชคชัย", "date_updated": "2025-03-03T07:20:06.100Z"}}, {"type": "Feature", "geometry": {"type": "Point", "coordinates": [100.54605, 13.78331], "crs": null}, "properties": {"name": "ถ.พหลโยธิน ช่วงซอยสายลม", "code": "FL.PYT.05", "district": "พญาไท", "flood": 0, "device_status": "normal", "road": "ถนนพหลโยธิน", "date_updated": "2025-03-03T07:20:11.035Z"}}, {"type": "Feature", "geometry": {"type": "Point", "coordinates": [100.52524, 13.75988], "crs": null}, "properties": {"name": "ถ.พระรามที่ 6 ช่วงพิพิธภัณฑ์กรมทางหลวง", "code": "FL.RTW.11", "district": "ราชเทวี", "flood": 0, "device_status": "normal", "road": "ถนนพระราม 6", "date_updated": "2025-03-03T07:20:13.067Z"}}, {"type": "Feature", "geometry": {"type": "Point", "coordinates": [100.6488, 13.73266], "crs": null}, "properties": {"name": "ถ.พัฒนาการ ช่วง ซ.พัฒนาการ 53", "code": "FL.SLG.06", "district": "สวนหลวง", "flood": 0, "device_status": "normal", "road": "ถนนพัฒนาการ", "date_updated": "2025-03-03T07:20:14.081Z"}}, {"type": "Feature", "geometry": {"type": "Point", "coordinates": [100.56265, 13.73562], "crs": null}, "properties": {"name": "ถ.สุขุมวิท ช่วง ซ.สุขุมวิท 23", "code": "FL.WTN.09", "district": "วัฒนา", "flood": 0, "device_status": "normal", "road": "ถนนสุขุมวิท", "date_updated": "2025-03-03T07:20:19.222Z"}}, {"type": "Feature", "geometry": {"type": "Point", "coordinates": [100.34312, 13.68702], "crs": null}, "properties": {"name": "ถ.มาเจริญ ช่วงตรงข้ามหมู่บ้านชวนชื่นเพชรเกษม 81", "code": "FL.NKM.02", "district": "หนองแขม", "flood": 0, "device_status": "normal", "road": "ถนนมาเจริญ", "date_updated": "2025-03-03T07:20:07.961Z"}}, {"type": "Feature", "geometry": {"type": "Point", "coordinates": [100.56007, 13.74944], "crs": null}, "properties": {"name": "ถ.เพชรบุรี ช่วงหน้าดอนบอสโก", "code": "FL.RTW.02", "district": "ราชเทวี", "flood": 0, "device_status": "malfunction", "road": "ถนนเพชรบุรี ", "date_updated": "2025-03-03T07:20:11.893Z"}}, {"type": "Feature", "geometry": {"type": "Point", "coordinates": [100.55, 13.81272], "crs": null}, "properties": {"name": "ถ.กำแพงเพชร 2 ช่วงตรงข้ามสถานีขนส่งหมอชิต 2", "code": "FL.CTC.09", "district": "จตุจักร", "flood": 0, "device_status": "normal", "road": "ถนนกำแพงเพชร", "date_updated": "2025-03-03T07:19:57.951Z"}}, {"type": "Feature", "geometry": {"type": "Point", "coordinates": [100.73718, 13.7223], "crs": null}, "properties": {"name": "ถ.ลาดกระบัง ช่วง ซ.ลาดกระบัง 30/1", "code": "FL.LKB.01", "district": "ลาดกระบัง", "flood": 0, "device_status": "normal", "road": "ถนนลาดกระบัง", "date_updated": "2025-03-03T07:20:04.297Z"}}, {"type": "Feature", "geometry": {"type": "Point", "coordinates": [100.52861, 13.74646], "crs": null}, "properties": {"name": "ถ.พระรามที่ 1 ช่วงสนามกีฬาแห่งชาติ", "code": "FL.PTW.01", "district": "ปทุมวัน", "flood": 0, "device_status": "malfunction", "road": "ถนนพระราม 1 ", "date_updated": "2025-03-03T07:20:09.472Z"}}, {"type": "Feature", "geometry": {"type": "Point", "coordinates": [100.53852, 13.75705], "crs": null}, "properties": {"name": "ถ.ศรีอยุธยา ช่วงโรงเรียนศรีอยุธยา", "code": "FL.RTW.10", "district": "ราชเทวี", "flood": 0, "device_status": "normal", "road": "ถนนศรีอยุธยา", "date_updated": "2025-03-03T07:20:12.912Z"}}, {"type": "Feature", "geometry": {"type": "Point", "coordinates": [100.64229, 13.74002], "crs": null}, "properties": {"name": "ถ.ศรีนครินทร์ ช่วง ถ.กำแพงเพชร 7", "code": "FL.SLG.05", "district": "สวนหลวง", "flood": 0, "device_status": "normal", "road": "ถนนศรีนครินทร์", "date_updated": "2025-03-03T07:20:13.970Z"}}, {"type": "Feature", "geometry": {"type": "Point", "coordinates": [100.53406, 13.72283], "crs": null}, "properties": {"name": "ถ.สาทรใต้ ช่วง ซ.สาทร7", "code": "FL.STN.09", "district": "สาทร", "flood": 0, "device_status": "normal", "road": "ถนนสาทรใต้", "date_updated": "2025-03-03T07:20:15.755Z"}}, {"type": "Feature", "geometry": {"type": "Point", "coordinates": [100.39139, 13.70927], "crs": null}, "properties": {"name": "ถ.เพชรเกษม ช่วงซอยวัดม่วง", "code": "FL.BKE.02", "district": "บางแค", "flood": 0, "device_status": "normal", "road": "ถนนเพชรเกษม", "date_updated": "2025-03-03T07:19:50.994Z"}}, {"type": "Feature", "geometry": {"type": "Point", "coordinates": [100.59028, 13.71295], "crs": null}, "properties": {"name": "ถ.พระราม 4 ช่วงกล้วยน้ำไท", "code": "FL.KTY.04", "district": "คลองเตย", "flood": 0, "device_status": "normal", "road": "ถนนพระราม 4", "date_updated": "2025-03-03T07:20:03.310Z"}}, {"type": "Feature", "geometry": {"type": "Point", "coordinates": [100.58, 13.71063], "crs": null}, "properties": {"name": "ถ.อาจณรงค์ ช่วงสถานีตรวจสอบสินค้า 3 ท่าเรือ", "code": "FL.KTY.11", "district": "คลองเตย", "flood": 0, "device_status": "malfunction", "road": "ถนนอาจณรงค์", "date_updated": "2025-03-03T07:20:04.205Z"}}, {"type": "Feature", "geometry": {"type": "Point", "coordinates": [100.61928, 13.78065], "crs": null}, "properties": {"name": "ถ.ลาดพร้าว ช่วง ซ.ลาดพร้าว 89", "code": "FL.WTL.09", "district": "วังทองหลาง", "flood": 0, "device_status": "normal", "road": "ถนนลาดพร้าว", "date_updated": "2025-03-03T07:20:17.962Z"}}, {"type": "Feature", "geometry": {"type": "Point", "coordinates": [100.53392, 13.70211], "crs": null}, "properties": {"name": "ซ.สาธุประดิษฐ์15 แยก 6", "code": "FL.YNW.03", "district": "ยานนาวา", "flood": 0, "device_status": "normal", "road": "ซอยสาธุประดิษฐ์15", "date_updated": "2025-03-03T07:20:19.695Z"}}, {"type": "Feature", "geometry": {"type": "Point", "coordinates": [100.76167, 13.75453], "crs": null}, "properties": {"name": "ถ.เจ้าคุณทหาร ช่วง ถ.ไอ.ซี.ดี 1", "code": "FL.LKB.05", "district": "ลาดกระบัง", "flood": 0, "device_status": "normal", "road": "ถนนเจ้าคุณทหาร", "date_updated": "2025-03-03T07:20:04.782Z"}}, {"type": "Feature", "geometry": {"type": "Point", "coordinates": [100.52689, 13.75462], "crs": null}, "properties": {"name": "ถ.บรรทัดทอง ช่วงถนนเพชรบุรี", "code": "FL.RTW.09", "district": "ราชเทวี", "flood": 0, "device_status": "normal", "road": "ถนนบรรทัดทอง", "date_updated": "2025-03-03T07:20:12.781Z"}}, {"type": "Feature", "geometry": {"type": "Point", "coordinates": [100.5482, 13.76391], "crs": null}, "properties": {"name": "อ.ดินแดง(ขาออก)", "code": "TN.DDG.01(OUT)", "district": "ดินแดง", "flood": 0, "device_status": "normal", "road": "ถนนดินแดง", "date_updated": "2025-03-03T07:20:20.391Z"}}, {"type": "Feature", "geometry": {"type": "Point", "coordinates": [100.47412, 13.72934], "crs": null}, "properties": {"name": "อ.ท่าพระ(ขาเข้า)", "code": "TN.BKY.01(IN)", "district": "บางกอกใหญ่", "flood": 0, "device_status": "normal", "road": "ถนนรัชดาภิเษก", "date_updated": "2025-03-03T07:20:20.120Z"}}, {"type": "Feature", "geometry": {"type": "Point", "coordinates": [100.57493, 13.77871], "crs": null}, "properties": {"name": "ถ.ประชาราษฎร์บำเพ็ญ ช่วงสี่แยกห้วยขวาง", "code": "FL.HKG.04", "district": "ห้วยขวาง", "flood": 0, "device_status": "normal", "road": "ถนนประชาราษฎร์บำเพ็ญ", "date_updated": "2025-03-03T07:20:02.006Z"}}, {"type": "Feature", "geometry": {"type": "Point", "coordinates": [100.57365, 13.77844], "crs": null}, "properties": {"name": "อ.ห้วยขวาง(ขาออก)", "code": "TN.HKG.02(OUT)", "district": "ห้วยขวาง", "flood": 0, "device_status": "normal", "road": "ถนนรัชดาภิเษก", "date_updated": "2025-03-03T07:20:20.907Z"}}, {"type": "Feature", "geometry": {"type": "Point", "coordinates": [100.44073, 13.71386], "crs": null}, "properties": {"name": "ถ.เพชรเกษม ช่วง ซ.เพชรเกษม 31/4", "code": "FL.PSC.04", "district": "ภาษีเจริญ", "flood": 0, "device_status": "normal", "road": "ถนนเพชรเกษม", "date_updated": "2025-03-03T07:20:09.360Z"}}, {"type": "Feature", "geometry": {"type": "Point", "coordinates": [100.42867, 13.66428], "crs": null}, "properties": {"name": "ถ.บางขุนเทียน ช่วงตรงข้าม ซ.บางขุนเทียน 9", "code": "FL.BBN.05", "district": "บางบอน", "flood": 0, "device_status": "normal", "road": "ถนนบางขุนเทียน", "date_updated": "2025-03-03T07:19:49.204Z"}}, {"type": "Feature", "geometry": {"type": "Point", "coordinates": [100.59336, 13.86964], "crs": null}, "properties": {"name": "ถ.พหลโยธิน ช่วงหน้ากรมทหาราบที่ 11", "code": "FL.BKA.04", "district": "บางเขน", "flood": 0, "device_status": "normal", "road": "ถนนพหลโยธิน", "date_updated": "2025-03-03T07:19:49.836Z"}}, {"type": "Feature", "geometry": {"type": "Point", "coordinates": [100.53561, 13.78645], "crs": null}, "properties": {"name": "ถ.พระราม6 ช่วงทางด่วน", "code": "FL.PYT.03", "district": "พญาไท", "flood": 0, "device_status": "normal", "road": "ถนนพระราม 6", "date_updated": "2025-03-03T07:20:10.769Z"}}, {"type": "Feature", "geometry": {"type": "Point", "coordinates": [100.54682, 13.74968], "crs": null}, "properties": {"name": "ถ.เพชรบุรี ช่วงหน้าเมโทร", "code": "FL.RTW.03", "district": "ราชเทวี", "flood": 0, "device_status": "malfunction", "road": "ถนนเพชรบุรี ", "date_updated": "2025-03-03T07:20:12.004Z"}}, {"type": "Feature", "geometry": {"type": "Point", "coordinates": [100.50753, 13.74186], "crs": null}, "properties": {"name": "ถ.เยาวราช ช่วงแยกราชวงศ์", "code": "FL.SPW.02", "district": "สัมพันธวงศ์", "flood": 0, "device_status": "normal", "road": "ถนนเยาวราช", "date_updated": "2025-03-03T07:20:14.620Z"}}, {"type": "Feature", "geometry": {"type": "Point", "coordinates": [100.52882, 13.70535], "crs": null}, "properties": {"name": "ถ.สาธุประดิษฐ์ ซอย 2", "code": "FL.STN.03", "district": "สาทร", "flood": 0, "device_status": "normal", "road": "ถนนสาธุประดิษฐ์", "date_updated": "2025-03-03T07:20:15.006Z"}}, {"type": "Feature", "geometry": {"type": "Point", "coordinates": [100.49486, 13.72687], "crs": null}, "properties": {"name": "ถ.ลาดหญ้า วงเวียนใหญ่", "code": "FL.KSN.01", "district": "คลองสาน", "flood": 0, "device_status": "normal", "road": "ถนนลาดหญ้า", "date_updated": "2025-03-03T07:20:02.725Z"}}, {"type": "Feature", "geometry": {"type": "Point", "coordinates": [100.56624, 13.74003], "crs": null}, "properties": {"name": "ซ.สุขุมวิท31 ช่วงหน้าโรงเรียนสวัสดี", "code": "FL.WTN.06", "district": "วัฒนา", "flood": 0, "device_status": "normal", "road": "ซอยสุขุมวิท31", "date_updated": "2025-03-28T04:55:36.025Z"}}, {"type": "Feature", "geometry": {"type": "Point", "coordinates": [100.5892, 13.85671], "crs": null}, "properties": {"name": "อ.ทหารราบ 11(ขาเข้า)", "code": "TN.BKA.01(IN)", "district": "บางเขน", "flood": 0, "device_status": "normal", "road": "ถนนผลาสินธุ์", "date_updated": "2025-03-03T07:20:19.821Z"}}, {"type": "Feature", "geometry": {"type": "Point", "coordinates": [100.6161, 13.74133], "crs": null}, "properties": {"name": "อ.พระราม 9(ขาออก)", "code": "TN.HKG.03(OUT)", "district": "ห้วยขวาง", "flood": 0, "device_status": "malfunction", "road": "ถนนพระราม 9 ", "date_updated": "2025-03-03T07:20:21.133Z"}}, {"type": "Feature", "geometry": {"type": "Point", "coordinates": [100.65195, 13.79397], "crs": null}, "properties": {"name": "ถ.นวมินทร์ ช่วง ซ.นวมินทร์ 38", "code": "FL.BKM.06", "district": "บึงกุ่ม", "flood": 0, "device_status": "normal", "road": "ถนนนวมินทร์", "date_updated": "2025-03-03T07:19:52.563Z"}}, {"type": "Feature", "geometry": {"type": "Point", "coordinates": [100.48203, 13.72825], "crs": null}, "properties": {"name": "ถ.เพชรเกษม ช่วง ซ.อุดมศรี", "code": "FL.BKY.01", "district": "บางกอกใหญ่", "flood": 0, "device_status": "normal", "road": "ถนนเพชรเกษม", "date_updated": "2025-03-03T07:19:54.950Z"}}, {"type": "Feature", "geometry": {"type": "Point", "coordinates": [100.51491, 13.75655], "crs": null}, "properties": {"name": "ถ.หลานหลวง หน้าธนาคารกรุงไทย", "code": "FL.PPS.01", "district": "ป้อมปราบศัตรูพ่าย", "flood": 0, "device_status": "normal", "road": "ถนนหลานหลวง", "date_updated": "2025-03-03T07:20:08.691Z"}}, {"type": "Feature", "geometry": {"type": "Point", "coordinates": [100.54849, 13.79003], "crs": null}, "properties": {"name": "ถ.พหลโยธิน  ช่วงห้างบิ๊กซีสะพานควาย", "code": "FL.PYT.07", "district": "พญาไท", "flood": 0, "device_status": "normal", "road": "ถนนพหลโยธิน", "date_updated": "2025-03-03T07:20:11.290Z"}}, {"type": "Feature", "geometry": {"type": "Point", "coordinates": [100.61937, 13.78063], "crs": null}, "properties": {"name": "ถ.ลาดพร้าว ช่วงซอยลาดพร้าว 89", "code": "FL.WTL.02", "district": "วังทองหลาง", "flood": 0, "device_status": "normal", "road": "ถนนลาดพร้าว", "date_updated": "2025-03-03T07:20:16.945Z"}}, {"type": "Feature", "geometry": {"type": "Point", "coordinates": [100.56208, 13.74329], "crs": null}, "properties": {"name": "ถ.อโศกมนตรี ช่วงตรงข้ามตึกแกรมมี่", "code": "FL.WTN.04", "district": "วัฒนา", "flood": 0, "device_status": "normal", "road": "ถนนอโศกมนตรี", "date_updated": "2025-03-03T07:20:18.592Z"}}, {"type": "Feature", "geometry": {"type": "Point", "coordinates": [100.47191, 13.69809], "crs": null}, "properties": {"name": "ถ.จอมทอง ช่วง ซ.จอมทอง 12", "code": "FL.JTG.02", "district": "จอมทอง", "flood": 0, "device_status": "normal", "road": "ถนนจอมทอง", "date_updated": "2025-03-03T07:20:02.432Z"}}, {"type": "Feature", "geometry": {"type": "Point", "coordinates": [100.53985, 13.74189], "crs": null}, "properties": {"name": "ถ.ราชดำริ หน้าโรงพยาบาลตำรวจ", "code": "FL.PTW.05", "district": "ปทุมวัน", "flood": 0, "device_status": "normal", "road": "ถนนราชดำริ", "date_updated": "2025-03-03T07:20:09.913Z"}}, {"type": "Feature", "geometry": {"type": "Point", "coordinates": [100.61082, 13.81339], "crs": null}, "properties": {"name": "ถ.นาคนิวาส ช่วง ซ.นาคนิวาส 38", "code": "FL.LPW.03", "district": "ลาดพร้าว", "flood": 0, "device_status": "normal", "road": "ถนนนาคนิวาส", "date_updated": "2025-03-03T07:20:05.854Z"}}, {"type": "Feature", "geometry": {"type": "Point", "coordinates": [100.59975, 13.7886], "crs": null}, "properties": {"name": "ซ.ลาดพร้าว64 แยก 7", "code": "FL.WTL.05", "district": "วังทองหลาง", "flood": 0, "device_status": "normal", "road": "ซอยลาดพร้าว64", "date_updated": "2025-03-03T07:20:17.374Z"}}, {"type": "Feature", "geometry": {"type": "Point", "coordinates": [100.55657, 13.89429], "crs": null}, "properties": {"name": "ถ.แจ้งวัฒนะขาออก (มทบ. 11)", "code": "FL.LSI.05", "district": "หลักสี่", "flood": 0, "device_status": "normal", "road": "ถนนแจ้งวัฒนะ", "date_updated": "2025-03-03T07:20:07.013Z"}}, {"type": "Feature", "geometry": {"type": "Point", "coordinates": [100.59588, 13.72295], "crs": null}, "properties": {"name": "ถ.สุขุมวิท 71 ช่วงซอยปรีดีพนมยงค์ 20", "code": "FL.WTN.03", "district": "วัฒนา", "flood": 0, "device_status": "normal", "road": "ถนนสุขุมวิท 71", "date_updated": "2025-03-03T07:20:18.472Z"}}, {"type": "Feature", "geometry": {"type": "Point", "coordinates": [100.43297, 13.67812], "crs": null}, "properties": {"name": "ถ.เอกชัย ซอย 60", "code": "FL.BBN.02", "district": "บางบอน", "flood": 0, "device_status": "normal", "road": "ถนนเอกชัย", "date_updated": "2025-03-03T07:19:48.798Z"}}, {"type": "Feature", "geometry": {"type": "Point", "coordinates": [100.61226, 13.68437], "crs": null}, "properties": {"name": "ถ.วชิรธรรมสาธิต ช่วงตรงข้าม ซ.วชิรธรรมสาธิต 8", "code": "FL.PKN.03", "district": "พระโขนง", "flood": 0, "device_status": "normal", "road": "ถนนวชิรธรรมสาธิต", "date_updated": "2025-03-03T07:20:08.331Z"}}, {"type": "Feature", "geometry": {"type": "Point", "coordinates": [100.49451, 13.78459], "crs": null}, "properties": {"name": "อ.บางพลัด(ขาเข้า)", "code": "TN.BPD.01(IN)", "district": "บางพลัด", "flood": 0, "device_status": "normal", "road": "ถนนจรัญสนิทวงศ์", "date_updated": "2025-03-03T07:20:20.225Z"}}, {"type": "Feature", "geometry": {"type": "Point", "coordinates": [100.60299, 13.74498], "crs": null}, "properties": {"name": "ถ.รามคำแหง ซอย 3", "code": "FL.SLG.02", "district": "สวนหลวง", "flood": 0, "device_status": "normal", "road": "ถนนรามคำแหง", "date_updated": "2025-03-03T07:20:13.583Z"}}, {"type": "Feature", "geometry": {"type": "Point", "coordinates": [100.64183, 13.89161], "crs": null}, "properties": {"name": "ถ.วัชรพล ช่วง ซ.วัชรพล 8", "code": "FL.BKA.07", "district": "บางเขน", "flood": 0, "device_status": "normal", "road": "ถนนวัชรพล", "date_updated": "2025-03-03T07:19:50.275Z"}}, {"type": "Feature", "geometry": {"type": "Point", "coordinates": [100.59939, 13.74004], "crs": null}, "properties": {"name": "ถ.สุขุมวิท 71 ช่วงแยกคลองตัน", "code": "FL.SLG.04", "district": "สวนหลวง", "flood": 0, "device_status": "normal", "road": "ถนนสุขุมวิท", "date_updated": "2025-03-03T07:20:13.846Z"}}, {"type": "Feature", "geometry": {"type": "Point", "coordinates": [100.66061, 13.89625], "crs": null}, "properties": {"name": "ถ.สุขาภิบาล ๕ ช่วงหน้าตลาดสดออเงิน", "code": "FL.SMI.02", "district": "สายไหม", "flood": 0, "device_status": "normal", "road": "ถนนสุขาภิบาล", "date_updated": "2025-03-03T07:20:14.344Z"}}, {"type": "Feature", "geometry": {"type": "Point", "coordinates": [100.78994, 13.75091], "crs": null}, "properties": {"name": "ถ.เจ้าคุณทหาร หน้าสถานี LPG PT สาขาลาดกระบัง4", "code": "FL.LKB.08", "district": "ลาดกระบัง", "flood": 0, "device_status": "normal", "road": "ถนนเจ้าคุณทหาร", "date_updated": "2025-03-03T07:20:05.204Z"}}, {"type": "Feature", "geometry": {"type": "Point", "coordinates": [100.54512, 13.78143], "crs": null}, "properties": {"name": "ถ.พหลโยธิน ช่วง ซ.พหลโยธิน 7", "code": "FL.PYT.10", "district": "พญาไท", "flood": 0, "device_status": "normal", "road": "ถนนพหลโยธิน", "date_updated": "2025-03-03T07:20:11.643Z"}}, {"type": "Feature", "geometry": {"type": "Point", "coordinates": [100.77224, 13.753], "crs": null}, "properties": {"name": "ถ.เจ้าคุณทหาร บริเวณร้านปฤษฏ์ชัย ค้าไม้", "code": "FL.LKB.09", "district": "ลาดกระบัง", "flood": 0, "device_status": "normal", "road": "ถนนเจ้าคุณทหาร", "date_updated": "2025-03-03T07:20:05.340Z"}}, {"type": "Feature", "geometry": {"type": "Point", "coordinates": [100.5333, 13.75563], "crs": null}, "properties": {"name": "ถ.พญาไท ช่วงกรมปศุสัตว์", "code": "FL.RTW.04", "district": "ราชเทวี", "flood": 0, "device_status": "normal", "road": "ถนนพญาไท", "date_updated": "2025-03-03T07:20:12.124Z"}}, {"type": "Feature", "geometry": {"type": "Point", "coordinates": [100.7418, 13.82082], "crs": null}, "properties": {"name": "ถ.สุวินทวงศ์ ช่วงแยกไปรษณีย์มีนบุรี", "code": "FL.MBR.01", "district": "มีนบุรี", "flood": 0, "device_status": "normal", "road": "ถนนสุวินทวงศ์", "date_updated": "2025-03-03T07:20:07.458Z"}}, {"type": "Feature", "geometry": {"type": "Point", "coordinates": [100.40502, 13.71064], "crs": null}, "properties": {"name": "ถ.เพชรเกษม แยกวงแหวนกาญจนาภิเษก", "code": "FL.BKE.01", "district": "บางแค", "flood": 0, "device_status": "normal", "road": "ถนนเพชรเกษม", "date_updated": "2025-03-03T07:19:50.878Z"}}, {"type": "Feature", "geometry": {"type": "Point", "coordinates": [100.45579, 13.71976], "crs": null}, "properties": {"name": "ถ.เพชรเกษม ช่วงสถานี BTS บางหว้า", "code": "FL.PSC.03", "district": "ภาษีเจริญ", "flood": 0, "device_status": "normal", "road": "ถนนเพชรเกษม", "date_updated": "2025-03-03T07:20:09.210Z"}}, {"type": "Feature", "geometry": {"type": "Point", "coordinates": [100.54269, 13.75469], "crs": null}, "properties": {"name": "ถ.นิคมมักกะสัน แยกราชปรารภ", "code": "FL.RTW.08", "district": "ราชเทวี", "flood": 0, "device_status": "normal", "road": "ถนนนิคมมักกะสัน ", "date_updated": "2025-03-03T07:20:12.662Z"}}, {"type": "Feature", "geometry": {"type": "Point", "coordinates": [100.54432, 13.78142], "crs": null}, "properties": {"name": "ซ.พหลโยธิน7 ช่วงซ.อารีย์ 2", "code": "FL.PYT.09", "district": "พญาไท", "flood": 0, "device_status": "normal", "road": "ซอยพหลโยธิน7", "date_updated": "2025-03-03T07:20:11.530Z"}}, {"type": "Feature", "geometry": {"type": "Point", "coordinates": [100.5742, 13.78973], "crs": null}, "properties": {"name": "อ.สุทธิสาร(ขาออก)", "code": "TN.HKG.01(OUT)", "district": "ห้วยขวาง", "flood": 0, "device_status": "normal", "road": "ถนนรัชดาภิเษก", "date_updated": "2025-03-03T07:20:20.644Z"}}, {"type": "Feature", "geometry": {"type": "Point", "coordinates": [100.42134, 13.7117], "crs": null}, "properties": {"name": "ถ.เพชรเกษม ช่วง ถ.บางแค", "code": "FL.BKE.03", "district": "บางแค", "flood": 0, "device_status": "normal", "road": "ถนนเพชรเกษม", "date_updated": "2025-03-03T07:19:51.139Z"}}, {"type": "Feature", "geometry": {"type": "Point", "coordinates": [100.46759, 13.6991], "crs": null}, "properties": {"name": "ถ.จอมทอง ช่วงแยกจอมทอง", "code": "FL.JTG.01", "district": "จอมทอง", "flood": 0, "device_status": "normal", "road": "ถนนจอมทอง", "date_updated": "2025-03-03T07:20:02.308Z"}}, {"type": "Feature", "geometry": {"type": "Point", "coordinates": [100.5562, 13.71547], "crs": null}, "properties": {"name": "ถ.พระรามที่ 3 ช่วงตลาดฮ่องกง-ปีนัง", "code": "FL.KTY.01", "district": "คลองเตย", "flood": 0, "device_status": "normal", "road": "ถนนพระราม 3", "date_updated": "2025-03-03T07:20:02.855Z"}}, {"type": "Feature", "geometry": {"type": "Point", "coordinates": [100.62924, 13.83568], "crs": null}, "properties": {"name": "ถ.สุคนธสวัสดิ์ ช่วงตรงข้าม ซ.สุคนธสวัสดิ์ 25/2", "code": "FL.LPW.02", "district": "ลาดพร้าว", "flood": 0, "device_status": "normal", "road": "ถนนสุคนธสวัสดิ์", "date_updated": "2025-03-03T07:20:05.713Z"}}, {"type": "Feature", "geometry": {"type": "Point", "coordinates": [100.52676, 13.70661], "crs": null}, "properties": {"name": "ถ.เซนต์หลุยส์ 3", "code": "FL.STN.02", "district": "สาทร", "flood": 0, "device_status": "normal", "road": "ถนนเซนต์หลุยส์ 3", "date_updated": "2025-03-03T07:20:14.894Z"}}, {"type": "Feature", "geometry": {"type": "Point", "coordinates": [100.54781, 13.8554], "crs": null}, "properties": {"name": "ถ.งามวงศ์วาน ซอยชินเขต", "code": "FL.LSI.06", "district": "หลักสี่", "flood": 0, "device_status": "normal", "road": "ถนนงามวงค์วาน", "date_updated": "2025-03-03T07:20:07.155Z"}}, {"type": "Feature", "geometry": {"type": "Point", "coordinates": [100.52616, 13.70638], "crs": null}, "properties": {"name": "ถ.จันทน์ ช่วง ซ.จันทร์ 29", "code": "FL.STN.10", "district": "สาทร", "flood": 0, "device_status": "normal", "road": "ถนนจันทน์", "date_updated": "2025-03-03T07:20:15.866Z"}}, {"type": "Feature", "geometry": {"type": "Point", "coordinates": [100.72226, 13.81645], "crs": null}, "properties": {"name": "ถ.สุวินทวงศ์ ช่วง ถ.หทัยราษฎร์", "code": "FL.MBR.02", "district": "มีนบุรี", "flood": 0, "device_status": "malfunction", "road": "ถนนสุวินทวงศ์", "date_updated": "2025-03-03T07:20:07.596Z"}}, {"type": "Feature", "geometry": {"type": "Point", "coordinates": [100.57171, 13.73663], "crs": null}, "properties": {"name": "ซ.สุขุมวิท 39 (ซอยพร้อมพงษ์)", "code": "FL.WTN.01", "district": "วัฒนา", "flood": 0, "device_status": "normal", "road": "ซอยสุขุมวิท 39", "date_updated": "2025-03-03T07:20:18.230Z"}}, {"type": "Feature", "geometry": {"type": "Point", "coordinates": [100.60786, 13.67615], "crs": null}, "properties": {"name": "ถ.สุขุมวิท ช่วง ซ.สุขุมวิท 70", "code": "FL.BNA.08", "district": "บางนา", "flood": 0, "device_status": "normal", "road": "ถนนสุขุมวิท", "date_updated": "2025-03-03T07:19:55.984Z"}}, {"type": "Feature", "geometry": {"type": "Point", "coordinates": [100.53028, 13.74338], "crs": null}, "properties": {"name": "ถ.พญาไท ช่วงมาบุญครอง", "code": "FL.PTW.02", "district": "ปทุมวัน", "flood": 0, "device_status": "normal", "road": "ถนนพญาไท", "date_updated": "2025-03-03T07:20:09.600Z"}}, {"type": "Feature", "geometry": {"type": "Point", "coordinates": [100.57972, 13.83469], "crs": null}, "properties": {"name": "ซ.เสนานิคม", "code": "FL.CTC.07", "district": "จตุจักร", "flood": 0, "device_status": "malfunction", "road": "ถนนเสนานิคม 1", "date_updated": "2025-03-03T07:19:57.679Z"}}, {"type": "Feature", "geometry": {"type": "Point", "coordinates": [100.63801, 13.73602], "crs": null}, "properties": {"name": "ถ.พัฒนาการ แยกศรีนครินทร์", "code": "FL.SLG.01", "district": "สวนหลวง", "flood": 0, "device_status": "normal", "road": "ถนนพัฒนาการ", "date_updated": "2025-03-03T07:20:13.441Z"}}, {"type": "Feature", "geometry": {"type": "Point", "coordinates": [100.56199, 13.74046], "crs": null}, "properties": {"name": "ถ.อโศกมนตรี ช่วงแยกชิโนไทย", "code": "FL.WTN.02", "district": "ทวีวัฒนา", "flood": 0, "device_status": "malfunction", "road": "ถนนอโศกมนตรี ", "date_updated": "2025-03-03T07:20:18.363Z"}}, {"type": "Feature", "geometry": {"type": "Point", "coordinates": [100.57131, 13.73314], "crs": null}, "properties": {"name": "ซ.สุขุมวิท39 ช่วง ซ.พร้อมมิตร", "code": "FL.WTN.10", "district": "วัฒนา", "flood": 0, "device_status": "normal", "road": "ซอยสุขุมวิท39", "date_updated": "2025-05-06T07:00:12.074Z"}}, {"type": "Feature", "geometry": {"type": "Point", "coordinates": [100.57099, 13.72922], "crs": null}, "properties": {"name": "ซ.สุขุมวิท26 ช่วง ถ.สุขุมวิท", "code": "FL.KTY.06", "district": "คลองเตย", "flood": 0, "device_status": "normal", "road": "ซอยสุขุมวิท26", "date_updated": "2025-03-03T07:20:03.567Z"}}, {"type": "Feature", "geometry": {"type": "Point", "coordinates": [100.81626, 13.71243], "crs": null}, "properties": {"name": "ถ.หลวงแพ่ง ช่วงมอเตอร์เวย์", "code": "FL.LKB.04", "district": "ลาดกระบัง", "flood": 0, "device_status": "normal", "road": "ถนนหลวงแพ่ง", "date_updated": "2025-03-03T07:20:04.643Z"}}, {"type": "Feature", "geometry": {"type": "Point", "coordinates": [100.64778, 13.76781], "crs": null}, "properties": {"name": "ถ.นวมินทร์ ช่วงตรงข้ามสถานีตำรวจนครบาลลาดพร้าว", "code": "FL.BKP.11", "district": "บางกะปิ", "flood": 0, "device_status": "normal", "road": "ถนนนวมินทร์", "date_updated": "2025-03-03T07:19:54.182Z"}}, {"type": "Feature", "geometry": {"type": "Point", "coordinates": [100.60748, 13.67378], "crs": null}, "properties": {"name": "ถ.บางนา-ตราด (ขาออก) ช่วงแยกบางนา", "code": "FL.BNA.09", "district": "บางนา", "flood": 0, "device_status": "normal", "road": "ถนนบางนา-ตราด", "date_updated": "2025-03-03T07:19:56.096Z"}}, {"type": "Feature", "geometry": {"type": "Point", "coordinates": [100.57528, 13.8087], "crs": null}, "properties": {"name": "ถ.รัชดาภิเษก ช่วงแยกลาดพร้าว (หน้าธนาคารกรุงเทพ)", "code": "FL.CTC.01", "district": "จตุจักร", "flood": 0, "device_status": "normal", "road": "ถนนรัชดาภิเษก", "date_updated": "2025-03-03T07:19:56.888Z"}}, {"type": "Feature", "geometry": {"type": "Point", "coordinates": [100.5118, 13.74071], "crs": null}, "properties": {"name": "ถ.เจริญกรุง แยกแปลงนาม", "code": "FL.SPW.01", "district": "สัมพันธวงศ์", "flood": 6.3, "device_status": "malfunction", "road": "ถนนเจริญกรุง", "date_updated": "2025-03-03T07:20:14.487Z"}}, {"type": "Feature", "geometry": {"type": "Point", "coordinates": [100.57761, 13.72502], "crs": null}, "properties": {"name": "ถ.สุขุมวิท ช่วง ซ.สุขุมวิท 53", "code": "FL.WTN.08", "district": "วัฒนา", "flood": 0, "device_status": "normal", "road": "ถนนสุขุมวิท", "date_updated": "2025-03-03T07:20:19.077Z"}}, {"type": "Feature", "geometry": {"type": "Point", "coordinates": [100.53266, 13.69606], "crs": null}, "properties": {"name": "ถ.สาธุประดิษฐ์ ช่วง ซ.สาธุประดิษฐ์ 29", "code": "FL.YNW.01", "district": "ยานนาวา", "flood": 0, "device_status": "normal", "road": "ถนนสาธุประดิษฐ์", "date_updated": "2025-03-03T07:20:19.424Z"}}, {"type": "Feature", "geometry": {"type": "Point", "coordinates": [100.70187, 13.80004], "crs": null}, "properties": {"name": "ถ.เสรีไทย ช่วงนิคมฯ บางชัน", "code": "FL.KNY.01", "district": "คันนายาว", "flood": 0, "device_status": "normal", "road": "ถนนเสรีไทย", "date_updated": "2025-03-03T07:20:02.552Z"}}, {"type": "Feature", "geometry": {"type": "Point", "coordinates": [100.55732, 13.71687], "crs": null}, "properties": {"name": "ถ.พระราม 3 ช่วงทางรถไฟ", "code": "FL.KTY.03", "district": "คลองเตย", "flood": 0, "device_status": "normal", "road": "ถนนพระราม 3", "date_updated": "2025-03-03T07:20:03.164Z"}}, {"type": "Feature", "geometry": {"type": "Point", "coordinates": [100.58622, 13.72995], "crs": null}, "properties": {"name": "ถ.เอกมัย ช่วงตรงข้าม ซ.เอกมัย 3", "code": "FL.WTN.05", "district": "วัฒนา", "flood": 0, "device_status": "normal", "road": "ถนนเอกมัย", "date_updated": "2025-03-03T07:20:18.692Z"}}, {"type": "Feature", "geometry": {"type": "Point", "coordinates": [100.42403, 13.71218], "crs": null}, "properties": {"name": "ถ.เพชรเกษม ช่วง ซ.เพชรเกษม 62/1", "code": "FL.BKE.04", "district": "บางแค", "flood": 0, "device_status": "normal", "road": "ถนนเพชรเกษม", "date_updated": "2025-03-03T07:19:51.250Z"}}, {"type": "Feature", "geometry": {"type": "Point", "coordinates": [100.56992, 13.72417], "crs": null}, "properties": {"name": "ซ.สุขุมวิท26 ช่วงกลางซ.สุขุมวิท 26", "code": "FL.KTY.10", "district": "คลองเตย", "flood": 0, "device_status": "normal", "road": "ซอยสุขุมวิท26", "date_updated": "2025-03-03T07:20:04.043Z"}}, {"type": "Feature", "geometry": {"type": "Point", "coordinates": [100.72428, 13.81237], "crs": null}, "properties": {"name": "ถ.สีหบุรานุกิจ ช่วง ซ.สีหบุรานุกิจ 14", "code": "FL.MBR.03", "district": "มีนบุรี", "flood": 0, "device_status": "normal", "road": "ถนนสีหบุรานุกิจ", "date_updated": "2025-03-03T07:20:07.720Z"}}, {"type": "Feature", "geometry": {"type": "Point", "coordinates": [100.63517, 13.68675], "crs": null}, "properties": {"name": "ถ.วชิรธรรมสาธิต ช่วง 3 แยกชอยวัดทุ่ง", "code": "FL.PKN.04", "district": "พระโขนง", "flood": 0, "device_status": "normal", "road": "ถนนวชิรธรรมสาธิต", "date_updated": "2025-03-03T07:20:08.449Z"}}, {"type": "Feature", "geometry": {"type": "Point", "coordinates": [100.55674, 13.78906], "crs": null}, "properties": {"name": "ถ.สุทธิสารวินิจฉัย ซอย 19", "code": "FL.PYT.04", "district": "พญาไท", "flood": 0, "device_status": "normal", "road": "ถนนสุทธิสารวินิจฉัย", "date_updated": "2025-03-03T07:20:10.895Z"}}, {"type": "Feature", "geometry": {"type": "Point", "coordinates": [100.52105, 13.70745], "crs": null}, "properties": {"name": "ถ.จันทน์ ซอย 28/2", "code": "FL.STN.01", "district": "สาทร", "flood": 0, "device_status": "normal", "road": "ถนนจันทน์", "date_updated": "2025-03-03T07:20:14.768Z"}}, {"type": "Feature", "geometry": {"type": "Point", "coordinates": [100.6042, 13.87025], "crs": null}, "properties": {"name": "ถ.รามอินทรา ช่วง ซ.รามอินทรา 5", "code": "FL.BKA.03", "district": "บางเขน", "flood": 0, "device_status": "normal", "road": "ถนนรามอินทรา", "date_updated": "2025-03-03T07:19:49.711Z"}}, {"type": "Feature", "geometry": {"type": "Point", "coordinates": [100.50196, 13.63612], "crs": null}, "properties": {"name": "ถ.ประชาอุทิศ ช่วง ซ.ประชาอุทิศ 60/1", "code": "FL.TKU.02", "district": "ทุ่งครุ", "flood": 0, "device_status": "normal", "road": "ถนนประชาอุทิศ", "date_updated": "2025-03-03T07:20:16.317Z"}}, {"type": "Feature", "geometry": {"type": "Point", "coordinates": [100.5892, 13.85671], "crs": null}, "properties": {"name": "อ.ทหารราบ 11(ขาออก)", "code": "TN.BKA.01(OUT)", "district": "บางเขน", "flood": 0, "device_status": "normal", "road": "ถนนผลาสินธุ์", "date_updated": "2025-03-03T07:20:19.947Z"}}, {"type": "Feature", "geometry": {"type": "Point", "coordinates": [100.62429, 13.68436], "crs": null}, "properties": {"name": "ถ.วชิรธรรมสาธิต ช่วง ซ.วชิรธรรมสาธิต 34", "code": "FL.PKN.02", "district": "พระโขนง", "flood": 0, "device_status": "normal", "road": "ถนนวชิรธรรมสาธิต", "date_updated": "2025-03-03T07:20:08.191Z"}}, {"type": "Feature", "geometry": {"type": "Point", "coordinates": [100.5742, 13.78973], "crs": null}, "properties": {"name": "อ.สุทธิสาร(ขาเข้า)", "code": "TN.HKG.01(IN)", "district": "ห้วยขวาง", "flood": 0, "device_status": "normal", "road": "ถนนรัชดาภิเษก", "date_updated": "2025-03-03T07:20:20.512Z"}}, {"type": "Feature", "geometry": {"type": "Point", "coordinates": [100.64738, 13.69291], "crs": null}, "properties": {"name": "ถ.ศรีนครินทร์ ช่วงซีคอนสแควร์", "code": "FL.PWT.01", "district": "ประเวศ", "flood": 0, "device_status": "normal", "road": "ถนนศรีนครินทร์", "date_updated": "2025-03-03T07:20:10.035Z"}}, {"type": "Feature", "geometry": {"type": "Point", "coordinates": [100.6477, 13.80506], "crs": null}, "properties": {"name": "ถ.นวมินทร์ ช่วง ซ.นวมินทร์ 105", "code": "FL.BKM.03", "district": "บึงกุ่ม", "flood": 0, "device_status": "normal", "road": "ถนนนวมินทร์", "date_updated": "2025-03-03T07:19:52.172Z"}}, {"type": "Feature", "geometry": {"type": "Point", "coordinates": [100.62453, 13.93971], "crs": null}, "properties": {"name": "ถ.พหลโยธิน ช่วงซอยพหลโยธิน 60/1", "code": "FL.SMI.01", "district": "สายไหม", "flood": 0, "device_status": "normal", "road": "ถนนพหลโยธิน", "date_updated": "2025-03-03T07:20:14.171Z"}}, {"type": "Feature", "geometry": {"type": "Point", "coordinates": [100.59758, 13.84344], "crs": null}, "properties": {"name": "ถ.ลาดปลาเค้า ช่วง ซ.ลาดปลาเค้า 30/2", "code": "FL.LPW.08", "district": "ลาดพร้าว", "flood": 0, "device_status": "normal", "road": "ถนนลาดปลาเค้า", "date_updated": "2025-03-03T07:20:06.469Z"}}, {"type": "Feature", "geometry": {"type": "Point", "coordinates": [100.53873, 13.71899], "crs": null}, "properties": {"name": "ถ.สวนพลู ช่วงตลาดสวนพลู", "code": "FL.STN.04", "district": "สาทร", "flood": 0, "device_status": "normal", "road": "ถนนสวนพลู", "date_updated": "2025-03-03T07:20:15.132Z"}}, {"type": "Feature", "geometry": {"type": "Point", "coordinates": [100.5287, 13.70576], "crs": null}, "properties": {"name": "ถ.สาธุประดิษฐ์ ช่วงแยก ถ.จันทน์", "code": "FL.STN.08", "district": "สาทร", "flood": 0, "device_status": "normal", "road": "ถนนสาธุประดิษฐ์", "date_updated": "2025-03-03T07:20:15.627Z"}}, {"type": "Feature", "geometry": {"type": "Point", "coordinates": [100.61733, 13.78151], "crs": null}, "properties": {"name": "ถ.ลาดพร้าว ช่วง ซ.ลาดพร้าว 110", "code": "FL.WTL.08", "district": "วังทองหลาง", "flood": 0, "device_status": "normal", "road": "ถนนลาดพร้าว", "date_updated": "2025-03-03T07:20:17.792Z"}}, {"type": "Feature", "geometry": {"type": "Point", "coordinates": [100.62394, 13.76368], "crs": null}, "properties": {"name": "ซ.รามคำแหง 65 (ซอยมหาดไทย)", "code": "FL.WTL.04", "district": "วังทองหลาง", "flood": 0, "device_status": "normal", "road": "ซอยรามคำแหง 65", "date_updated": "2025-03-03T07:20:17.181Z"}}, {"type": "Feature", "geometry": {"type": "Point", "coordinates": [100.53216, 13.80609], "crs": null}, "properties": {"name": "ถ.ประชาราษฏร์ แยกเตาปูน", "code": "FL.BSU.01", "district": "บางซื่อ", "flood": 0, "device_status": "normal", "road": "ถนนประชาราษฏร์", "date_updated": "2025-03-03T07:19:56.616Z"}}, {"type": "Feature", "geometry": {"type": "Point", "coordinates": [100.56077, 13.73446], "crs": null}, "properties": {"name": "ถ.รัชดาภิเษก ช่วง ซ.สุขุมวิท 16", "code": "FL.KTY.09", "district": "คลองเตย", "flood": 0, "device_status": "normal", "road": "ถนนรัชดาภิเษก", "date_updated": "2025-03-03T07:20:03.951Z"}}, {"type": "Feature", "geometry": {"type": "Point", "coordinates": [100.59629, 13.8114], "crs": null}, "properties": {"name": "ถ.โชคชัย 4 ช่วง ซ.โชคชัย 40", "code": "FL.LPW.04", "district": "ลาดพร้าว", "flood": 0, "device_status": "normal", "road": "ถนนโชคชัย", "date_updated": "2025-03-03T07:20:05.971Z"}}, {"type": "Feature", "geometry": {"type": "Point", "coordinates": [100.53678, 13.74492], "crs": null}, "properties": {"name": "ถ.พระรามที่ 1 ช่วงวัดปทุมวนาราม", "code": "FL.PTW.03", "district": "ปทุมวัน", "flood": 0, "device_status": "normal", "road": "ถนนพระราม 1 ", "date_updated": "2025-03-03T07:20:09.738Z"}}, {"type": "Feature", "geometry": {"type": "Point", "coordinates": [100.60477, 13.78257], "crs": null}, "properties": {"name": "ซ.ลาดพร้าว80 แยก 22", "code": "FL.WTL.06", "district": "วังทองหลาง", "flood": 0, "device_status": "normal", "road": "ซอยลาดพร้าว80", "date_updated": "2025-03-03T07:20:17.539Z"}}, {"type": "Feature", "geometry": {"type": "Point", "coordinates": [100.67178, 13.6934], "crs": null}, "properties": {"name": "ถ.เฉลิมพระเกียรติ ร.9 ซ.เฉลิมพระเกียรติ ร.9 40", "code": "FL.PWT.03", "district": "ประเวศ", "flood": 0, "device_status": "normal", "road": "ถนนเฉลิมพระเกียรติ", "date_updated": "2025-03-03T07:20:10.301Z"}}, {"type": "Feature", "geometry": {"type": "Point", "coordinates": [100.50748, 13.62498], "crs": null}, "properties": {"name": "ถ.ประชาอุทิศ ช่วง ซ.ประชาอุทิศ 76/1", "code": "FL.TKU.01", "district": "ทุ่งครุ", "flood": 0, "device_status": "normal", "road": "ถนนประชาอุทิศ", "date_updated": "2025-03-03T07:20:16.157Z"}}, {"type": "Feature", "geometry": {"type": "Point", "coordinates": [100.4335, 13.78269], "crs": null}, "properties": {"name": "ถ.ฉิมพลี ช่วง ซ.ฉิมพลี 31", "code": "FL.TLC.01", "district": "ตลิ่งชัน", "flood": 0, "device_status": "normal", "road": "ถนนฉิมพลี", "date_updated": "2025-03-03T07:20:16.568Z"}}, {"type": "Feature", "geometry": {"type": "Point", "coordinates": [100.43174, 13.71256], "crs": null}, "properties": {"name": "ถ.เพชรเกษม ช่วงหน้าโรงพยาบาลมิตรประชา", "code": "FL.PSC.02", "district": "ภาษีเจริญ", "flood": 0, "device_status": "normal", "road": "ถนนเพชรเกษม", "date_updated": "2025-03-03T07:20:09.081Z"}}, {"type": "Feature", "geometry": {"type": "Point", "coordinates": [100.63026, 13.75458], "crs": null}, "properties": {"name": "ถ.หัวหมาก ช่วง ซ.หัวหมาก 30", "code": "FL.BKP.06", "district": "บางกะปิ", "flood": 0, "device_status": "malfunction", "road": "ถนนหัวหมาก", "date_updated": "2025-03-03T07:19:53.569Z"}}, {"type": "Feature", "geometry": {"type": "Point", "coordinates": [100.64565, 13.76178], "crs": null}, "properties": {"name": "ถ.ศรีนครินทร์ ช่วงแยกลำสาลี", "code": "FL.BKP.12", "district": "บางกะปิ", "flood": 0, "device_status": "normal", "road": "ถนนศรีนครินทร์", "date_updated": "2025-03-03T07:19:54.324Z"}}, {"type": "Feature", "geometry": {"type": "Point", "coordinates": [100.7904, 13.73893], "crs": null}, "properties": {"name": "ถ.ฉลองกรุง ช่วง ซ.ฉลองกรุง 8", "code": "FL.LKB.06", "district": "ลาดกระบัง", "flood": 0, "device_status": "normal", "road": "ถนนฉลองกรุง", "date_updated": "2025-03-03T07:20:04.948Z"}}, {"type": "Feature", "geometry": {"type": "Point", "coordinates": [100.54192, 13.71042], "crs": null}, "properties": {"name": "ถ.นางลิ้นจี่ ช่วงแยกถ.เย็นอากาศ", "code": "FL.STN.06", "district": "สาทร", "flood": 0, "device_status": "normal", "road": "ถนนนางลิ้นจี่", "date_updated": "2025-03-03T07:20:15.396Z"}}, {"type": "Feature", "geometry": {"type": "Point", "coordinates": [100.4781, 13.7547], "crs": null}, "properties": {"name": "ถ.อิสรภาพ ช่วงตลาดพรานนก", "code": "FL.BKN.01", "district": "บางกอกน้อย", "flood": 0, "device_status": "normal", "road": "ถนนอิสรภาพ", "date_updated": "2025-03-03T07:19:52.673Z"}}, {"type": "Feature", "geometry": {"type": "Point", "coordinates": [100.6161, 13.74133], "crs": null}, "properties": {"name": "อ.พระราม 9(ขาเข้า)", "code": "TN.HKG.03(IN)", "district": "ห้วยขวาง", "flood": 0, "device_status": "malfunction", "road": "ถนนพระราม 9 ", "date_updated": "2025-03-03T07:20:21.018Z"}}, {"type": "Feature", "geometry": {"type": "Point", "coordinates": [100.45061, 13.71736], "crs": null}, "properties": {"name": "ถ.เพชรเกษม ซ.เพชรเกษม 42", "code": "FL.PSC.01", "district": "ภาษีเจริญ", "flood": 0, "device_status": "normal", "road": "ถนนเพชรเกษม", "date_updated": "2025-03-03T07:20:08.954Z"}}, {"type": "Feature", "geometry": {"type": "Point", "coordinates": [100.61122, 13.75324], "crs": null}, "properties": {"name": "ถ.รามคำแหง ช่วง ซ.รามคำแหง 19/1", "code": "FL.BKP.08", "district": "บางกะปิ", "flood": 0, "device_status": "normal", "road": "ถนนรามคำแหง", "date_updated": "2025-03-03T07:19:53.825Z"}}, {"type": "Feature", "geometry": {"type": "Point", "coordinates": [100.60587, 13.67062], "crs": null}, "properties": {"name": "ถ.สุขุมวิท ช่วงแยกบางนา", "code": "FL.BNA.03", "district": "บางนา", "flood": 0, "device_status": "normal", "road": "ถนนสุขุมวิท", "date_updated": "2025-03-03T07:19:55.325Z"}}, {"type": "Feature", "geometry": {"type": "Point", "coordinates": [100.52407, 13.75812], "crs": null}, "properties": {"name": "ถ.พระรามที่ 6 ช่วงตลาดประแจจีน", "code": "FL.RTW.05", "district": "ราชเทวี", "flood": 0, "device_status": "normal", "road": "ถนนพระราม 6", "date_updated": "2025-03-03T07:20:12.269Z"}}, {"type": "Feature", "geometry": {"type": "Point", "coordinates": [100.60946, 13.73759], "crs": null}, "properties": {"name": "ถ.พัฒนาการ ช่วงธนาคารกรุงไทย ", "code": "FL.SLG.03", "district": "สวนหลวง", "flood": 0, "device_status": "normal", "road": "ถนนพัฒนาการ", "date_updated": "2025-03-03T07:20:13.690Z"}}, {"type": "Feature", "geometry": {"type": "Point", "coordinates": [100.56467, 13.72218], "crs": null}, "properties": {"name": "ซ.สุขุมวิท 22 (ด้านถนนพระรามที่ 4)", "code": "FL.KTY.02", "district": "คลองเตย", "flood": 0, "device_status": "normal", "road": "ซอยสุขุมวิท 22", "date_updated": "2025-03-03T07:20:02.970Z"}}, {"type": "Feature", "geometry": {"type": "Point", "coordinates": [100.79265, 13.721], "crs": null}, "properties": {"name": "ถ.หลวงแพ่ง ช่วงโลตัสลาดกระบัง", "code": "FL.LKB.03", "district": "ลาดกระบัง", "flood": 0, "device_status": "normal", "road": "ถนนหลวงแพ่ง", "date_updated": "2025-03-03T07:20:04.536Z"}}, {"type": "Feature", "geometry": {"type": "Point", "coordinates": [100.5369, 13.72291], "crs": null}, "properties": {"name": "ถ.สาทรใต้ ช่วง ซ.สาทร3", "code": "FL.STN.05", "district": "สาทร", "flood": 0, "device_status": "normal", "road": "ถนนสาทรใต้", "date_updated": "2025-03-03T07:20:15.286Z"}}, {"type": "Feature", "geometry": {"type": "Point", "coordinates": [100.59217, 13.71467], "crs": null}, "properties": {"name": "ถ.สุขุมวิท ช่วง ซ.สุขุมวิท 69", "code": "FL.WTN.07", "district": "วัฒนา", "flood": 0, "device_status": "normal", "road": "ถนนสุขุมวิท", "date_updated": "2025-03-03T07:20:18.967Z"}}, {"type": "Feature", "geometry": {"type": "Point", "coordinates": [100.40152, 13.61895], "crs": null}, "properties": {"name": "ถ.บางกระดี่ ช่วงหน้าตลาดบางกระดี่", "code": "FL.BKT.04", "district": "บางขุนเทียน", "flood": 0, "device_status": "normal", "road": "ถนนบางกระดี่", "date_updated": "2025-03-03T07:19:54.810Z"}}, {"type": "Feature", "geometry": {"type": "Point", "coordinates": [100.54821, 13.85473], "crs": null}, "properties": {"name": "ถ.งามวงศ์วาน แยกพงษ์เพชร", "code": "FL.LSI.02", "district": "หลักสี่", "flood": 0, "device_status": "normal", "road": "ถนนงามวงค์วาน", "date_updated": "2025-03-03T07:20:06.607Z"}}, {"type": "Feature", "geometry": {"type": "Point", "coordinates": [100.52693, 13.755], "crs": null}, "properties": {"name": "ถ.เพชรบุรี ช่วงแยกเพชรพระราม", "code": "FL.RTW.13", "district": "ราชเทวี", "flood": 0, "device_status": "normal", "road": "ถนนเพชรบุรี", "date_updated": "2025-03-03T07:20:13.315Z"}}, {"type": "Feature", "geometry": {"type": "Point", "coordinates": [100.60602, 13.6959], "crs": null}, "properties": {"name": "ถ.สุขุมวิท ช่วงซอยสุขุมวิท 62", "code": "FL.PKN.01", "district": "พระโขนง", "flood": 0, "device_status": "normal", "road": "ถนนสุขุมวิท", "date_updated": "2025-03-03T07:20:08.065Z"}}, {"type": "Feature", "geometry": {"type": "Point", "coordinates": [100.53897, 13.71604], "crs": null}, "properties": {"name": "ถ.สวนพลู ช่วงแยกเทคนิคกรุงเทพ", "code": "FL.STN.07", "district": "สาทร", "flood": 0, "device_status": "normal", "road": "ถนนสวนพลู", "date_updated": "2025-03-03T07:20:15.502Z"}}, {"type": "Feature", "geometry": {"type": "Point", "coordinates": [100.63056, 13.73702], "crs": null}, "properties": {"name": "อ.พัฒนาการ(ขาเข้า)", "code": "TN.SLG.01(IN)", "district": "สวนหลวง", "flood": 0, "device_status": "normal", "road": "ถนนพัฒนาการ", "date_updated": "2025-03-03T07:20:21.259Z"}}, {"type": "Feature", "geometry": {"type": "Point", "coordinates": [100.81426, 13.71289], "crs": null}, "properties": {"name": "ถ.หลวงแพ่ง ช่วงโรงเรียนแสงหิรัญวิทยา", "code": "FL.LKB.02", "district": "ลาดกระบัง", "flood": 0, "device_status": "normal", "road": "ถนนหลวงแพ่ง", "date_updated": "2025-03-03T07:20:04.411Z"}}, {"type": "Feature", "geometry": {"type": "Point", "coordinates": [100.49927, 13.6992], "crs": null}, "properties": {"name": "ถ.เจริญกรุง ช่วง ซ.เจริญกรุง 82", "code": "FL.BKL.02", "district": "บางคอแหลม", "flood": 0, "device_status": "normal", "road": "ถนนเจริญกรุง", "date_updated": "2025-03-03T07:19:51.692Z"}}, {"type": "Feature", "geometry": {"type": "Point", "coordinates": [100.60887, 13.78651], "crs": null}, "properties": {"name": "ถ.ลาดพร้าว ช่วงตัดถนนประดิษฐ์มนูธรรม", "code": "FL.WTL.01", "district": "วังทองหลาง", "flood": 0, "device_status": "normal", "road": "ถนนลาดพร้าว", "date_updated": "2025-03-03T07:20:16.803Z"}}, {"type": "Feature", "geometry": {"type": "Point", "coordinates": [100.60853, 13.82742], "crs": null}, "properties": {"name": "ถ.เสนานิคม 1 ช่วง ซ.เสนานิเวศน์ 112", "code": "FL.LPW.06", "district": "ลาดพร้าว", "flood": 0, "device_status": "normal", "road": "ถนนเสนานิคม", "date_updated": "2025-03-28T04:13:16.659Z"}}, {"type": "Feature", "geometry": {"type": "Point", "coordinates": [100.50231, 13.7662], "crs": null}, "properties": {"name": "ถ.วิสุทธิ์กษัตริย์  หน้าวัดอินทรวิหาร", "code": "FL.PNK.02", "district": "พระนคร", "flood": 0, "device_status": "normal", "road": "ถนนวิสุทธิ์กษัตริย์ ", "date_updated": "2025-03-03T07:20:08.597Z"}}, {"type": "Feature", "geometry": {"type": "Point", "coordinates": [100.50473, 13.70408], "crs": null}, "properties": {"name": "ถ.เจริญกรุง ช่วงตรงข้ามเอเชียทีค", "code": "FL.BKL.03", "district": "บางคอแหลม", "flood": 0, "device_status": "normal", "road": "ถนนเจริญกรุง", "date_updated": "2025-03-03T07:19:51.796Z"}}, {"type": "Feature", "geometry": {"type": "Point", "coordinates": [100.53064, 13.75946], "crs": null}, "properties": {"name": "ถ.ศรีอยุธยา ช่วงโรงเรียนสันติราษฏร์วิทยาลัย", "code": "FL.RTW.07", "district": "ราชเทวี", "flood": 0, "device_status": "normal", "road": "ถนนศรีอยุธยา", "date_updated": "2025-03-03T07:20:12.561Z"}}, {"type": "Feature", "geometry": {"type": "Point", "coordinates": [100.37773, 13.71369], "crs": null}, "properties": {"name": "ถ.หมู่บ้านเศรษฐกิจ ช่วง ซ.เศรษฐกิจ 5", "code": "FL.BKE.06", "district": "บางแค", "flood": 0, "device_status": "normal", "road": "ถนนหมู่บ้านเศรษฐกิจ", "date_updated": "2025-03-03T07:19:51.548Z"}}, {"type": "Feature", "geometry": {"type": "Point", "coordinates": [100.50453, 13.62852], "crs": null}, "properties": {"name": "ถ.ประชาอุทิศ ช่วง ซ.ประชาอุทิศ 74/1", "code": "FL.TKU.03", "district": "ทุ่งครุ", "flood": 0, "device_status": "normal", "road": "ถนนประชาอุทิศ", "date_updated": "2025-03-03T07:20:16.442Z"}}, {"type": "Feature", "geometry": {"type": "Point", "coordinates": [100.46802, 13.78705], "crs": null}, "properties": {"name": "ถ.บรมราชชนนี ช่วงสายใต้", "code": "FL.BKN.02", "district": "บางกอกน้อย", "flood": 0, "device_status": "normal", "road": "ถนนบรมราชชนนี", "date_updated": "2025-03-03T07:19:52.806Z"}}, {"type": "Feature", "geometry": {"type": "Point", "coordinates": [100.60956, 13.67895], "crs": null}, "properties": {"name": "ถ.อุดมสุข ช่วงซอยอุดมสุข 1", "code": "FL.BNA.05", "district": "บางนา", "flood": 0, "device_status": "normal", "road": "ถนนอุดมสุข", "date_updated": "2025-03-03T07:19:55.575Z"}}, {"type": "Feature", "geometry": {"type": "Point", "coordinates": [100.5146, 13.81618], "crs": null}, "properties": {"name": "ถ.ประชาราษฎร์สาย 1 ช่วงใต้สะพานพระราม7", "code": "FL.BSU.02", "district": "บางซื่อ", "flood": 0, "device_status": "normal", "road": "ถนนประชาราษฎร์สาย", "date_updated": "2025-03-03T07:19:56.743Z"}}, {"type": "Feature", "geometry": {"type": "Point", "coordinates": [100.78194, 13.75187], "crs": null}, "properties": {"name": "ถ.เจ้าคุณทหาร ปั้มน้ำมัน PT สาขาเจ้าคุณทหาร2", "code": "FL.LKB.10", "district": "ลาดกระบัง", "flood": 0, "device_status": "normal", "road": "ถนนเจ้าคุณทหาร", "date_updated": "2025-03-03T07:20:05.467Z"}}, {"type": "Feature", "geometry": {"type": "Point", "coordinates": [100.36087, 13.68637], "crs": null}, "properties": {"name": "ถ.เลียบคลองภาษีเจริญฝั่งเหนือ ซ.10", "code": "FL.NKM.01", "district": "หนองแขม", "flood": 0, "device_status": "normal", "road": "ถนนเลียบคลองภาษีเจริญฝั่งเหนือ", "date_updated": "2025-03-03T07:20:07.815Z"}}]}