{"type": "FeatureCollection", "features": [{"type": "Feature", "geometry": {"type": "Point", "coordinates": [100.51141, 13.61632], "crs": null}, "properties": {"sump_name": "บ่อสูบน้ำคลองตาถึง", "sump_code": "BW.S.032", "district_t": "ทุ่งครุ", "sump_type": "บ่อสูบน้ำ", "volume": 168, "sump_depth": 4.2, "pump_amount": "3"}}, {"type": "Feature", "geometry": {"type": "Point", "coordinates": [100.51139, 13.61801], "crs": null}, "properties": {"sump_name": "บ่อสูบน้ำหนองรี", "sump_code": "BW.S.031", "district_t": "ทุ่งครุ", "sump_type": "บ่อสูบน้ำ", "volume": 168, "sump_depth": 4.2, "pump_amount": "3"}}, {"type": "Feature", "geometry": {"type": "Point", "coordinates": [100.50897, 13.62379], "crs": null}, "properties": {"sump_name": "บ่อสูบน้ำคลองรางตรง จุดที่ 2 ปิยวรรณแมนชั่น", "sump_code": "BW.S.030", "district_t": "ทุ่งครุ", "sump_type": "บ่อสูบน้ำ", "volume": 168, "sump_depth": 4.2, "pump_amount": "3"}}, {"type": "Feature", "geometry": {"type": "Point", "coordinates": [100.50849, 13.62417], "crs": null}, "properties": {"sump_name": "บ่อสูบน้ำคลองรางตรง จุดที่ 1 PUK เบเกอรี่", "sump_code": "BW.S.029", "district_t": "ทุ่งครุ", "sump_type": "บ่อสูบน้ำ", "volume": 168, "sump_depth": 4.2, "pump_amount": "3"}}, {"type": "Feature", "geometry": {"type": "Point", "coordinates": [100.4346, 13.62768], "crs": null}, "properties": {"sump_name": "บ่อสูบน้ำจงสถิตย์", "sump_code": "BW.S.005", "district_t": "บางขุนเทียน", "sump_type": "บ่อสูบน้ำ", "volume": 584.35, "sump_depth": 6.5, "pump_amount": "4"}}, {"type": "Feature", "geometry": {"type": "Point", "coordinates": [100.50258, 13.635], "crs": null}, "properties": {"sump_name": "บ่อสูบน้ำคลองรางจาก", "sump_code": "BW.S.008", "district_t": "ทุ่งครุ", "sump_type": "บ่อสูบน้ำ", "volume": 149.6, "sump_depth": 4.4, "pump_amount": "3"}}, {"type": "Feature", "geometry": {"type": "Point", "coordinates": [100.43639, 13.63738], "crs": null}, "properties": {"sump_name": "บ่อสูบน้ำบึงรางเข้ ตอนลงคลองราชมนตรี", "sump_code": "BW.S.004", "district_t": "บางขุนเทียน", "sump_type": "บ่อสูบน้ำ", "volume": 89.24, "sump_depth": 3.6, "pump_amount": "1"}}, {"type": "Feature", "geometry": {"type": "Point", "coordinates": [100.433, 13.64086], "crs": null}, "properties": {"sump_name": "บ่อสูบน้ำบึงรางเข้", "sump_code": "BW.S.003", "district_t": "บางขุนเทียน", "sump_type": "บ่อสูบน้ำ", "volume": 121.72, "sump_depth": 3.6, "pump_amount": "2"}}, {"type": "Feature", "geometry": {"type": "Point", "coordinates": [100.42983, 13.65631], "crs": null}, "properties": {"sump_name": "บ่อสูบน้ำข้างโรงรับจำนำ", "sump_code": "BW.S.002", "district_t": "บางขุนเทียน", "sump_type": "บ่อสูบน้ำ", "volume": 18.52, "sump_depth": 2.45, "pump_amount": "2"}}, {"type": "Feature", "geometry": {"type": "Point", "coordinates": [100.62753, 13.6603], "crs": null}, "properties": {"sump_name": "บ่อสูบน้ำคูน้ำซอยลาซาลเพรนด้า", "sump_code": "BE.S.050", "district_t": "บางนา", "sump_type": "บ่อสูบน้ำ", "volume": 66.12, "sump_depth": 2.9, "pump_amount": "3"}}, {"type": "Feature", "geometry": {"type": "Point", "coordinates": [100.60223, 13.6619], "crs": null}, "properties": {"sump_name": "บ่อสูบน้ำปากซอยลาซาล ถนนสุขุมวิท", "sump_code": "BE.S.051", "district_t": "บางนา", "sump_type": "บ่อสูบน้ำ", "volume": 2.4, "sump_depth": 2, "pump_amount": "1"}}, {"type": "Feature", "geometry": {"type": "Point", "coordinates": [100.60216, 13.66236], "crs": null}, "properties": {"sump_name": "บ่อสูบน้ำซอยสุขุมวิท 70/4", "sump_code": "BE.S.052", "district_t": "บางนา", "sump_type": "บ่อสูบน้ำ", "volume": 21.7, "sump_depth": 3.5, "pump_amount": "2"}}, {"type": "Feature", "geometry": {"type": "Point", "coordinates": [100.60263, 13.66293], "crs": null}, "properties": {"sump_name": "บ่อสูบน้ำหน้าปั๊มเชลลาซาล ถนนสุขุมวิท", "sump_code": "BE.S.049", "district_t": "บางนา", "sump_type": "บ่อสูบน้ำ", "volume": 11.96, "sump_depth": 2.3, "pump_amount": "3"}}, {"type": "Feature", "geometry": {"type": "Point", "coordinates": [100.6028, 13.66346], "crs": null}, "properties": {"sump_name": "บ่อสูบน้ำ PIPE JACKING แบริ่ง ลาซาล", "sump_code": "BE.S.053", "district_t": "บางนา", "sump_type": "บ่อสูบน้ำ", "volume": 425.6, "sump_depth": 8, "pump_amount": "3"}}, {"type": "Feature", "geometry": {"type": "Point", "coordinates": [100.60362, 13.66524], "crs": null}, "properties": {"sump_name": "บ่อสูบน้ำไอดีโอ ถนนสุขุมวิท", "sump_code": "BE.S.048", "district_t": "บางนา", "sump_type": "บ่อสูบน้ำ", "volume": 5.3, "sump_depth": 2.6, "pump_amount": "1"}}, {"type": "Feature", "geometry": {"type": "Point", "coordinates": [100.63346, 13.66844], "crs": null}, "properties": {"sump_name": "บ่อสูบน้ำคลองหลอด 3", "sump_code": "BE.S.045", "district_t": "บางนา", "sump_type": "บ่อสูบน้ำ", "volume": 168.75, "sump_depth": 2.5, "pump_amount": "3"}}, {"type": "Feature", "geometry": {"type": "Point", "coordinates": [100.60484, 13.66887], "crs": null}, "properties": {"sump_name": "บ่อสูบน้ำสุขุมวิท หน้าไปรษณีย์", "sump_code": "BE.S.041", "district_t": "บางนา", "sump_type": "บ่อสูบน้ำ", "volume": 60.8, "sump_depth": 4, "pump_amount": "3"}}, {"type": "Feature", "geometry": {"type": "Point", "coordinates": [100.60514, 13.6689], "crs": null}, "properties": {"sump_name": "บ่อสูบน้ำสุขุมวิท หน้ากรมอุตุฯ", "sump_code": "BE.S.042", "district_t": "บางนา", "sump_type": "บ่อสูบน้ำ", "volume": 117.78, "sump_depth": 4.3, "pump_amount": "4"}}, {"type": "Feature", "geometry": {"type": "Point", "coordinates": [100.60544, 13.66964], "crs": null}, "properties": {"sump_name": "บ่อสูบน้ำใต้สะพานคลองบางนา", "sump_code": "BE.S.040", "district_t": "บางนา", "sump_type": "บ่อสูบน้ำ", "volume": 46, "sump_depth": 4.6, "pump_amount": "3"}}, {"type": "Feature", "geometry": {"type": "Point", "coordinates": [100.60466, 13.68589], "crs": null}, "properties": {"sump_name": "บ่อสูบน้ำสุขุมวิท 64", "sump_code": "BE.S.037", "district_t": "พระโขนง", "sump_type": "บ่อสูบน้ำ", "volume": 142.56, "sump_depth": 5.5, "pump_amount": "4"}}, {"type": "Feature", "geometry": {"type": "Point", "coordinates": [100.62255, 13.67061], "crs": null}, "properties": {"sump_name": "บ่อสูบน้ำคลองหลอด 2", "sump_code": "BE.S.044", "district_t": "บางนา", "sump_type": "บ่อสูบน้ำ", "volume": 212.85, "sump_depth": 4.3, "pump_amount": "3"}}, {"type": "Feature", "geometry": {"type": "Point", "coordinates": [100.64425, 13.67063], "crs": null}, "properties": {"sump_name": "บ่อสูบน้ำคลองเคล็ด วัดศรีเอี่ยม", "sump_code": "BE.S.047", "district_t": "บางนา", "sump_type": "บ่อสูบน้ำ", "volume": 150, "sump_depth": 3, "pump_amount": "6"}}, {"type": "Feature", "geometry": {"type": "Point", "coordinates": [100.60675, 13.67254], "crs": null}, "properties": {"sump_name": "บ่อสูบน้ำแยกบางนา ถนนสุขุมวิท", "sump_code": "BE.S.046", "district_t": "บางนา", "sump_type": "บ่อสูบน้ำ", "volume": 208.94, "sump_depth": 5.2, "pump_amount": "2"}}, {"type": "Feature", "geometry": {"type": "Point", "coordinates": [100.42963, 13.67616], "crs": null}, "properties": {"sump_name": "บ่อสูบน้ำถนนเอกชัย ตอนลงคลองราชมนตรี", "sump_code": "BW.S.014", "district_t": "บางบอน", "sump_type": "บ่อสูบน้ำ", "volume": 4.32, "sump_depth": 3, "pump_amount": "1"}}, {"type": "Feature", "geometry": {"type": "Point", "coordinates": [100.34486, 13.67972], "crs": null}, "properties": {"sump_name": "บ่อสูบน้ำซอยเพชรเกษม 81 (ใต้สะพานข้ามคลองภาษีเจริญ)", "sump_code": "BW.S.054", "district_t": "หนองแขม", "sump_type": "บ่อสูบน้ำ", "volume": 194.51, "sump_depth": 3.35, "pump_amount": "1"}}, {"type": "Feature", "geometry": {"type": "Point", "coordinates": [100.60724, 13.68234], "crs": null}, "properties": {"sump_name": "บ่อสูบน้ำซอยสุขุมวิท 66/1", "sump_code": "BE.S.043", "district_t": "พระโขนง", "sump_type": "บ่อสูบน้ำ", "volume": 525, "sump_depth": 5, "pump_amount": "4"}}, {"type": "Feature", "geometry": {"type": "Point", "coordinates": [100.35501, 13.68443], "crs": null}, "properties": {"sump_name": "บ่อสูบน้ำคำหลิ่ม", "sump_code": "BW.S.055", "district_t": "หนองแขม", "sump_type": "บ่อสูบน้ำ", "volume": 67.13, "sump_depth": 3.05, "pump_amount": "3"}}, {"type": "Feature", "geometry": {"type": "Point", "coordinates": [100.36389, 13.68582], "crs": null}, "properties": {"sump_name": "บ่อสูบน้ำเลียบคลองภาษีเจริญ ฝั่งเหนือ ซอย 3", "sump_code": "BW.S.050", "district_t": "หนองแขม", "sump_type": "บ่อสูบน้ำ", "volume": 119.3, "sump_depth": 3.24, "pump_amount": "4"}}, {"type": "Feature", "geometry": {"type": "Point", "coordinates": [100.42631, 13.68601], "crs": null}, "properties": {"sump_name": "บ่อสูบน้ำคลองบางโคลัด(ฝั่งขาเข้า) ถนนบางบอน1", "sump_code": "BW.S.006", "district_t": "บางบอน", "sump_type": "บ่อสูบน้ำ", "volume": 156.4, "sump_depth": 4.6, "pump_amount": "4"}}, {"type": "Feature", "geometry": {"type": "Point", "coordinates": [100.42638, 13.68631], "crs": null}, "properties": {"sump_name": "บ่อสูบน้ำคลองบางโคลัด(ฝั่งขาออก) ถนนบางบอน1", "sump_code": "BW.S.007", "district_t": "บางบอน", "sump_type": "บ่อสูบน้ำ", "volume": 36, "sump_depth": 3.6, "pump_amount": "1"}}, {"type": "Feature", "geometry": {"type": "Point", "coordinates": [100.3803, 13.69309], "crs": null}, "properties": {"sump_name": "บ่อสูบน้ำเลียบคลองภาษีเจริญ ฝั่งเหนือ ตอนคลองทวีวัฒนา", "sump_code": "BW.S.049", "district_t": "หนองแขม", "sump_type": "บ่อสูบน้ำ", "volume": 10.51, "sump_depth": 4.12, "pump_amount": "2"}}, {"type": "Feature", "geometry": {"type": "Point", "coordinates": [100.49253, 13.69312], "crs": null}, "properties": {"sump_name": "บ่อสูบน้ำถนนตก", "sump_code": "BS.S.041", "district_t": "บางคอแหลม", "sump_type": "บ่อสูบน้ำ", "volume": 118.32, "sump_depth": 4, "pump_amount": "3"}}, {"type": "Feature", "geometry": {"type": "Point", "coordinates": [100.36999, 13.69457], "crs": null}, "properties": {"sump_name": "บ่อสูบน้ำเลียบคลองภาษีเจริญ ซอย 8", "sump_code": "BW.S.057", "district_t": "หนองแขม", "sump_type": "บ่อสูบน้ำ", "volume": 9.28, "sump_depth": 2, "pump_amount": "1"}}, {"type": "Feature", "geometry": {"type": "Point", "coordinates": [100.48037, 13.69399], "crs": null}, "properties": {"sump_name": "บ่อสูบน้ำโรงไม้จอมทอง", "sump_code": "BW.S.001", "district_t": "จอมทอง", "sump_type": "บ่อสูบน้ำ", "volume": 588, "sump_depth": 3.5, "pump_amount": "3"}}, {"type": "Feature", "geometry": {"type": "Point", "coordinates": [100.48833, 13.69505], "crs": null}, "properties": {"sump_name": "บ่อสูบน้ำหลังวัดดาวคะนอง", "sump_code": "BW.S.028", "district_t": "ธนบุรี", "sump_type": "บ่อสูบน้ำ", "volume": 40.57, "sump_depth": 3.5, "pump_amount": "1"}}, {"type": "Feature", "geometry": {"type": "Point", "coordinates": [100.47157, 13.69831], "crs": null}, "properties": {"sump_name": "บ่อสูบน้ำข้างธนาคารทหารไทย ถนนจอมทอง", "sump_code": "BW.S.012", "district_t": "จอมทอง", "sump_type": "บ่อสูบน้ำ", "volume": 46.2, "sump_depth": 2.75, "pump_amount": "3"}}, {"type": "Feature", "geometry": {"type": "Point", "coordinates": [100.54893, 13.69791], "crs": null}, "properties": {"sump_name": "บ่อสูบน้ำนางลิ้นจี่", "sump_code": "BS.S.047", "district_t": "ยานนาวา", "sump_type": "บ่อสูบน้ำ", "volume": 394.2, "sump_depth": 6, "pump_amount": "3"}}, {"type": "Feature", "geometry": {"type": "Point", "coordinates": [100.6032, 13.69752], "crs": null}, "properties": {"sump_name": "บ่อสูบสุขุมวิท 60/1", "sump_code": "BE.S.038", "district_t": "พระโขนง", "sump_type": "บ่อสูบน้ำ", "volume": 239.4, "sump_depth": 4.5, "pump_amount": "3"}}, {"type": "Feature", "geometry": {"type": "Point", "coordinates": [100.46401, 13.69898], "crs": null}, "properties": {"sump_name": "บ่อสูบน้ำใต้สะพานบางขุนเทียน", "sump_code": "BW.S.013", "district_t": "จอมทอง", "sump_type": "บ่อสูบน้ำ", "volume": 15, "sump_depth": 2.5, "pump_amount": "2"}}, {"type": "Feature", "geometry": {"type": "Point", "coordinates": [100.64699, 13.69806], "crs": null}, "properties": {"sump_name": "บ่อสูบน้ำคลองขวาง ถนนศรีนครินทร์ขาเข้า(หัวม้าลาย)", "sump_code": "BE.S.034", "district_t": "ประเวศ", "sump_type": "บ่อสูบน้ำ", "volume": 52.8, "sump_depth": 4, "pump_amount": "2"}}, {"type": "Feature", "geometry": {"type": "Point", "coordinates": [100.64733, 13.69817], "crs": null}, "properties": {"sump_name": "บ่อสูบน้ำคลองขวาง ถนนศรีนครินทร์ขาออก ซีคอน", "sump_code": "BE.S.036", "district_t": "ประเวศ", "sump_type": "บ่อสูบน้ำ", "volume": 36.27, "sump_depth": 2.6, "pump_amount": "2"}}, {"type": "Feature", "geometry": {"type": "Point", "coordinates": [100.63823, 13.69876], "crs": null}, "properties": {"sump_name": "บ่อสูบน้ำหมู่บ้านมิตรภาพ 2-3", "sump_code": "BE.S.035", "district_t": "ประเวศ", "sump_type": "บ่อสูบน้ำ", "volume": 196.56, "sump_depth": 4.2, "pump_amount": "3"}}, {"type": "Feature", "geometry": {"type": "Point", "coordinates": [100.49041, 13.70171], "crs": null}, "properties": {"sump_name": "บ่อสูบน้ำใต้สะพานกรุงเทพ", "sump_code": "BW.S.027", "district_t": "ธนบุรี", "sump_type": "บ่อสูบน้ำ", "volume": 19.15, "sump_depth": 2.4, "pump_amount": "1"}}, {"type": "Feature", "geometry": {"type": "Point", "coordinates": [100.38846, 13.70286], "crs": null}, "properties": {"sump_name": "บ่อสูบน้ำซอยเพชรเกษม 63/2", "sump_code": "BW.S.040", "district_t": "บางแค", "sump_type": "บ่อสูบน้ำ", "volume": 180.4, "sump_depth": 4.1, "pump_amount": "4"}}, {"type": "Feature", "geometry": {"type": "Point", "coordinates": [100.59015, 13.70289], "crs": null}, "properties": {"sump_name": "บ่อสูบน้ำสุขุมวิท? 50", "sump_code": "BS.S.054", "district_t": "คลองเตย", "sump_type": "บ่อสูบน้ำ", "volume": 68.75, "sump_depth": 5.5, "pump_amount": "1"}}, {"type": "Feature", "geometry": {"type": "Point", "coordinates": [100.64031, 13.70424], "crs": null}, "properties": {"sump_name": "บ่อสูบน้ำหมู่บ้านมิตรภาพ 1", "sump_code": "BE.S.033", "district_t": "สวนหลวง", "sump_type": "บ่อสูบน้ำ", "volume": 21.6, "sump_depth": 3.6, "pump_amount": "2"}}, {"type": "Feature", "geometry": {"type": "Point", "coordinates": [100.37375, 13.7078], "crs": null}, "properties": {"sump_name": "บ่อสูบน้ำซอยเพชรเกษม 69 (อินทปัจ)", "sump_code": "BW.S.068", "district_t": "บางแค", "sump_type": "บ่อสูบน้ำ", "volume": 52.59, "sump_depth": 8, "pump_amount": "2"}}, {"type": "Feature", "geometry": {"type": "Point", "coordinates": [100.49927, 13.70726], "crs": null}, "properties": {"sump_name": "บ่อสูบน้ำชุมชนชัยโพธิ์ทอง เจริญนคร 55", "sump_code": "BW.S.033", "district_t": "คลองสาน", "sump_type": "บ่อสูบน้ำ", "volume": 46.38, "sump_depth": 3.4, "pump_amount": "1"}}, {"type": "Feature", "geometry": {"type": "Point", "coordinates": [100.53766, 13.70705], "crs": null}, "properties": {"sump_name": "บ่อสูบน้ำถนนจันทน์", "sump_code": "BS.S.043", "district_t": "ยานนาวา", "sump_type": "บ่อสูบน้ำ", "volume": 604.8, "sump_depth": 7.5, "pump_amount": "4"}}, {"type": "Feature", "geometry": {"type": "Point", "coordinates": [100.37358, 13.70809], "crs": null}, "properties": {"sump_name": "บ่อสูบน้ำตรงข้าม ซอยเพชรเกษม 69", "sump_code": "BW.S.042", "district_t": "บางแค", "sump_type": "บ่อสูบน้ำ", "volume": 27, "sump_depth": 6, "pump_amount": "1"}}, {"type": "Feature", "geometry": {"type": "Point", "coordinates": [100.52039, 13.70879], "crs": null}, "properties": {"sump_name": "บ่อสูบน้ำบำเพ็ญกุศล", "sump_code": "BS.S.045", "district_t": "สาทร", "sump_type": "บ่อสูบน้ำ", "volume": 11.61, "sump_depth": 1, "pump_amount": "3"}}, {"type": "Feature", "geometry": {"type": "Point", "coordinates": [100.51932, 13.70904], "crs": null}, "properties": {"sump_name": "บ่อสูบถนนจันทน์ ตอนถนนเจริญราษฎร์ (อยู่ระหว่างดำเนินการก่อสร้าง)", "sump_code": "BS.S.044", "district_t": "สาทร", "sump_type": "บ่อสูบน้ำ", "volume": 368.55, "sump_depth": 9, "pump_amount": "1"}}, {"type": "Feature", "geometry": {"type": "Point", "coordinates": [100.40689, 13.71093], "crs": null}, "properties": {"sump_name": "บ่อสูบน้ำแก้มลิงเพชรเกษม", "sump_code": "BW.S.015", "district_t": "บางแค", "sump_type": "บ่อสูบน้ำ", "volume": 148.07, "sump_depth": 3.25, "pump_amount": "1"}}, {"type": "Feature", "geometry": {"type": "Point", "coordinates": [100.41752, 13.71137], "crs": null}, "properties": {"sump_name": "บ่อสูบน้ำคลองยายเทียบ ถ.เพชรเกษม ฝั่งขาออก (นันยาง)", "sump_code": "BW.S.038", "district_t": "บางแค", "sump_type": "บ่อสูบน้ำ", "volume": 48.61, "sump_depth": 3.1, "pump_amount": "2"}}, {"type": "Feature", "geometry": {"type": "Point", "coordinates": [100.41796, 13.71139], "crs": null}, "properties": {"sump_name": "บ่อสูบน้ำคลองยายเทียบ ถ.เพชรเกษม ฝั่งขาออก (หน้าร้านตัดผม)", "sump_code": "BW.S.039", "district_t": "บางแค", "sump_type": "บ่อสูบน้ำ", "volume": 16.25, "sump_depth": 2.8, "pump_amount": "1"}}, {"type": "Feature", "geometry": {"type": "Point", "coordinates": [100.37576, 13.71171], "crs": null}, "properties": {"sump_name": "บ่อสูบน้ำหมู่บ้านเศรษฐกิจ ซอย 27", "sump_code": "BW.S.063", "district_t": "บางแค", "sump_type": "บ่อสูบน้ำ", "volume": 18.46, "sump_depth": 3.18, "pump_amount": "1"}}, {"type": "Feature", "geometry": {"type": "Point", "coordinates": [100.40705, 13.71168], "crs": null}, "properties": {"sump_name": "บ่อสูบน้ำแก้มลิงเพชรเกษม ตอนลงบึงสวนกาญจนารมย์", "sump_code": "BW.S.016", "district_t": "บางแค", "sump_type": "บ่อสูบน้ำ", "volume": 38.4, "sump_depth": 3, "pump_amount": "2"}}, {"type": "Feature", "geometry": {"type": "Point", "coordinates": [100.41792, 13.71176], "crs": null}, "properties": {"sump_name": "บ่อสูบน้ำคลองยายเทียบ ถ. เพขรเกษม (ขาเข้า โลตัส)", "sump_code": "BW.S.046", "district_t": "บางแค", "sump_type": "บ่อสูบน้ำ", "volume": 9.01, "sump_depth": 3.15, "pump_amount": "1"}}, {"type": "Feature", "geometry": {"type": "Point", "coordinates": [100.41781, 13.71178], "crs": null}, "properties": {"sump_name": "บ่อสูบน้ำคลองยายเทียบ ถ.เพชรเกษม (ขาเข้า ที่พักดับเพลิง)", "sump_code": "BW.S.045", "district_t": "บางแค", "sump_type": "บ่อสูบน้ำ", "volume": 39.96, "sump_depth": 3.6, "pump_amount": "3"}}, {"type": "Feature", "geometry": {"type": "Point", "coordinates": [100.37761, 13.71201], "crs": null}, "properties": {"sump_name": "บ่อสูบน้ำหมู่บ้านเศรษฐกิจ (คลองบางจาก ขาเข้า)", "sump_code": "BW.S.062", "district_t": "บางแค", "sump_type": "บ่อสูบน้ำ", "volume": 4.84, "sump_depth": 1.8, "pump_amount": "2"}}, {"type": "Feature", "geometry": {"type": "Point", "coordinates": [100.37775, 13.71206], "crs": null}, "properties": {"sump_name": "บ่อสูบน้ำหมู่บ้านเศรษฐกิจ (คลองบางจาก) ขาออก", "sump_code": "BW.S.051", "district_t": "บางแค", "sump_type": "บ่อสูบน้ำ", "volume": 9.15, "sump_depth": 3.2, "pump_amount": "1"}}, {"type": "Feature", "geometry": {"type": "Point", "coordinates": [100.59755, 13.71086], "crs": null}, "properties": {"sump_name": "บ่อสูบน้ำใต้สะพานพระโขนง ฝั่งอ่อนนุช", "sump_code": "BE.S.039", "district_t": "วัฒนา", "sump_type": "บ่อสูบน้ำ", "volume": 372.4, "sump_depth": 5.6, "pump_amount": "4"}}, {"type": "Feature", "geometry": {"type": "Point", "coordinates": [100.59706, 13.71096], "crs": null}, "properties": {"sump_name": "บ่อสูบพระโขนง", "sump_code": "BS.S.035", "district_t": "คลองเตย", "sump_type": "บ่อสูบน้ำ", "volume": 72.54, "sump_depth": 4.5, "pump_amount": "2"}}, {"type": "Feature", "geometry": {"type": "Point", "coordinates": [100.4266, 13.71208], "crs": null}, "properties": {"sump_name": "บ่อสูบน้ำราชมนตรี ถนนเพชรเกษม (ขาออก)", "sump_code": "BW.S.048", "district_t": "ภาษีเจริญ", "sump_type": "บ่อสูบน้ำ", "volume": 6.38, "sump_depth": 2.5, "pump_amount": "1"}}, {"type": "Feature", "geometry": {"type": "Point", "coordinates": [100.59716, 13.71119], "crs": null}, "properties": {"sump_name": "บ่อสูบน้ำใต้สะพานพระโขนง ฝั่งขาออก (ฝั่งตลาด)", "sump_code": "BS.S.055", "district_t": "วัฒนา", "sump_type": "บ่อสูบน้ำ", "volume": 113.52, "sump_depth": 5.5, "pump_amount": "2"}}, {"type": "Feature", "geometry": {"type": "Point", "coordinates": [100.42626, 13.71238], "crs": null}, "properties": {"sump_name": "บ่อสูบน้ำคลองราชมนตรี ถ.เพชรเกษม (ขาเข้า)", "sump_code": "BW.S.047", "district_t": "ภาษีเจริญ", "sump_type": "บ่อสูบน้ำ", "volume": 7.02, "sump_depth": 2.9, "pump_amount": "1"}}, {"type": "Feature", "geometry": {"type": "Point", "coordinates": [100.40718, 13.71268], "crs": null}, "properties": {"sump_name": "บ่อสูบน้ำคูน้ำข้างเดอะมอลบางแค", "sump_code": "BW.S.044", "district_t": "บางแค", "sump_type": "บ่อสูบน้ำ", "volume": 13.65, "sump_depth": 2.5, "pump_amount": "1"}}, {"type": "Feature", "geometry": {"type": "Point", "coordinates": [100.43228, 13.71256], "crs": null}, "properties": {"sump_name": "บ่อสูบน้ำคลองยายเพียร ถนนเพชรเกษมฝั่งขาออก (ร้านยาง)", "sump_code": "BW.S.082", "district_t": "ภาษีเจริญ", "sump_type": "บ่อสูบน้ำ", "volume": 9.49, "sump_depth": 2.8, "pump_amount": "2"}}, {"type": "Feature", "geometry": {"type": "Point", "coordinates": [100.43213, 13.71257], "crs": null}, "properties": {"sump_name": "บ่อสูบน้ำคลองยายเพียร ถนนเพชรเกษม ฝั่งขาออก (รพ.เพชรเกษม2)", "sump_code": "BW.S.037", "district_t": "ภาษีเจริญ", "sump_type": "บ่อสูบน้ำ", "volume": 9.66, "sump_depth": 2.8, "pump_amount": "2"}}, {"type": "Feature", "geometry": {"type": "Point", "coordinates": [100.40572, 13.71296], "crs": null}, "properties": {"sump_name": "บ่อสูบน้ำบึงสวนเพชรกาญจนารมย์ ตอนลงคลองบางจาก", "sump_code": "BW.S.017", "district_t": "บางแค", "sump_type": "บ่อสูบน้ำ", "volume": 22.53, "sump_depth": 2.2, "pump_amount": "1"}}, {"type": "Feature", "geometry": {"type": "Point", "coordinates": [100.43232, 13.71285], "crs": null}, "properties": {"sump_name": "บ่อสูบน้ำคลองยายเพียร ถนนเพชรเกษมฝั่งขาเข้า (ปั้มบางจาก)", "sump_code": "BW.S.083", "district_t": "ภาษีเจริญ", "sump_type": "บ่อสูบน้ำ", "volume": 18.06, "sump_depth": 3, "pump_amount": "1"}}, {"type": "Feature", "geometry": {"type": "Point", "coordinates": [100.52067, 13.71379], "crs": null}, "properties": {"sump_name": "บ่อสูบน้ำคูน้ำวัดปรก", "sump_code": "BS.S.042", "district_t": "สาทร", "sump_type": "บ่อสูบน้ำ", "volume": 340.3, "sump_depth": 5, "pump_amount": "4"}}, {"type": "Feature", "geometry": {"type": "Point", "coordinates": [100.53453, 13.71386], "crs": null}, "properties": {"sump_name": "บ่อสูบน้ำนราธิวาส 17", "sump_code": "BS.S.030", "district_t": "สาทร", "sump_type": "บ่อสูบน้ำ", "volume": 216, "sump_depth": 5, "pump_amount": "3"}}, {"type": "Feature", "geometry": {"type": "Point", "coordinates": [100.39557, 13.7147], "crs": null}, "properties": {"sump_name": "บ่อสูบน้ำคลองบางจาก ถนนพุทธมณฑลสาย 2", "sump_code": "BW.S.058", "district_t": "บางแค", "sump_type": "บ่อสูบน้ำ", "volume": 223.67, "sump_depth": 4.13, "pump_amount": "5"}}, {"type": "Feature", "geometry": {"type": "Point", "coordinates": [100.57629, 13.71491], "crs": null}, "properties": {"sump_name": "บ่อสูบน้ำคูน้ำเทพธารินทร์ ตอนถนนพระรามที่ 4", "sump_code": "BS.S.052", "district_t": "คลองเตย", "sump_type": "บ่อสูบน้ำ", "volume": 126, "sump_depth": 3.5, "pump_amount": "2"}}, {"type": "Feature", "geometry": {"type": "Point", "coordinates": [100.50903, 13.71542], "crs": null}, "properties": {"sump_name": "บ่อสูบน้ำซอยเจริญนคร 21", "sump_code": "BW.S.034", "district_t": "คลองสาน", "sump_type": "บ่อสูบน้ำ", "volume": 6.84, "sump_depth": 2.85, "pump_amount": "1"}}, {"type": "Feature", "geometry": {"type": "Point", "coordinates": [100.36831, 13.71927], "crs": null}, "properties": {"sump_name": "บ่อสูบน้ำถนนหมู่บ้านเศรษฐกิจ ซอย 30-10-3", "sump_code": "BW.S.056", "district_t": "บางแค", "sump_type": "บ่อสูบน้ำ", "volume": 6.64, "sump_depth": 2.1, "pump_amount": "1"}}, {"type": "Feature", "geometry": {"type": "Point", "coordinates": [100.56807, 13.71879], "crs": null}, "properties": {"sump_name": "บ่อสูบน้ำท้ายซอยสุขุมวิท? 26? (ฝั่ง? Big C)", "sump_code": "BS.S.050", "district_t": "คลองเตย", "sump_type": "บ่อสูบน้ำ", "volume": 16.83, "sump_depth": 3, "pump_amount": "2"}}, {"type": "Feature", "geometry": {"type": "Point", "coordinates": [100.56792, 13.71884], "crs": null}, "properties": {"sump_name": "บ่อสูบน้ำท้ายซอยสุขุมวิท 26 (ฝั่งธนาคารกรุงเทพ)", "sump_code": "BS.S.049", "district_t": "คลองเตย", "sump_type": "บ่อสูบน้ำ", "volume": 16.83, "sump_depth": 3, "pump_amount": "1"}}, {"type": "Feature", "geometry": {"type": "Point", "coordinates": [100.51093, 13.71924], "crs": null}, "properties": {"sump_name": "บ่อสูบน้ำใต้สะพานตากสิน", "sump_code": "BW.S.026", "district_t": "คลองสาน", "sump_type": "บ่อสูบน้ำ", "volume": 12.15, "sump_depth": 2.8, "pump_amount": "1"}}, {"type": "Feature", "geometry": {"type": "Point", "coordinates": [100.58465, 13.71922], "crs": null}, "properties": {"sump_name": "บ่อสูบน้ำสุขุมวิท 42", "sump_code": "BS.S.036", "district_t": "คลองเตย", "sump_type": "บ่อสูบน้ำ", "volume": 914.76, "sump_depth": 9, "pump_amount": "4"}}, {"type": "Feature", "geometry": {"type": "Point", "coordinates": [100.37518, 13.7207], "crs": null}, "properties": {"sump_name": "บ่อสูบน้ำหมู่บ้านเศรษฐกิจ (คลองบางขี้แก้ง)", "sump_code": "BW.S.053", "district_t": "บางแค", "sump_type": "บ่อสูบน้ำ", "volume": 2.27, "sump_depth": 2.63, "pump_amount": "3"}}, {"type": "Feature", "geometry": {"type": "Point", "coordinates": [100.45805, 13.72063], "crs": null}, "properties": {"sump_name": "บ่อสูบน้ำคลองประดู่ ถ.เพชรเกษม (ฝั่งขาออก)", "sump_code": "BW.S.036", "district_t": "ภาษีเจริญ", "sump_type": "บ่อสูบน้ำ", "volume": 22.4, "sump_depth": 5, "pump_amount": "2"}}, {"type": "Feature", "geometry": {"type": "Point", "coordinates": [100.45852, 13.72082], "crs": null}, "properties": {"sump_name": "บ่อสูบน้ำคลองประดู่ ถนนเพชรเกษม (ฝั่งขาเข้า)", "sump_code": "BW.S.069", "district_t": "ภาษีเจริญ", "sump_type": "บ่อสูบน้ำ", "volume": 13.3, "sump_depth": 5, "pump_amount": "1"}}, {"type": "Feature", "geometry": {"type": "Point", "coordinates": [100.37675, 13.72168], "crs": null}, "properties": {"sump_name": "บ่อสูบน้ำซอยหมู่บ้านเศรษฐกิจ 26", "sump_code": "BW.S.052", "district_t": "บางแค", "sump_type": "บ่อสูบน้ำ", "volume": 5.86, "sump_depth": 2.18, "pump_amount": "2"}}, {"type": "Feature", "geometry": {"type": "Point", "coordinates": [100.3816, 13.72211], "crs": null}, "properties": {"sump_name": "บ่อสูบน้ำหมู่บ้านเศรษฐกิจ ซอย 25-15", "sump_code": "BW.S.064", "district_t": "บางแค", "sump_type": "บ่อสูบน้ำ", "volume": 9.28, "sump_depth": 3.45, "pump_amount": "1"}}, {"type": "Feature", "geometry": {"type": "Point", "coordinates": [100.51385, 13.72239], "crs": null}, "properties": {"sump_name": "บ่อสูบน้ำซอยวัดสวนพลู", "sump_code": "BS.S.015", "district_t": "บางรัก", "sump_type": "บ่อสูบน้ำ", "volume": 13.57, "sump_depth": 5.3, "pump_amount": "2"}}, {"type": "Feature", "geometry": {"type": "Point", "coordinates": [100.58072, 13.72223], "crs": null}, "properties": {"sump_name": "บ่อสูบน้ำสุขุมวิท 40 บ้านกล้วยใต้", "sump_code": "BS.S.037", "district_t": "คลองเตย", "sump_type": "บ่อสูบน้ำ", "volume": 420, "sump_depth": 7, "pump_amount": "3"}}, {"type": "Feature", "geometry": {"type": "Point", "coordinates": [100.49221, 13.72316], "crs": null}, "properties": {"sump_name": "บ่อสูบน้ำบางไส้ไก่", "sump_code": "BW.S.011", "district_t": "คลองสาน", "sump_type": "บ่อสูบน้ำ", "volume": 87.75, "sump_depth": 4.5, "pump_amount": "3"}}, {"type": "Feature", "geometry": {"type": "Point", "coordinates": [100.53656, 13.72355], "crs": null}, "properties": {"sump_name": "บ่อสูบน้ำปากซอยสวนพลู (ฝั่งบ้านขนิษฐา)", "sump_code": "BS.S.053", "district_t": "สาทร", "sump_type": "บ่อสูบน้ำ", "volume": 40.32, "sump_depth": 3.2, "pump_amount": "1"}}, {"type": "Feature", "geometry": {"type": "Point", "coordinates": [100.53664, 13.72356], "crs": null}, "properties": {"sump_name": "บ่อสูบน้ำสวนพลู (ฝั่งปั๊มเชลล์)", "sump_code": "BS.S.034", "district_t": "สาทร", "sump_type": "บ่อสูบน้ำ", "volume": 78.75, "sump_depth": 9, "pump_amount": "1"}}, {"type": "Feature", "geometry": {"type": "Point", "coordinates": [100.57736, 13.72474], "crs": null}, "properties": {"sump_name": "บ่อสูบสุขุมวิท 36", "sump_code": "BS.S.038", "district_t": "คลองเตย", "sump_type": "บ่อสูบน้ำ", "volume": 699.72, "sump_depth": 7, "pump_amount": "4"}}, {"type": "Feature", "geometry": {"type": "Point", "coordinates": [100.36805, 13.72678], "crs": null}, "properties": {"sump_name": "บ่อสูบน้ำซอยอัสสัมชัญ 23", "sump_code": "BW.S.067", "district_t": "บางแค", "sump_type": "บ่อสูบน้ำ", "volume": 9.32, "sump_depth": 2.03, "pump_amount": "1"}}, {"type": "Feature", "geometry": {"type": "Point", "coordinates": [100.37501, 13.72745], "crs": null}, "properties": {"sump_name": "บ่อสูบน้ำหมู่บ้านเศรษฐกิจ (คลองบางแวก)", "sump_code": "BW.S.066", "district_t": "บางแค", "sump_type": "บ่อสูบน้ำ", "volume": 1.91, "sump_depth": 2.3, "pump_amount": "1"}}, {"type": "Feature", "geometry": {"type": "Point", "coordinates": [100.37597, 13.72768], "crs": null}, "properties": {"sump_name": "บ่อสูบน้ำหมู่บ้านเศรษฐกิจ ซอย 48", "sump_code": "BW.S.065", "district_t": "บางแค", "sump_type": "บ่อสูบน้ำ", "volume": 9.67, "sump_depth": 2.13, "pump_amount": "1"}}, {"type": "Feature", "geometry": {"type": "Point", "coordinates": [100.51372, 13.72722], "crs": null}, "properties": {"sump_name": "บ่อสูบน้ำข้างไปรษณีย์กลาง", "sump_code": "BS.S.016", "district_t": "บางรัก", "sump_type": "บ่อสูบน้ำ", "volume": 34.43, "sump_depth": 5.1, "pump_amount": "2"}}, {"type": "Feature", "geometry": {"type": "Point", "coordinates": [100.48597, 13.72744], "crs": null}, "properties": {"sump_name": "บ่อสูบน้ำใต้สะพานเนาวจำเนียร ถ.อินทรพิทักษ์", "sump_code": "BW.S.035", "district_t": "ธนบุรี", "sump_type": "บ่อสูบน้ำ", "volume": 2744, "sump_depth": 280, "pump_amount": "2"}}, {"type": "Feature", "geometry": {"type": "Point", "coordinates": [100.48503, 13.72764], "crs": null}, "properties": {"sump_name": "บ่อสูบน้ำเนาวจำเนียร ถนนเพชรเกษม", "sump_code": "BW.S.071", "district_t": "บางกอกใหญ่", "sump_type": "บ่อสูบน้ำ", "volume": 15.15, "sump_depth": 3.3, "pump_amount": "1"}}, {"type": "Feature", "geometry": {"type": "Point", "coordinates": [100.49344, 13.72856], "crs": null}, "properties": {"sump_name": "บ่อสูบน้ำสะพานเหลือง", "sump_code": "BW.S.009", "district_t": "ธนบุรี", "sump_type": "บ่อสูบน้ำ", "volume": 15326.4, "sump_depth": 310, "pump_amount": "3"}}, {"type": "Feature", "geometry": {"type": "Point", "coordinates": [100.57086, 13.72928], "crs": null}, "properties": {"sump_name": "บ่อสูบน้ำสุขุมวิท 26", "sump_code": "BS.S.039", "district_t": "คลองเตย", "sump_type": "บ่อสูบน้ำ", "volume": 637.42, "sump_depth": 7, "pump_amount": "4"}}, {"type": "Feature", "geometry": {"type": "Point", "coordinates": [100.49796, 13.72985], "crs": null}, "properties": {"sump_name": "บ่อสูบน้ำร่วมมิตร ตอนถนนอิสรภาพตัดใหม่", "sump_code": "BW.S.010", "district_t": "คลองสาน", "sump_type": "บ่อสูบน้ำ", "volume": 44.2, "sump_depth": 3.4, "pump_amount": "2"}}, {"type": "Feature", "geometry": {"type": "Point", "coordinates": [100.5111, 13.73061], "crs": null}, "properties": {"sump_name": "บ่อสูบน้ำสำนักการศึกษา", "sump_code": "BW.S.025", "district_t": "คลองสาน", "sump_type": "บ่อสูบน้ำ", "volume": 1.72, "sump_depth": 1.3, "pump_amount": "1"}}, {"type": "Feature", "geometry": {"type": "Point", "coordinates": [100.6196, 13.73265], "crs": null}, "properties": {"sump_name": "บ่อสูบน้ำพัฒนาการ 30", "sump_code": "BE.S.025", "district_t": "สวนหลวง", "sump_type": "บ่อสูบน้ำ", "volume": 255.6, "sump_depth": 3.7, "pump_amount": "4"}}, {"type": "Feature", "geometry": {"type": "Point", "coordinates": [100.5531, 13.73392], "crs": null}, "properties": {"sump_name": "บ่อสูบน้ำสุขุมวิทซอย 4", "sump_code": "BS.S.051", "district_t": "คลองเตย", "sump_type": "บ่อสูบน้ำ", "volume": 612, "sump_depth": 9, "pump_amount": "5"}}, {"type": "Feature", "geometry": {"type": "Point", "coordinates": [100.64093, 13.73335], "crs": null}, "properties": {"sump_name": "บ่อสูบน้ำถนนศรีนครินทร์ ตอนคลองหัวหมาก(สวนหย่อม)", "sump_code": "BE.S.026", "district_t": "สวนหลวง", "sump_type": "บ่อสูบน้ำ", "volume": 413.1, "sump_depth": 6, "pump_amount": "3"}}, {"type": "Feature", "geometry": {"type": "Point", "coordinates": [100.55991, 13.73395], "crs": null}, "properties": {"sump_name": "บ่อสูบน้ำสุขุมวิทซอย 14", "sump_code": "BS.S.048", "district_t": "คลองเตย", "sump_type": "บ่อสูบน้ำ", "volume": 315, "sump_depth": 6, "pump_amount": "2"}}, {"type": "Feature", "geometry": {"type": "Point", "coordinates": [100.64139, 13.73355], "crs": null}, "properties": {"sump_name": "บ่อสูบน้ำถนนศรีนครินทร์ ตอนคลองหัวหมากขาออก", "sump_code": "BE.S.023", "district_t": "สวนหลวง", "sump_type": "บ่อสูบน้ำ", "volume": 401.15, "sump_depth": 5, "pump_amount": "3"}}, {"type": "Feature", "geometry": {"type": "Point", "coordinates": [100.51107, 13.73511], "crs": null}, "properties": {"sump_name": "บ่อสูบน้ำภานุรังษี", "sump_code": "BS.S.010", "district_t": "สัมพันธวงศ์", "sump_type": "บ่อสูบน้ำ", "volume": 232.56, "sump_depth": 6, "pump_amount": "2"}}, {"type": "Feature", "geometry": {"type": "Point", "coordinates": [100.51014, 13.73628], "crs": null}, "properties": {"sump_name": "บ่อสูบน้ำวัดปทุมคงคา", "sump_code": "BS.S.014", "district_t": "สัมพันธวงศ์", "sump_type": "บ่อสูบน้ำ", "volume": 88.2, "sump_depth": 4.5, "pump_amount": "2"}}, {"type": "Feature", "geometry": {"type": "Point", "coordinates": [100.50958, 13.73683], "crs": null}, "properties": {"sump_name": "บ่อสูบน้ำท่าน้ำสวัสดี", "sump_code": "BS.S.013", "district_t": "สัมพันธวงศ์", "sump_type": "บ่อสูบน้ำ", "volume": 1080, "sump_depth": 10, "pump_amount": "3"}}, {"type": "Feature", "geometry": {"type": "Point", "coordinates": [100.61189, 13.73642], "crs": null}, "properties": {"sump_name": "บ่อสูบน้ำถนนพัฒนาการตอนคลองบ้านป่าขาเข้า", "sump_code": "BE.S.031", "district_t": "สวนหลวง", "sump_type": "บ่อสูบน้ำ", "volume": 5.82, "sump_depth": 2.6, "pump_amount": "1"}}, {"type": "Feature", "geometry": {"type": "Point", "coordinates": [100.50196, 13.73724], "crs": null}, "properties": {"sump_name": "บ่อสูบน้ำโรงเกลือ ถนนท่าดินแดง", "sump_code": "BW.S.024", "district_t": "คลองสาน", "sump_type": "บ่อสูบน้ำ", "volume": 34.26, "sump_depth": 2.7, "pump_amount": "2"}}, {"type": "Feature", "geometry": {"type": "Point", "coordinates": [100.61166, 13.73674], "crs": null}, "properties": {"sump_name": "บ่อสูบน้ำพัฒนาการตอนคลองบ้านป่าขาออก(กรุงไทย)", "sump_code": "BE.S.030", "district_t": "สวนหลวง", "sump_type": "บ่อสูบน้ำ", "volume": 16.12, "sump_depth": 2.6, "pump_amount": "2"}}, {"type": "Feature", "geometry": {"type": "Point", "coordinates": [100.50011, 13.73765], "crs": null}, "properties": {"sump_name": "บ่อสูบน้ำศาลเจ้ากวนอู", "sump_code": "BW.S.023", "district_t": "คลองสาน", "sump_type": "บ่อสูบน้ำ", "volume": 6.47, "sump_depth": 2.8, "pump_amount": "1"}}, {"type": "Feature", "geometry": {"type": "Point", "coordinates": [100.62535, 13.73693], "crs": null}, "properties": {"sump_name": "บ่อสูบน้ำถนนพัฒนาการตอนคลองลาวขาเข้า", "sump_code": "BE.S.027", "district_t": "สวนหลวง", "sump_type": "บ่อสูบน้ำ", "volume": 152.15, "sump_depth": 4.4, "pump_amount": "2"}}, {"type": "Feature", "geometry": {"type": "Point", "coordinates": [100.62486, 13.73711], "crs": null}, "properties": {"sump_name": "บ่อสูบน้ำถนนพัฒนาการตอนคลองลาว ขาออก", "sump_code": "BE.S.054", "district_t": "สวนหลวง", "sump_type": "บ่อสูบน้ำ", "volume": 43.56, "sump_depth": 3.3, "pump_amount": "1"}}, {"type": "Feature", "geometry": {"type": "Point", "coordinates": [100.4995, 13.7379], "crs": null}, "properties": {"sump_name": "บ่อสูบน้ำมัสยิดกูวติลอิสลาม", "sump_code": "BW.S.022", "district_t": "คลองสาน", "sump_type": "บ่อสูบน้ำ", "volume": 5.93, "sump_depth": 2.6, "pump_amount": "1"}}, {"type": "Feature", "geometry": {"type": "Point", "coordinates": [100.5983, 13.73774], "crs": null}, "properties": {"sump_name": "บ่อสูบน้ำคลองตัน ซอย 71", "sump_code": "BS.S.046", "district_t": "วัฒนา", "sump_type": "บ่อสูบน้ำ", "volume": 206.25, "sump_depth": 5, "pump_amount": "4"}}, {"type": "Feature", "geometry": {"type": "Point", "coordinates": [100.50573, 13.73837], "crs": null}, "properties": {"sump_name": "บ่อสูบน้ำมังกร", "sump_code": "BS.S.064", "district_t": "สัมพันธวงศ์", "sump_type": "บ่อสูบน้ำ", "volume": 12.4, "sump_depth": 3.1, "pump_amount": "1"}}, {"type": "Feature", "geometry": {"type": "Point", "coordinates": [100.60453, 13.73778], "crs": null}, "properties": {"sump_name": "บ่อสูบน้ำใต้ด่วนพัฒนาการ", "sump_code": "BE.S.029", "district_t": "สวนหลวง", "sump_type": "บ่อสูบน้ำ", "volume": 207.37, "sump_depth": 4.6, "pump_amount": "3"}}, {"type": "Feature", "geometry": {"type": "Point", "coordinates": [100.50453, 13.73876], "crs": null}, "properties": {"sump_name": "บ่อสูบน้ำท่าน้ำราชวงศ์", "sump_code": "BS.S.012", "district_t": "สัมพันธวงศ์", "sump_type": "บ่อสูบน้ำ", "volume": 235.2, "sump_depth": 5.6, "pump_amount": "3"}}, {"type": "Feature", "geometry": {"type": "Point", "coordinates": [100.59853, 13.73837], "crs": null}, "properties": {"sump_name": "บ่อสูบน้ำใต้สะพานคลองตัน", "sump_code": "BE.S.028", "district_t": "สวนหลวง", "sump_type": "บ่อสูบน้ำ", "volume": 104.4, "sump_depth": 4, "pump_amount": "2"}}, {"type": "Feature", "geometry": {"type": "Point", "coordinates": [100.50253, 13.73918], "crs": null}, "properties": {"sump_name": "บ่อสูบน้ำซอยสะพานยาว", "sump_code": "BS.S.011", "district_t": "สัมพันธวงศ์", "sump_type": "บ่อสูบน้ำ", "volume": 29.65, "sump_depth": 5.45, "pump_amount": "2"}}, {"type": "Feature", "geometry": {"type": "Point", "coordinates": [100.4941, 13.73963], "crs": null}, "properties": {"sump_name": "บ่อสูบน้ำข้างโรงเรียนซางตาครู้สศึกษา", "sump_code": "BW.S.021", "district_t": "ธนบุรี", "sump_type": "บ่อสูบน้ำ", "volume": 23.81, "sump_depth": 4.8, "pump_amount": "1"}}, {"type": "Feature", "geometry": {"type": "Point", "coordinates": [100.49306, 13.74018], "crs": null}, "properties": {"sump_name": "บ่อสูบน้ำชุมชนกุฎีจีน", "sump_code": "BW.S.020", "district_t": "ธนบุรี", "sump_type": "บ่อสูบน้ำ", "volume": 5.72, "sump_depth": 2, "pump_amount": "1"}}, {"type": "Feature", "geometry": {"type": "Point", "coordinates": [100.49281, 13.74034], "crs": null}, "properties": {"sump_name": "บ่อสูบน้ำข้างศาลเจ้าแม่กวนอิม", "sump_code": "BW.S.019", "district_t": "ธนบุรี", "sump_type": "บ่อสูบน้ำ", "volume": 17.92, "sump_depth": 3.5, "pump_amount": "1"}}, {"type": "Feature", "geometry": {"type": "Point", "coordinates": [100.4973, 13.74032], "crs": null}, "properties": {"sump_name": "บ่อสูบน้ำใต้สะพานพุทธ", "sump_code": "BS.S.058", "district_t": "พระนคร", "sump_type": "บ่อสูบน้ำ", "volume": 11.63, "sump_depth": 2.5, "pump_amount": "1"}}, {"type": "Feature", "geometry": {"type": "Point", "coordinates": [100.49264, 13.74048], "crs": null}, "properties": {"sump_name": "บ่อสูบน้ำข้างวัดกัลยาณมิตร", "sump_code": "BW.S.018", "district_t": "ธนบุรี", "sump_type": "บ่อสูบน้ำ", "volume": 18.94, "sump_depth": 3.7, "pump_amount": "1"}}, {"type": "Feature", "geometry": {"type": "Point", "coordinates": [100.58969, 13.74135], "crs": null}, "properties": {"sump_name": "บ่อสูบน้ำเอกมัย", "sump_code": "BS.S.029", "district_t": "วัฒนา", "sump_type": "บ่อสูบน้ำ", "volume": 741.12, "sump_depth": 9.6, "pump_amount": "6"}}, {"type": "Feature", "geometry": {"type": "Point", "coordinates": [100.59802, 13.74157], "crs": null}, "properties": {"sump_name": "บ่อสูบน้ำตรงข้ามบีวาอาบอบนวด", "sump_code": "BN.S.090", "district_t": "ห้วยขวาง", "sump_type": "บ่อสูบน้ำ", "volume": 39.6, "sump_depth": 4.5, "pump_amount": "1"}}, {"type": "Feature", "geometry": {"type": "Point", "coordinates": [100.59836, 13.74164], "crs": null}, "properties": {"sump_name": "บ่อสูบน้ำสุเหร่าคลองตัน แยกคลองตัน", "sump_code": "BE.S.032", "district_t": "สวนหลวง", "sump_type": "บ่อสูบน้ำ", "volume": 254.8, "sump_depth": 5, "pump_amount": "3"}}, {"type": "Feature", "geometry": {"type": "Point", "coordinates": [100.59817, 13.74194], "crs": null}, "properties": {"sump_name": "บ่อสูบน้ำหน้าบีวาอาบอบนวด", "sump_code": "BN.S.089", "district_t": "ห้วยขวาง", "sump_type": "บ่อสูบน้ำ", "volume": 46.31, "sump_depth": 3.5, "pump_amount": "1"}}, {"type": "Feature", "geometry": {"type": "Point", "coordinates": [100.56758, 13.74246], "crs": null}, "properties": {"sump_name": "บ่อสูบน้ำสุขุมวิท 31 (สวัสดี)", "sump_code": "BS.S.028", "district_t": "วัฒนา", "sump_type": "บ่อสูบน้ำ", "volume": 972, "sump_depth": 9, "pump_amount": "4"}}, {"type": "Feature", "geometry": {"type": "Point", "coordinates": [100.49287, 13.74295], "crs": null}, "properties": {"sump_name": "บ่อสูบน้ำข้างโรงเรียนราชินี", "sump_code": "BS.S.003", "district_t": "พระนคร", "sump_type": "บ่อสูบน้ำ", "volume": 4.22, "sump_depth": 1.6, "pump_amount": "2"}}, {"type": "Feature", "geometry": {"type": "Point", "coordinates": [100.59011, 13.74252], "crs": null}, "properties": {"sump_name": "บ่อสูบน้ำเอกมัยแก้มลิง", "sump_code": "BN.S.091", "district_t": "ห้วยขวาง", "sump_type": "บ่อสูบน้ำ", "volume": 148.05, "sump_depth": 4.5, "pump_amount": "2"}}, {"type": "Feature", "geometry": {"type": "Point", "coordinates": [100.58568, 13.74306], "crs": null}, "properties": {"sump_name": "บ่อสูบน้ำทองหล่อ สุขุมวิท 55", "sump_code": "BS.S.027", "district_t": "วัฒนา", "sump_type": "บ่อสูบน้ำ", "volume": 97.09, "sump_depth": 3.5, "pump_amount": "5"}}, {"type": "Feature", "geometry": {"type": "Point", "coordinates": [100.58578, 13.74328], "crs": null}, "properties": {"sump_name": "บ่อสูบน้ำโรงแรมมรกต", "sump_code": "BN.S.092", "district_t": "ห้วยขวาง", "sump_type": "บ่อสูบน้ำ", "volume": 50.63, "sump_depth": 4.5, "pump_amount": "2"}}, {"type": "Feature", "geometry": {"type": "Point", "coordinates": [100.48961, 13.74402], "crs": null}, "properties": {"sump_name": "บ่อสูบน้ำวัดอรุณราชวนาราม ถนนอรุณอัมรินทร์", "sump_code": "BW.S.080", "district_t": "บางกอกใหญ่", "sump_type": "บ่อสูบน้ำ", "volume": 30.97, "sump_depth": 3, "pump_amount": "3"}}, {"type": "Feature", "geometry": {"type": "Point", "coordinates": [100.55087, 13.74385], "crs": null}, "properties": {"sump_name": "บ่อสูบน้ำสุขุมวิท ซอย 1", "sump_code": "BS.S.025", "district_t": "วัฒนา", "sump_type": "บ่อสูบน้ำ", "volume": 297.68, "sump_depth": 7.5, "pump_amount": "3"}}, {"type": "Feature", "geometry": {"type": "Point", "coordinates": [100.58261, 13.74366], "crs": null}, "properties": {"sump_name": "บ่อสูบซอยต่อศักดิ์", "sump_code": "BS.S.026", "district_t": "วัฒนา", "sump_type": "บ่อสูบน้ำ", "volume": 53.17, "sump_depth": 3.5, "pump_amount": "3"}}, {"type": "Feature", "geometry": {"type": "Point", "coordinates": [100.49601, 13.74522], "crs": null}, "properties": {"sump_name": "บ่อสูบน้ำกรมที่ดิน", "sump_code": "BS.S.005", "district_t": "พระนคร", "sump_type": "บ่อสูบน้ำ", "volume": 8.01, "sump_depth": 1.3, "pump_amount": "3"}}, {"type": "Feature", "geometry": {"type": "Point", "coordinates": [100.49441, 13.74533], "crs": null}, "properties": {"sump_name": "บ่อสูบน้ำวัดโพธิ์", "sump_code": "BS.S.004", "district_t": "พระนคร", "sump_type": "บ่อสูบน้ำ", "volume": 80.41, "sump_depth": 3.4, "pump_amount": "3"}}, {"type": "Feature", "geometry": {"type": "Point", "coordinates": [100.57649, 13.74501], "crs": null}, "properties": {"sump_name": "บ่อสูบน้ำสุขุมวิท ซอย 49", "sump_code": "BS.S.057", "district_t": "วัฒนา", "sump_type": "บ่อสูบน้ำ", "volume": 33, "sump_depth": 3, "pump_amount": "1"}}, {"type": "Feature", "geometry": {"type": "Point", "coordinates": [100.57519, 13.74503], "crs": null}, "properties": {"sump_name": "บ่อสูบน้ำพร้อมศรี", "sump_code": "BS.S.056", "district_t": "วัฒนา", "sump_type": "บ่อสูบน้ำ", "volume": 477.75, "sump_depth": 7, "pump_amount": "1"}}, {"type": "Feature", "geometry": {"type": "Point", "coordinates": [100.54534, 13.74558], "crs": null}, "properties": {"sump_name": "บ่อสูบน้ำถนนชิดลม", "sump_code": "BS.S.020", "district_t": "ปทุมวัน", "sump_type": "บ่อสูบน้ำ", "volume": 33.88, "sump_depth": 4.4, "pump_amount": "2"}}, {"type": "Feature", "geometry": {"type": "Point", "coordinates": [100.57303, 13.74571], "crs": null}, "properties": {"sump_name": "บ่อสูบน้ำสุขุมวิทซอย? 39 ฝั่งขวา? (บ่อเก่า)?", "sump_code": "BS.S.032", "district_t": "วัฒนา", "sump_type": "บ่อสูบน้ำ", "volume": 81.9, "sump_depth": 4.5, "pump_amount": "3"}}, {"type": "Feature", "geometry": {"type": "Point", "coordinates": [100.57283, 13.74582], "crs": null}, "properties": {"sump_name": "บ่อสูบน้ำ สุขุมวิท 39 ฝั่งซ้าย (บ่อใหม่)", "sump_code": "BS.S.031", "district_t": "วัฒนา", "sump_type": "บ่อสูบน้ำ", "volume": 787.5, "sump_depth": 10, "pump_amount": "-"}}, {"type": "Feature", "geometry": {"type": "Point", "coordinates": [100.49034, 13.74634], "crs": null}, "properties": {"sump_name": "บ่อสูบน้ำท่าเตียน", "sump_code": "BS.S.002", "district_t": "พระนคร", "sump_type": "บ่อสูบน้ำ", "volume": 9.15, "sump_depth": 2.6, "pump_amount": "2"}}, {"type": "Feature", "geometry": {"type": "Point", "coordinates": [100.5687, 13.74635], "crs": null}, "properties": {"sump_name": "บ่อสูบสวัสดี", "sump_code": "BS.S.033", "district_t": "วัฒนา", "sump_type": "บ่อสูบน้ำ", "volume": 104, "sump_depth": 4, "pump_amount": "1"}}, {"type": "Feature", "geometry": {"type": "Point", "coordinates": [100.573, 13.74634], "crs": null}, "properties": {"sump_name": "บ่อสูบน้ำซอยพร้อมพงษ์", "sump_code": "BN.S.093", "district_t": "ห้วยขวาง", "sump_type": "บ่อสูบน้ำ", "volume": 74.73, "sump_depth": 5.7, "pump_amount": "1"}}, {"type": "Feature", "geometry": {"type": "Point", "coordinates": [100.6043, 13.74636], "crs": null}, "properties": {"sump_name": "บ่อสูบน้ำรามคำแหงซอย 5", "sump_code": "BE.S.024", "district_t": "สวนหลวง", "sump_type": "บ่อสูบน้ำ", "volume": 22.93, "sump_depth": 2.8, "pump_amount": "3"}}, {"type": "Feature", "geometry": {"type": "Point", "coordinates": [100.56778, 13.7466], "crs": null}, "properties": {"sump_name": "บ่อสูบน้ำ มศว.", "sump_code": "BS.S.040", "district_t": "วัฒนา", "sump_type": "บ่อสูบน้ำ", "volume": 281.6, "sump_depth": 4, "pump_amount": "5"}}, {"type": "Feature", "geometry": {"type": "Point", "coordinates": [100.49605, 13.74719], "crs": null}, "properties": {"sump_name": "บ่อสูบน้ำกรมรักษาดินแดน", "sump_code": "BS.S.006", "district_t": "พระนคร", "sump_type": "บ่อสูบน้ำ", "volume": 22.85, "sump_depth": 3.4, "pump_amount": "1"}}, {"type": "Feature", "geometry": {"type": "Point", "coordinates": [100.64356, 13.74656], "crs": null}, "properties": {"sump_name": "บ่อสูบน้ำคลองกะจะถนนศรีนครินทร์", "sump_code": "BE.S.022", "district_t": "บางกะปิ", "sump_type": "บ่อสูบน้ำ", "volume": 220.5, "sump_depth": 3.5, "pump_amount": "4"}}, {"type": "Feature", "geometry": {"type": "Point", "coordinates": [100.54845, 13.74761], "crs": null}, "properties": {"sump_name": "บ่อสูบน้ำถนนวิทยุ (ฝั่งตะวันตก)", "sump_code": "BS.S.018", "district_t": "ปทุมวัน", "sump_type": "บ่อสูบน้ำ", "volume": 14.14, "sump_depth": 3.4, "pump_amount": "1"}}, {"type": "Feature", "geometry": {"type": "Point", "coordinates": [100.56317, 13.74762], "crs": null}, "properties": {"sump_name": "บ่อสูบน้ำอโศก? (สุขุมวิท ?21)", "sump_code": "BS.S.023", "district_t": "วัฒนา", "sump_type": "บ่อสูบน้ำ", "volume": 62.37, "sump_depth": 4.5, "pump_amount": "3"}}, {"type": "Feature", "geometry": {"type": "Point", "coordinates": [100.54459, 13.74787], "crs": null}, "properties": {"sump_name": "บ่อสูบน้ำชิดลม", "sump_code": "BS.S.060", "district_t": "ปทุมวัน", "sump_type": "บ่อสูบน้ำ", "volume": 15.68, "sump_depth": 2.8, "pump_amount": "2"}}, {"type": "Feature", "geometry": {"type": "Point", "coordinates": [100.54872, 13.7479], "crs": null}, "properties": {"sump_name": "บ่อสูบน้ำถนนวิทยุ (ฝั่งตะวันออก)", "sump_code": "BS.S.019", "district_t": "ปทุมวัน", "sump_type": "บ่อสูบน้ำ", "volume": 47.62, "sump_depth": 4.8, "pump_amount": "2"}}, {"type": "Feature", "geometry": {"type": "Point", "coordinates": [100.54622, 13.74808], "crs": null}, "properties": {"sump_name": "บ่อสูบน้ำซอยสมคิด", "sump_code": "BS.S.021", "district_t": "ปทุมวัน", "sump_type": "บ่อสูบน้ำ", "volume": 409.2, "sump_depth": 5.5, "pump_amount": "4"}}, {"type": "Feature", "geometry": {"type": "Point", "coordinates": [100.55641, 13.74807], "crs": null}, "properties": {"sump_name": "บ่อสูบน้ำสุขุมวิท? 11", "sump_code": "BS.S.024", "district_t": "วัฒนา", "sump_type": "บ่อสูบน้ำ", "volume": 118.56, "sump_depth": 3.8, "pump_amount": "3"}}, {"type": "Feature", "geometry": {"type": "Point", "coordinates": [100.56313, 13.74815], "crs": null}, "properties": {"sump_name": "บ่อสูบน้ำถนนอโศก ฝั่งตรงข้ามสถานฑูตญี่ปุ่น", "sump_code": "BN.S.034", "district_t": "ราชเทวี", "sump_type": "บ่อสูบน้ำ", "volume": 18.36, "sump_depth": 3, "pump_amount": "2"}}, {"type": "Feature", "geometry": {"type": "Point", "coordinates": [100.54842, 13.74863], "crs": null}, "properties": {"sump_name": "บ่อสูบน้ำถนนวิทยุ ฝั่งตะวันตก", "sump_code": "BN.S.047", "district_t": "ราชเทวี", "sump_type": "บ่อสูบน้ำ", "volume": 37.4, "sump_depth": 3.04, "pump_amount": "2"}}, {"type": "Feature", "geometry": {"type": "Point", "coordinates": [100.54863, 13.74866], "crs": null}, "properties": {"sump_name": "บ่อสูบน้ำถนนวิทยุ ฝั่งตะวันออก", "sump_code": "BN.S.046", "district_t": "ราชเทวี", "sump_type": "บ่อสูบน้ำ", "volume": 78.72, "sump_depth": 4.6, "pump_amount": "1"}}, {"type": "Feature", "geometry": {"type": "Point", "coordinates": [100.55429, 13.74865], "crs": null}, "properties": {"sump_name": "บ่อสูบน้ำนานาเหนือ ฝั่งตะวันออก", "sump_code": "BN.S.035", "district_t": "ราชเทวี", "sump_type": "บ่อสูบน้ำ", "volume": 81.65, "sump_depth": 5.04, "pump_amount": "1"}}, {"type": "Feature", "geometry": {"type": "Point", "coordinates": [100.53093, 13.74891], "crs": null}, "properties": {"sump_name": "บ่อสูบน้ำสะพานหัวช้าง", "sump_code": "BS.S.062", "district_t": "ปทุมวัน", "sump_type": "บ่อสูบน้ำ", "volume": 163.2, "sump_depth": 5, "pump_amount": "3"}}, {"type": "Feature", "geometry": {"type": "Point", "coordinates": [100.54511, 13.74897], "crs": null}, "properties": {"sump_name": "บ่อสูบน้ำถนนชิดลม ฝั่งตะวันออก", "sump_code": "BN.S.059", "district_t": "ราชเทวี", "sump_type": "บ่อสูบน้ำ", "volume": 25.4, "sump_depth": 2.74, "pump_amount": "2"}}, {"type": "Feature", "geometry": {"type": "Point", "coordinates": [100.52535, 13.7491], "crs": null}, "properties": {"sump_name": "บ่อสูบน้ำข้างช่างกลปทุมวัน", "sump_code": "BS.S.017", "district_t": "ปทุมวัน", "sump_type": "บ่อสูบน้ำ", "volume": 20.94, "sump_depth": 3.4, "pump_amount": "2"}}, {"type": "Feature", "geometry": {"type": "Point", "coordinates": [100.54465, 13.74903], "crs": null}, "properties": {"sump_name": "บ่อสูบน้ำถนนชิดลม ฝั่งตะวันตก", "sump_code": "BN.S.048", "district_t": "ราชเทวี", "sump_type": "บ่อสูบน้ำ", "volume": 67.73, "sump_depth": 2.9, "pump_amount": "1"}}, {"type": "Feature", "geometry": {"type": "Point", "coordinates": [100.54308, 13.74906], "crs": null}, "properties": {"sump_name": "บ่อสูบน้ำซอยเพชรบุรี 32", "sump_code": "BN.S.060", "district_t": "ราชเทวี", "sump_type": "บ่อสูบน้ำ", "volume": 78.59, "sump_depth": 4.25, "pump_amount": "3"}}, {"type": "Feature", "geometry": {"type": "Point", "coordinates": [100.54096, 13.74913], "crs": null}, "properties": {"sump_name": "บ่อสูบน้ำราชดำริ", "sump_code": "BS.S.061", "district_t": "ปทุมวัน", "sump_type": "บ่อสูบน้ำ", "volume": 222.87, "sump_depth": 5.1, "pump_amount": "3"}}, {"type": "Feature", "geometry": {"type": "Point", "coordinates": [100.53114, 13.74933], "crs": null}, "properties": {"sump_name": "บ่อสูบน้ำถนนพญาไท ตอนสะพานหัวช้าง ฝั่งตะวันตก", "sump_code": "BN.S.037", "district_t": "ราชเทวี", "sump_type": "บ่อสูบน้ำ", "volume": 108.9, "sump_depth": 4.5, "pump_amount": "2"}}, {"type": "Feature", "geometry": {"type": "Point", "coordinates": [100.53146, 13.74934], "crs": null}, "properties": {"sump_name": "บ่อสูบน้ำถนนพญาไท ตอนสะพานหัวช้าง ฝั่งตะวันออก", "sump_code": "BN.S.036", "district_t": "ราชเทวี", "sump_type": "บ่อสูบน้ำ", "volume": 129.85, "sump_depth": 4.9, "pump_amount": "2"}}, {"type": "Feature", "geometry": {"type": "Point", "coordinates": [100.52886, 13.74942], "crs": null}, "properties": {"sump_name": "บ่อสูบน้ำเกษมสันต์ 2", "sump_code": "BS.S.063", "district_t": "ปทุมวัน", "sump_type": "บ่อสูบน้ำ", "volume": 80, "sump_depth": 4, "pump_amount": "2"}}, {"type": "Feature", "geometry": {"type": "Point", "coordinates": [100.48885, 13.7502], "crs": null}, "properties": {"sump_name": "บ่อสูบน้ำท่าราชวรดิฐ", "sump_code": "BS.S.001", "district_t": "พระนคร", "sump_type": "บ่อสูบน้ำ", "volume": 54.4, "sump_depth": 3.4, "pump_amount": "3"}}, {"type": "Feature", "geometry": {"type": "Point", "coordinates": [100.52951, 13.75048], "crs": null}, "properties": {"sump_name": "บ่อสูบน้ำซอยเพชรบุรี 12", "sump_code": "BN.S.038", "district_t": "ราชเทวี", "sump_type": "บ่อสูบน้ำ", "volume": 211.18, "sump_depth": 4.78, "pump_amount": "3"}}, {"type": "Feature", "geometry": {"type": "Point", "coordinates": [100.52483, 13.75053], "crs": null}, "properties": {"sump_name": "บ่อสูบน้ำถนนบรรทัดทอง ฝั่งตะวันตก", "sump_code": "BN.S.039", "district_t": "ราชเทวี", "sump_type": "บ่อสูบน้ำ", "volume": 53.6, "sump_depth": 3.2, "pump_amount": "1"}}, {"type": "Feature", "geometry": {"type": "Point", "coordinates": [100.53597, 13.7515], "crs": null}, "properties": {"sump_name": "บ่อสูบน้ำสถานฑูตอินโดนีเซีย", "sump_code": "BN.S.051", "district_t": "ราชเทวี", "sump_type": "บ่อสูบน้ำ", "volume": 628.99, "sump_depth": 5.2, "pump_amount": "5"}}, {"type": "Feature", "geometry": {"type": "Point", "coordinates": [100.48867, 13.75223], "crs": null}, "properties": {"sump_name": "บ่อสูบน้ำท่าช้าง", "sump_code": "BS.S.009", "district_t": "พระนคร", "sump_type": "บ่อสูบน้ำ", "volume": 46.2, "sump_depth": 4.4, "pump_amount": "3"}}, {"type": "Feature", "geometry": {"type": "Point", "coordinates": [100.48243, 13.75245], "crs": null}, "properties": {"sump_name": "บ่อสูบน้ำซอยอิสรภาพ 44", "sump_code": "BW.S.073", "district_t": "บางกอกน้อย", "sump_type": "บ่อสูบน้ำ", "volume": 179.55, "sump_depth": 4.5, "pump_amount": "3"}}, {"type": "Feature", "geometry": {"type": "Point", "coordinates": [100.4865, 13.75251], "crs": null}, "properties": {"sump_name": "บ่อสูบน้ำวัดระฆังโฆสิตาราม ถนนอรุณอัมรินทร์", "sump_code": "BW.S.074", "district_t": "บางกอกน้อย", "sump_type": "บ่อสูบน้ำ", "volume": 31.5, "sump_depth": 2.5, "pump_amount": "2"}}, {"type": "Feature", "geometry": {"type": "Point", "coordinates": [100.55257, 13.75221], "crs": null}, "properties": {"sump_name": "บ่อสูบน้ำถนนนิคมมักกะสัน ตอนลงคลองมักกะสัน", "sump_code": "BN.S.028", "district_t": "ราชเทวี", "sump_type": "บ่อสูบน้ำ", "volume": 159.25, "sump_depth": 2.5, "pump_amount": "4"}}, {"type": "Feature", "geometry": {"type": "Point", "coordinates": [100.49577, 13.75323], "crs": null}, "properties": {"sump_name": "บ่อสูบน้ำหลังศาลฏีกา", "sump_code": "BS.S.007", "district_t": "พระนคร", "sump_type": "บ่อสูบน้ำ", "volume": 4.34, "sump_depth": 1.7, "pump_amount": "2"}}, {"type": "Feature", "geometry": {"type": "Point", "coordinates": [100.56945, 13.75545], "crs": null}, "properties": {"sump_name": "บ่อสูบน้ำ อสมท.", "sump_code": "BN.S.088", "district_t": "ห้วยขวาง", "sump_type": "บ่อสูบน้ำ", "volume": 46.2, "sump_depth": 2, "pump_amount": "3"}}, {"type": "Feature", "geometry": {"type": "Point", "coordinates": [100.54277, 13.75566], "crs": null}, "properties": {"sump_name": "บ่อสูบน้ำในบึงมักกะสัน ตอนถนนราชปรารภ", "sump_code": "BN.S.027", "district_t": "ราชเทวี", "sump_type": "บ่อสูบน้ำ", "volume": 160, "sump_depth": 5, "pump_amount": "4"}}, {"type": "Feature", "geometry": {"type": "Point", "coordinates": [100.48661, 13.75622], "crs": null}, "properties": {"sump_name": "บ่อสูบน้ำท่าน้ำพรานนก ถนนพรานนก", "sump_code": "BW.S.081", "district_t": "บางกอกน้อย", "sump_type": "บ่อสูบน้ำ", "volume": 41.76, "sump_depth": 3, "pump_amount": "3"}}, {"type": "Feature", "geometry": {"type": "Point", "coordinates": [100.521, 13.75627], "crs": null}, "properties": {"sump_name": "บ่อสูบน้ำคลองส้มป่อยล่าง", "sump_code": "BN.S.040", "district_t": "ราชเทวี", "sump_type": "บ่อสูบน้ำ", "volume": 103.43, "sump_depth": 3.9, "pump_amount": "3"}}, {"type": "Feature", "geometry": {"type": "Point", "coordinates": [100.55307, 13.75613], "crs": null}, "properties": {"sump_name": "บ่อสูบน้ำจักรวาล", "sump_code": "BN.S.094", "district_t": "ดินแดง", "sump_type": "บ่อสูบน้ำ", "volume": 128.25, "sump_depth": 3.8, "pump_amount": "3"}}, {"type": "Feature", "geometry": {"type": "Point", "coordinates": [100.48905, 13.75654], "crs": null}, "properties": {"sump_name": "บ่อสูบน้ำท่าพระจันทร์", "sump_code": "BS.S.008", "district_t": "พระนคร", "sump_type": "บ่อสูบน้ำ", "volume": 42.34, "sump_depth": 4.2, "pump_amount": "2"}}, {"type": "Feature", "geometry": {"type": "Point", "coordinates": [100.61332, 13.75943], "crs": null}, "properties": {"sump_name": "บ่อสูบน้ำซอยรามคำแหง 39", "sump_code": "BE.S.059", "district_t": "บางกะปิ", "sump_type": "บ่อสูบน้ำ", "volume": 318.08, "sump_depth": 3.5, "pump_amount": "3"}}, {"type": "Feature", "geometry": {"type": "Point", "coordinates": [100.61308, 13.75965], "crs": null}, "properties": {"sump_name": "บ่อสูบน้ำประชาอุทิศ (รามคำแหง 39)", "sump_code": "BE.S.018", "district_t": "วังทองหลาง", "sump_type": "บ่อสูบน้ำ", "volume": 133.58, "sump_depth": 4.6, "pump_amount": "2"}}, {"type": "Feature", "geometry": {"type": "Point", "coordinates": [100.48281, 13.76194], "crs": null}, "properties": {"sump_name": "บ่อสูบน้ำใต้สะพานอรุณอัมรินทร์", "sump_code": "BW.S.043", "district_t": "บางกอกน้อย", "sump_type": "บ่อสูบน้ำ", "volume": 70.12, "sump_depth": 2.7, "pump_amount": "2"}}, {"type": "Feature", "geometry": {"type": "Point", "coordinates": [100.51355, 13.76281], "crs": null}, "properties": {"sump_name": "บ่อสูบน้ำถนนพิษณุโลก (ฝั่งถนนพระรามที่ 5)", "sump_code": "BN.S.072", "district_t": "ดุสิต", "sump_type": "บ่อสูบน้ำ", "volume": 55.35, "sump_depth": 4.1, "pump_amount": "3"}}, {"type": "Feature", "geometry": {"type": "Point", "coordinates": [100.54331, 13.76274], "crs": null}, "properties": {"sump_name": "บ่อสูบน้ำสะพานพรหมโยธี (ฝั่ง ป.ป.ส.)", "sump_code": "BN.S.054", "district_t": "พญาไท", "sump_type": "บ่อสูบน้ำ", "volume": 38.63, "sump_depth": 4.45, "pump_amount": "2"}}, {"type": "Feature", "geometry": {"type": "Point", "coordinates": [100.49053, 13.76326], "crs": null}, "properties": {"sump_name": "บ่อสูบน้ำปิ่นเกล้า", "sump_code": "BW.S.041", "district_t": "บางพลัด", "sump_type": "บ่อสูบน้ำ", "volume": 105, "sump_depth": 3, "pump_amount": "2"}}, {"type": "Feature", "geometry": {"type": "Point", "coordinates": [100.54296, 13.763], "crs": null}, "properties": {"sump_name": "บ่อสูบน้ำสะพานพรหมโยธี", "sump_code": "BN.S.055", "district_t": "พญาไท", "sump_type": "บ่อสูบน้ำ", "volume": 111.07, "sump_depth": 5.05, "pump_amount": "3"}}, {"type": "Feature", "geometry": {"type": "Point", "coordinates": [100.51349, 13.7639], "crs": null}, "properties": {"sump_name": "บ่อสูบน้ำถนนพิษณุโลก (ฝั่ง ก.พ.)", "sump_code": "BN.S.071", "district_t": "ดุสิต", "sump_type": "บ่อสูบน้ำ", "volume": 89.51, "sump_depth": 3.9, "pump_amount": "3"}}, {"type": "Feature", "geometry": {"type": "Point", "coordinates": [100.54145, 13.76479], "crs": null}, "properties": {"sump_name": "บ่อสูบน้ำกองพลทหารม้าที่ 2 รักษาพระองค์", "sump_code": "BN.S.061", "district_t": "พญาไท", "sump_type": "บ่อสูบน้ำ", "volume": 49.37, "sump_depth": 3.06, "pump_amount": "2"}}, {"type": "Feature", "geometry": {"type": "Point", "coordinates": [100.47518, 13.76552], "crs": null}, "properties": {"sump_name": "บ่อสูบน้ำสะพานบางกอกน้อย ถนนจรัญสนิทงวศ์", "sump_code": "BW.S.078", "district_t": "บางกอกน้อย", "sump_type": "บ่อสูบน้ำ", "volume": 102, "sump_depth": 3, "pump_amount": "4"}}, {"type": "Feature", "geometry": {"type": "Point", "coordinates": [100.53956, 13.76533], "crs": null}, "properties": {"sump_name": "บ่อสูบน้ำอนุสาวรีย์ชัยสมรภูมิ", "sump_code": "BN.S.053", "district_t": "ราชเทวี", "sump_type": "บ่อสูบน้ำ", "volume": 135.52, "sump_depth": 4.7, "pump_amount": "3"}}, {"type": "Feature", "geometry": {"type": "Point", "coordinates": [100.50691, 13.76609], "crs": null}, "properties": {"sump_name": "บ่อสูบน้ำถนนราชสีมา ตอนลงคลองผดุงกรุงเกษม", "sump_code": "BN.S.075", "district_t": "พระนคร", "sump_type": "บ่อสูบน้ำ", "volume": 49.66, "sump_depth": 2.9, "pump_amount": "2"}}, {"type": "Feature", "geometry": {"type": "Point", "coordinates": [100.49693, 13.76616], "crs": null}, "properties": {"sump_name": "บ่อสูบน้ำซอยสามเสน 3 (สามพระยา)", "sump_code": "BS.S.022", "district_t": "พระนคร", "sump_type": "บ่อสูบน้ำ", "volume": 12, "sump_depth": 4, "pump_amount": "1"}}, {"type": "Feature", "geometry": {"type": "Point", "coordinates": [100.51515, 13.76614], "crs": null}, "properties": {"sump_name": "บ่อสูบน้ำถนนศรีอยุธยา ฝั่งวัดเบญจฯ", "sump_code": "BN.S.069", "district_t": "ดุสิต", "sump_type": "บ่อสูบน้ำ", "volume": 112.3, "sump_depth": 5.42, "pump_amount": "3"}}, {"type": "Feature", "geometry": {"type": "Point", "coordinates": [100.52474, 13.76617], "crs": null}, "properties": {"sump_name": "บ่อสูบน้ำหลังโรงพยาบาลรามาฯ", "sump_code": "BN.S.041", "district_t": "ราชเทวี", "sump_type": "บ่อสูบน้ำ", "volume": 80.64, "sump_depth": 4.2, "pump_amount": "2"}}, {"type": "Feature", "geometry": {"type": "Point", "coordinates": [100.53813, 13.76627], "crs": null}, "properties": {"sump_name": "บ่อสูบน้ำปฐมวัย", "sump_code": "BN.S.045", "district_t": "ราชเทวี", "sump_type": "บ่อสูบน้ำ", "volume": 215.38, "sump_depth": 5.2, "pump_amount": "4"}}, {"type": "Feature", "geometry": {"type": "Point", "coordinates": [100.53947, 13.76634], "crs": null}, "properties": {"sump_name": "บ่อสูบน้ำถนนพหลโยธิน ฝั่งขาเข้า ตอนคลองสามเสน ใต้ทางด่วน", "sump_code": "BN.S.062", "district_t": "พญาไท", "sump_type": "บ่อสูบน้ำ", "volume": 69.89, "sump_depth": 5.46, "pump_amount": "3"}}, {"type": "Feature", "geometry": {"type": "Point", "coordinates": [100.51475, 13.76665], "crs": null}, "properties": {"sump_name": "บ่อสูบน้ำถนนศรีอยุธยา ฝั่งสนามเสือป่า", "sump_code": "BN.S.070", "district_t": "ดุสิต", "sump_type": "บ่อสูบน้ำ", "volume": 93.72, "sump_depth": 4.1, "pump_amount": "3"}}, {"type": "Feature", "geometry": {"type": "Point", "coordinates": [100.58011, 13.76667], "crs": null}, "properties": {"sump_name": "บ่อสูบน้ำคลองชวดบางจาก", "sump_code": "BN.S.087", "district_t": "ห้วยขวาง", "sump_type": "บ่อสูบน้ำ", "volume": 521.4, "sump_depth": 3.3, "pump_amount": "4"}}, {"type": "Feature", "geometry": {"type": "Point", "coordinates": [100.49777, 13.76743], "crs": null}, "properties": {"sump_name": "บ่อสูบน้ำพายัพ (ซอย สามเสน ?3)", "sump_code": "BS.S.059", "district_t": "พระนคร", "sump_type": "บ่อสูบน้ำ", "volume": 13.1, "sump_depth": 3.9, "pump_amount": "1"}}, {"type": "Feature", "geometry": {"type": "Point", "coordinates": [100.51495, 13.76883], "crs": null}, "properties": {"sump_name": "บ่อสูบน้ำสำนักพระราชวังสนามเสือป่า ตอนลงคลองเปรมประชากร", "sump_code": "BN.S.073", "district_t": "ดุสิต", "sump_type": "บ่อสูบน้ำ", "volume": 249.9, "sump_depth": 5.75, "pump_amount": "4"}}, {"type": "Feature", "geometry": {"type": "Point", "coordinates": [100.53464, 13.7691], "crs": null}, "properties": {"sump_name": "บ่อสูบน้ำโรงพยาบาลพระมงกุฎ", "sump_code": "BN.S.044", "district_t": "ราชเทวี", "sump_type": "บ่อสูบน้ำ", "volume": 373.23, "sump_depth": 5.85, "pump_amount": "4"}}, {"type": "Feature", "geometry": {"type": "Point", "coordinates": [100.52606, 13.76929], "crs": null}, "properties": {"sump_name": "บ่อสูบน้ำสวรรคโลก ตอนคูน้ำข้างวังสวนจิตรลดา", "sump_code": "BN.S.068", "district_t": "ราชเทวี", "sump_type": "บ่อสูบน้ำ", "volume": 20.79, "sump_depth": 2.57, "pump_amount": "2"}}, {"type": "Feature", "geometry": {"type": "Point", "coordinates": [100.52621, 13.77007], "crs": null}, "properties": {"sump_name": "บ่อสูบน้ำคูน้ำข้างทางรถไฟ (แยกสวรรคโลก-ราชวิถี)", "sump_code": "BN.S.067", "district_t": "ราชเทวี", "sump_type": "บ่อสูบน้ำ", "volume": 206.75, "sump_depth": 5.35, "pump_amount": "2"}}, {"type": "Feature", "geometry": {"type": "Point", "coordinates": [100.51326, 13.77027], "crs": null}, "properties": {"sump_name": "บ่อสูบน้ำพระที่นั่งอนันตสมาคม ถนนอู่ทองใน", "sump_code": "BN.S.074", "district_t": "ดุสิต", "sump_type": "บ่อสูบน้ำ", "volume": 191.33, "sump_depth": 5.3, "pump_amount": "2"}}, {"type": "Feature", "geometry": {"type": "Point", "coordinates": [100.53022, 13.77247], "crs": null}, "properties": {"sump_name": "บ่อสูบน้ำถนนพระรามที่ 6 ฝั่งขาเข้า", "sump_code": "BN.S.043", "district_t": "ราชเทวี", "sump_type": "บ่อสูบน้ำ", "volume": 198.61, "sump_depth": 5.25, "pump_amount": "3"}}, {"type": "Feature", "geometry": {"type": "Point", "coordinates": [100.52998, 13.77248], "crs": null}, "properties": {"sump_name": "บ่อสูบน้ำถนนพระรามที่ 6 ฝั่งขาออก", "sump_code": "BN.S.042", "district_t": "ราชเทวี", "sump_type": "บ่อสูบน้ำ", "volume": 150, "sump_depth": 5, "pump_amount": "3"}}, {"type": "Feature", "geometry": {"type": "Point", "coordinates": [100.53055, 13.77308], "crs": null}, "properties": {"sump_name": "บ่อสูบน้ำถนนพระรามที่ 6 ตอนโรงกรองน้ำประปาสามเสน", "sump_code": "BN.S.081", "district_t": "พญาไท", "sump_type": "บ่อสูบน้ำ", "volume": 57.79, "sump_depth": 3.88, "pump_amount": "3"}}, {"type": "Feature", "geometry": {"type": "Point", "coordinates": [100.57343, 13.77367], "crs": null}, "properties": {"sump_name": "บ่อสูบน้ำถนนรัชดาภิเษก คลองห้วยขวาง ฝั่งใต้", "sump_code": "BN.S.086", "district_t": "ดินแดง", "sump_type": "บ่อสูบน้ำ", "volume": 262.5, "sump_depth": 2.5, "pump_amount": "4"}}, {"type": "Feature", "geometry": {"type": "Point", "coordinates": [100.55293, 13.77389], "crs": null}, "properties": {"sump_name": "บ่อสูบน้ำพัน 1 รอ. (ด้านถนนวิภาวดี)", "sump_code": "BN.S.056", "district_t": "พญาไท", "sump_type": "บ่อสูบน้ำ", "volume": 268.48, "sump_depth": 4.7, "pump_amount": "3"}}, {"type": "Feature", "geometry": {"type": "Point", "coordinates": [100.57346, 13.77409], "crs": null}, "properties": {"sump_name": "บ่อสูบน้ำถนนรัชดาภิเษก คลองห้อยขวาง ฝั่งเหนือ", "sump_code": "BN.S.085", "district_t": "ดินแดง", "sump_type": "บ่อสูบน้ำ", "volume": 207.9, "sump_depth": 2.5, "pump_amount": "5"}}, {"type": "Feature", "geometry": {"type": "Point", "coordinates": [100.62806, 13.77554], "crs": null}, "properties": {"sump_name": "บ่อสูบน้ำถนนลาดพร้าวริมคลองจั่นขาเข้า", "sump_code": "BE.S.019", "district_t": "วังทองหลาง", "sump_type": "บ่อสูบน้ำ", "volume": 68.64, "sump_depth": 4.4, "pump_amount": "2"}}, {"type": "Feature", "geometry": {"type": "Point", "coordinates": [100.46913, 13.77889], "crs": null}, "properties": {"sump_name": "บ่อสูบน้ำบริเวณชุมชนข้าง รพ. เจ้าพระยา 1", "sump_code": "BW.S.103", "district_t": "บางกอกน้อย", "sump_type": "บ่อสูบน้ำ", "volume": 18.5, "sump_depth": 2.95, "pump_amount": "1"}}, {"type": "Feature", "geometry": {"type": "Point", "coordinates": [100.628, 13.7758], "crs": null}, "properties": {"sump_name": "บ่อสูบน้ำถนนลาดพร้าวริมคลองจั่นขาออก", "sump_code": "BE.S.013", "district_t": "วังทองหลาง", "sump_type": "บ่อสูบน้ำ", "volume": 76.18, "sump_depth": 4.6, "pump_amount": "2"}}, {"type": "Feature", "geometry": {"type": "Point", "coordinates": [100.47002, 13.77774], "crs": null}, "properties": {"sump_name": "บ่อสูบน้ำบริเวณปากคลองพิกุล 2", "sump_code": "BW.S.100", "district_t": "บางกอกน้อย", "sump_type": "บ่อสูบน้ำ", "volume": 18.18, "sump_depth": 2.9, "pump_amount": "1"}}, {"type": "Feature", "geometry": {"type": "Point", "coordinates": [100.46981, 13.77804], "crs": null}, "properties": {"sump_name": "บ่อสูบน้ำปากคลองพิกุล 1", "sump_code": "BW.S.098", "district_t": "บางกอกน้อย", "sump_type": "บ่อสูบน้ำ", "volume": 18.18, "sump_depth": 2.9, "pump_amount": "1"}}, {"type": "Feature", "geometry": {"type": "Point", "coordinates": [100.4696, 13.77842], "crs": null}, "properties": {"sump_name": "บ่อสูบน้ำบริเวณชุมชนข้าง รพ. เจ้าพระยา 2", "sump_code": "BW.S.099", "district_t": "บางกอกน้อย", "sump_type": "บ่อสูบน้ำ", "volume": 18.18, "sump_depth": 2.9, "pump_amount": "1"}}, {"type": "Feature", "geometry": {"type": "Point", "coordinates": [100.46872, 13.77858], "crs": null}, "properties": {"sump_name": "บ่อสูบน้ำคลองแกลบ", "sump_code": "BW.S.097", "district_t": "บางกอกน้อย", "sump_type": "บ่อสูบน้ำ", "volume": 6.3, "sump_depth": 3.28, "pump_amount": "1"}}, {"type": "Feature", "geometry": {"type": "Point", "coordinates": [100.46745, 13.77943], "crs": null}, "properties": {"sump_name": "บ่อสูบน้ำบริเวณปากคลองชักพระ 1", "sump_code": "BW.S.084", "district_t": "บางกอกน้อย", "sump_type": "บ่อสูบน้ำ", "volume": 6.4, "sump_depth": 3.2, "pump_amount": "1"}}, {"type": "Feature", "geometry": {"type": "Point", "coordinates": [100.46717, 13.77966], "crs": null}, "properties": {"sump_name": "บ่อสูบน้ำบริเวณปากคลองชักพระ 2", "sump_code": "BW.S.102", "district_t": "ตลิ่งชัน", "sump_type": "บ่อสูบน้ำ", "volume": 18.5, "sump_depth": 2.95, "pump_amount": "1"}}, {"type": "Feature", "geometry": {"type": "Point", "coordinates": [100.46793, 13.77966], "crs": null}, "properties": {"sump_name": "บ่อสูบน้ำบริเวณคลองวัดสุวรรณคีรี 1", "sump_code": "BW.S.101", "district_t": "บางกอกน้อย", "sump_type": "บ่อสูบน้ำ", "volume": 10.04, "sump_depth": 3.1, "pump_amount": "1"}}, {"type": "Feature", "geometry": {"type": "Point", "coordinates": [100.44478, 13.78022], "crs": null}, "properties": {"sump_name": "บ่อสูบน้ำขุนจันทร์ ตอนถนนบรมราชชนนี", "sump_code": "BW.S.079", "district_t": "ตลิ่งชัน", "sump_type": "บ่อสูบน้ำ", "volume": 359.55, "sump_depth": 5, "pump_amount": "4"}}, {"type": "Feature", "geometry": {"type": "Point", "coordinates": [100.50419, 13.78006], "crs": null}, "properties": {"sump_name": "บ่อสูบน้ำถนนราชวิถี ช่วงใต้สะพานซังฮี้ (เขตดุสิต)", "sump_code": "BN.S.079", "district_t": "ดุสิต", "sump_type": "บ่อสูบน้ำ", "volume": 8.09, "sump_depth": 2.19, "pump_amount": "2"}}, {"type": "Feature", "geometry": {"type": "Point", "coordinates": [100.46706, 13.78082], "crs": null}, "properties": {"sump_name": "บ่อสูบน้ำบริเวณคลองวัดสุวรรณคีรี 2", "sump_code": "BW.S.094", "district_t": "บางกอกน้อย", "sump_type": "บ่อสูบน้ำ", "volume": 10.31, "sump_depth": 3.25, "pump_amount": "1"}}, {"type": "Feature", "geometry": {"type": "Point", "coordinates": [100.43126, 13.78111], "crs": null}, "properties": {"sump_name": "บ่อสูบน้ำฉิมพลี ตอนซอยฉิมพลี 30", "sump_code": "BW.S.061", "district_t": "ตลิ่งชัน", "sump_type": "บ่อสูบน้ำ", "volume": 91.57, "sump_depth": 3, "pump_amount": "2"}}, {"type": "Feature", "geometry": {"type": "Point", "coordinates": [100.56728, 13.78035], "crs": null}, "properties": {"sump_name": "บ่อสูบน้ำถนนประชาสุข ตอนลงคลองนาซอง", "sump_code": "BN.S.082", "district_t": "ดินแดง", "sump_type": "บ่อสูบน้ำ", "volume": 23.76, "sump_depth": 3.3, "pump_amount": "3"}}, {"type": "Feature", "geometry": {"type": "Point", "coordinates": [100.42615, 13.78163], "crs": null}, "properties": {"sump_name": "บ่อสูบน้ำพุทธมณฑลสาย 1 ตอนถนนบรมราชชนนี", "sump_code": "BW.S.059", "district_t": "ตลิ่งชัน", "sump_type": "บ่อสูบน้ำ", "volume": 88.21, "sump_depth": 3.12, "pump_amount": "3"}}, {"type": "Feature", "geometry": {"type": "Point", "coordinates": [100.46694, 13.78139], "crs": null}, "properties": {"sump_name": "บ่อสูบน้ำบริเวณคลองวัดสุวรรณคีรี 3", "sump_code": "BW.S.093", "district_t": "บางกอกน้อย", "sump_type": "บ่อสูบน้ำ", "volume": 10.79, "sump_depth": 3.4, "pump_amount": "1"}}, {"type": "Feature", "geometry": {"type": "Point", "coordinates": [100.46627, 13.78142], "crs": null}, "properties": {"sump_name": "บ่อสูบน้ำคลองเจ้าแม่ทับทิม", "sump_code": "BW.S.085", "district_t": "ตลิ่งชัน", "sump_type": "บ่อสูบน้ำ", "volume": 4.28, "sump_depth": 3.4, "pump_amount": "1"}}, {"type": "Feature", "geometry": {"type": "Point", "coordinates": [100.50086, 13.78161], "crs": null}, "properties": {"sump_name": "บ่อสูบน้ำใต้สะพานกรุงธน (ฝั่งขาออก)", "sump_code": "BW.S.075", "district_t": "บางพลัด", "sump_type": "บ่อสูบน้ำ", "volume": 23.83, "sump_depth": 3.8, "pump_amount": "1"}}, {"type": "Feature", "geometry": {"type": "Point", "coordinates": [100.46684, 13.78185], "crs": null}, "properties": {"sump_name": "บ่อสูบน้ำบริเวณคลองวัดสุวรรณคีรี 4", "sump_code": "BW.S.092", "district_t": "บางกอกน้อย", "sump_type": "บ่อสูบน้ำ", "volume": 11.54, "sump_depth": 3.45, "pump_amount": "1"}}, {"type": "Feature", "geometry": {"type": "Point", "coordinates": [100.50088, 13.78193], "crs": null}, "properties": {"sump_name": "บ่อสูบน้ำใตัสะพานกรุงธน (ฝั่งขาเข้า)", "sump_code": "BW.S.076", "district_t": "บางพลัด", "sump_type": "บ่อสูบน้ำ", "volume": 7.3, "sump_depth": 2.4, "pump_amount": "1"}}, {"type": "Feature", "geometry": {"type": "Point", "coordinates": [100.46673, 13.78242], "crs": null}, "properties": {"sump_name": "บ่อสูบน้ำบริเวณเพรสซิเดนท์ คอนโด 1", "sump_code": "BW.S.095", "district_t": "บางกอกน้อย", "sump_type": "บ่อสูบน้ำ", "volume": 11.02, "sump_depth": 3.4, "pump_amount": "1"}}, {"type": "Feature", "geometry": {"type": "Point", "coordinates": [100.59129, 13.78166], "crs": null}, "properties": {"sump_name": "บ่อสูบน้ำซอยประชาราษร์บำเพ็ญ 26", "sump_code": "BN.S.084", "district_t": "ห้วยขวาง", "sump_type": "บ่อสูบน้ำ", "volume": 61.36, "sump_depth": 2.9, "pump_amount": "2"}}, {"type": "Feature", "geometry": {"type": "Point", "coordinates": [100.46629, 13.78253], "crs": null}, "properties": {"sump_name": "บ่อสูบน้ำอู่เรือยายเป้า", "sump_code": "BW.S.086", "district_t": "ตลิ่งชัน", "sump_type": "บ่อสูบน้ำ", "volume": 6.45, "sump_depth": 3.1, "pump_amount": "1"}}, {"type": "Feature", "geometry": {"type": "Point", "coordinates": [100.59225, 13.78183], "crs": null}, "properties": {"sump_name": "บ่อสูบน้ำลาดพร้าว 80", "sump_code": "BE.S.017", "district_t": "วังทองหลาง", "sump_type": "บ่อสูบน้ำ", "volume": 102.56, "sump_depth": 4.3, "pump_amount": "3"}}, {"type": "Feature", "geometry": {"type": "Point", "coordinates": [100.5055, 13.78239], "crs": null}, "properties": {"sump_name": "บ่อสูบน้ำสังคโลก", "sump_code": "BN.S.080", "district_t": "ดุสิต", "sump_type": "บ่อสูบน้ำ", "volume": 302.8, "sump_depth": 5.4, "pump_amount": "5"}}, {"type": "Feature", "geometry": {"type": "Point", "coordinates": [100.44422, 13.78286], "crs": null}, "properties": {"sump_name": "บ่อสูบฉิมพลี ตอนคลองขุนจันทร์", "sump_code": "BW.S.070", "district_t": "ตลิ่งชัน", "sump_type": "บ่อสูบน้ำ", "volume": 70, "sump_depth": 3.5, "pump_amount": "3"}}, {"type": "Feature", "geometry": {"type": "Point", "coordinates": [100.46664, 13.78292], "crs": null}, "properties": {"sump_name": "บ่อสูบน้ำบริเวณเพรสซิเดนท์ คอนโด 2", "sump_code": "BW.S.091", "district_t": "บางกอกน้อย", "sump_type": "บ่อสูบน้ำ", "volume": 11.58, "sump_depth": 3.65, "pump_amount": "1"}}, {"type": "Feature", "geometry": {"type": "Point", "coordinates": [100.4666, 13.78343], "crs": null}, "properties": {"sump_name": "บ่อสูบน้ำบริเวณเพรสซิเดนท์ คอนโด 3", "sump_code": "BW.S.090", "district_t": "บางกอกน้อย", "sump_type": "บ่อสูบน้ำ", "volume": 13.17, "sump_depth": 2.8, "pump_amount": "1"}}, {"type": "Feature", "geometry": {"type": "Point", "coordinates": [100.46657, 13.78416], "crs": null}, "properties": {"sump_name": "บ่อสูบน้ำบริเวณเพรสซิเดนท์ คอนโด 4", "sump_code": "BW.S.096", "district_t": "บางกอกน้อย", "sump_type": "บ่อสูบน้ำ", "volume": 12.94, "sump_depth": 2.8, "pump_amount": "1"}}, {"type": "Feature", "geometry": {"type": "Point", "coordinates": [100.61363, 13.78355], "crs": null}, "properties": {"sump_name": "บ่อสูบน้ำถนนลาดพร้าวริมคลองเจ้าคุณสิงห์หน้าร้านยาง", "sump_code": "BE.S.009", "district_t": "วังทองหลาง", "sump_type": "บ่อสูบน้ำ", "volume": 40.66, "sump_depth": 2.8, "pump_amount": "2"}}, {"type": "Feature", "geometry": {"type": "Point", "coordinates": [100.61355, 13.78388], "crs": null}, "properties": {"sump_name": "บ่อสูบน้ำถนนลาดพร้าวริมคลองเจ้าคุณสิงห์ขาออกร้านสุกี้", "sump_code": "BE.S.012", "district_t": "วังทองหลาง", "sump_type": "บ่อสูบน้ำ", "volume": 43.2, "sump_depth": 2.4, "pump_amount": "2"}}, {"type": "Feature", "geometry": {"type": "Point", "coordinates": [100.61324, 13.78407], "crs": null}, "properties": {"sump_name": "บ่อสูบน้ำถนนลาดพร้าวริมคลองเจ้าคุณสิงห์ขาออกบิ๊กซี", "sump_code": "BE.S.010", "district_t": "วังทองหลาง", "sump_type": "บ่อสูบน้ำ", "volume": 25.92, "sump_depth": 2.7, "pump_amount": "2"}}, {"type": "Feature", "geometry": {"type": "Point", "coordinates": [100.4665, 13.78511], "crs": null}, "properties": {"sump_name": "บ่อสูบน้ำสวนมะม่วง 1", "sump_code": "BW.S.088", "district_t": "บางกอกน้อย", "sump_type": "บ่อสูบน้ำ", "volume": 12.71, "sump_depth": 2.8, "pump_amount": "1"}}, {"type": "Feature", "geometry": {"type": "Point", "coordinates": [100.59175, 13.78557], "crs": null}, "properties": {"sump_name": "บ่อสูบน้ำลาดพร้าว 64", "sump_code": "BE.S.015", "district_t": "วังทองหลาง", "sump_type": "บ่อสูบน้ำ", "volume": 141.12, "sump_depth": 4.5, "pump_amount": "3"}}, {"type": "Feature", "geometry": {"type": "Point", "coordinates": [100.60896, 13.78576], "crs": null}, "properties": {"sump_name": "บ่อสูบน้ำถนนลาดพร้าว เซ็นจูรี่อพาร์ทเม้นท์ฝั่งขาเข้า", "sump_code": "BE.S.011", "district_t": "วังทองหลาง", "sump_type": "บ่อสูบน้ำ", "volume": 8.23, "sump_depth": 2.1, "pump_amount": "4"}}, {"type": "Feature", "geometry": {"type": "Point", "coordinates": [100.46642, 13.78692], "crs": null}, "properties": {"sump_name": "บ่อสูบน้ำสายใต้ (ตรงข้ามวัดไก่เตี้ย)", "sump_code": "BW.S.077", "district_t": "บางกอกน้อย", "sump_type": "บ่อสูบน้ำ", "volume": 19.11, "sump_depth": 3.9, "pump_amount": "2"}}, {"type": "Feature", "geometry": {"type": "Point", "coordinates": [100.60938, 13.78629], "crs": null}, "properties": {"sump_name": "บ่อสูบน้ำประดิษฐ์มนูธรรมท่อไอเสีย", "sump_code": "BE.S.016", "district_t": "วังทองหลาง", "sump_type": "บ่อสูบน้ำ", "volume": 5.67, "sump_depth": 2.1, "pump_amount": "2"}}, {"type": "Feature", "geometry": {"type": "Point", "coordinates": [100.46626, 13.7875], "crs": null}, "properties": {"sump_name": "บ่อสูบชุมชนวัดชัยพฤกษ์มาลา", "sump_code": "BW.S.087", "district_t": "บางพลัด", "sump_type": "บ่อสูบน้ำ", "volume": 13.1, "sump_depth": 2.8, "pump_amount": "1"}}, {"type": "Feature", "geometry": {"type": "Point", "coordinates": [100.42273, 13.78799], "crs": null}, "properties": {"sump_name": "บ่อสูบน้ำพุทธมณฑลสาย 1 ซอย 43", "sump_code": "BW.S.060", "district_t": "ตลิ่งชัน", "sump_type": "บ่อสูบน้ำ", "volume": 242.42, "sump_depth": 3.8, "pump_amount": "3"}}, {"type": "Feature", "geometry": {"type": "Point", "coordinates": [100.60757, 13.78686], "crs": null}, "properties": {"sump_name": "บ่อสูบน้ำถนนลาดพร้าวตอนคลองวัดตึก", "sump_code": "BE.S.014", "district_t": "วังทองหลาง", "sump_type": "บ่อสูบน้ำ", "volume": 19.24, "sump_depth": 2.6, "pump_amount": "2"}}, {"type": "Feature", "geometry": {"type": "Point", "coordinates": [100.46507, 13.78823], "crs": null}, "properties": {"sump_name": "บ่อสูบน้ำถนนเลียบทางรถไฟสายใต้ ตอนคลองบางกอกน้อย", "sump_code": "BW.S.072", "district_t": "ตลิ่งชัน", "sump_type": "บ่อสูบน้ำ", "volume": 127.33, "sump_depth": 3.5, "pump_amount": "3"}}, {"type": "Feature", "geometry": {"type": "Point", "coordinates": [100.46642, 13.78836], "crs": null}, "properties": {"sump_name": "บ่อสูบน้ำเลียบทางรถไฟถนนชัยพฤกษ์", "sump_code": "BW.S.089", "district_t": "บางพลัด", "sump_type": "บ่อสูบน้ำ", "volume": 15.77, "sump_depth": 3.1, "pump_amount": "1"}}, {"type": "Feature", "geometry": {"type": "Point", "coordinates": [100.53479, 13.7922], "crs": null}, "properties": {"sump_name": "บ่อสูบน้ำคูน้ำทหารถนนเทอดดำริ", "sump_code": "BN.S.077", "district_t": "ดุสิต", "sump_type": "บ่อสูบน้ำ", "volume": 94.92, "sump_depth": 5.27, "pump_amount": "4"}}, {"type": "Feature", "geometry": {"type": "Point", "coordinates": [100.51395, 13.79293], "crs": null}, "properties": {"sump_name": "บ่อสูบน้ำคลองบางกระบือ", "sump_code": "BN.S.078", "district_t": "ดุสิต", "sump_type": "บ่อสูบน้ำ", "volume": 53.68, "sump_depth": 4.8, "pump_amount": "2"}}, {"type": "Feature", "geometry": {"type": "Point", "coordinates": [100.65517, 13.79408], "crs": null}, "properties": {"sump_name": "บ่อสูบน้ำนวมินทร์ 36 ข้างธนาคารกสิกรไทย", "sump_code": "BE.S.021", "district_t": "บึงกุ่ม", "sump_type": "บ่อสูบน้ำ", "volume": 120.05, "sump_depth": 4.9, "pump_amount": "3"}}, {"type": "Feature", "geometry": {"type": "Point", "coordinates": [100.55751, 13.79479], "crs": null}, "properties": {"sump_name": "บ่อสูบน้ำซอยอินทามระ 21", "sump_code": "BN.S.064", "district_t": "พญาไท", "sump_type": "บ่อสูบน้ำ", "volume": 40.89, "sump_depth": 3.7, "pump_amount": "2"}}, {"type": "Feature", "geometry": {"type": "Point", "coordinates": [100.57487, 13.80921], "crs": null}, "properties": {"sump_name": "บ่อสูบน้ำถนนรัชดาภิเษก ข้างศาลอาญา", "sump_code": "BN.S.095", "district_t": "จตุจักร", "sump_type": "บ่อสูบน้ำ", "volume": 60, "sump_depth": 2.5, "pump_amount": "3"}}, {"type": "Feature", "geometry": {"type": "Point", "coordinates": [100.55464, 13.79553], "crs": null}, "properties": {"sump_name": "บ่อสูบน้ำซอยอินทามระ 15", "sump_code": "BN.S.057", "district_t": "พญาไท", "sump_type": "บ่อสูบน้ำ", "volume": 117.8, "sump_depth": 5.65, "pump_amount": "3"}}, {"type": "Feature", "geometry": {"type": "Point", "coordinates": [100.55294, 13.79556], "crs": null}, "properties": {"sump_name": "บ่อสูบน้ำซอยอินทามระ 3", "sump_code": "BN.S.063", "district_t": "พญาไท", "sump_type": "บ่อสูบน้ำ", "volume": 101.83, "sump_depth": 5.98, "pump_amount": "3"}}, {"type": "Feature", "geometry": {"type": "Point", "coordinates": [100.55077, 13.79576], "crs": null}, "properties": {"sump_name": "บ่อสูบน้ำถนนพหลโยธิน ฝั่งขาเข้า ตอนคลองงบางซื่อ ร.ส.พ.", "sump_code": "BN.S.058", "district_t": "พญาไท", "sump_type": "บ่อสูบน้ำ", "volume": 59.44, "sump_depth": 3.9, "pump_amount": "2"}}, {"type": "Feature", "geometry": {"type": "Point", "coordinates": [100.57448, 13.79573], "crs": null}, "properties": {"sump_name": "บ่อสูบน้ำถนนรัชดา ช่วงคลองบางซื่อ", "sump_code": "BN.S.083", "district_t": "ดินแดง", "sump_type": "บ่อสูบน้ำ", "volume": 309.28, "sump_depth": 3.3, "pump_amount": "3"}}, {"type": "Feature", "geometry": {"type": "Point", "coordinates": [100.5503, 13.7959], "crs": null}, "properties": {"sump_name": "บ่อสูบน้ำถนนพหลโยธิน ฝั่งขาออก ตอนคลองบางซื่อ วัดไผ่ตัน", "sump_code": "BN.S.065", "district_t": "พญาไท", "sump_type": "บ่อสูบน้ำ", "volume": 60.96, "sump_depth": 3.83, "pump_amount": "3"}}, {"type": "Feature", "geometry": {"type": "Point", "coordinates": [100.55076, 13.79623], "crs": null}, "properties": {"sump_name": "บ่อสูบน้ำพหลโยธิน ตอนคลองบางซื่อ (โรงไม้)", "sump_code": "BN.S.003", "district_t": "จตุจักร", "sump_type": "บ่อสูบน้ำ", "volume": 264, "sump_depth": 3, "pump_amount": "2"}}, {"type": "Feature", "geometry": {"type": "Point", "coordinates": [100.55041, 13.79634], "crs": null}, "properties": {"sump_name": "บ่อสูบน้ำพหลโยธินตอนลงคลองบางซื่อ(อตก.)", "sump_code": "BN.S.002", "district_t": "จตุจักร", "sump_type": "บ่อสูบน้ำ", "volume": 793.16, "sump_depth": 3.3, "pump_amount": "4"}}, {"type": "Feature", "geometry": {"type": "Point", "coordinates": [100.5432, 13.79661], "crs": null}, "properties": {"sump_name": "บ่อสูบน้ำซอยอุทัยรัตน์", "sump_code": "BN.S.066", "district_t": "พญาไท", "sump_type": "บ่อสูบน้ำ", "volume": 113.61, "sump_depth": 5.1, "pump_amount": "4"}}, {"type": "Feature", "geometry": {"type": "Point", "coordinates": [100.53732, 13.7969], "crs": null}, "properties": {"sump_name": "บ่อสูบน้ำสะพานดำ", "sump_code": "BN.S.076", "district_t": "พญาไท", "sump_type": "บ่อสูบน้ำ", "volume": 27.56, "sump_depth": 2.1, "pump_amount": "2"}}, {"type": "Feature", "geometry": {"type": "Point", "coordinates": [100.65077, 13.80186], "crs": null}, "properties": {"sump_name": "บ่อสูบน้ำข้างวัดบางเตย", "sump_code": "BE.S.020", "district_t": "บึงกุ่ม", "sump_type": "บ่อสูบน้ำ", "volume": 78.39, "sump_depth": 3, "pump_amount": "2"}}, {"type": "Feature", "geometry": {"type": "Point", "coordinates": [100.52841, 13.805], "crs": null}, "properties": {"sump_name": "บ่อสูบน้ำซอยสะพานขวา", "sump_code": "BN.S.001", "district_t": "บางซื่อ", "sump_type": "บ่อสูบน้ำ", "volume": 15.46, "sump_depth": 2.4, "pump_amount": "4"}}, {"type": "Feature", "geometry": {"type": "Point", "coordinates": [100.64876, 13.80655], "crs": null}, "properties": {"sump_name": "บ่อสูบน้ำคลองบางเตย (ถนนนวมินทร์)", "sump_code": "BE.S.008", "district_t": "บึงกุ่ม", "sump_type": "บ่อสูบน้ำ", "volume": 118.52, "sump_depth": 4.15, "pump_amount": "3"}}, {"type": "Feature", "geometry": {"type": "Point", "coordinates": [100.64896, 13.8069], "crs": null}, "properties": {"sump_name": "บ่อสูบน้ำถนนนวมิทร์(ขาเข้า) หน้าธนาคารอิสลาม", "sump_code": "BE.S.055", "district_t": "บึงกุ่ม", "sump_type": "บ่อสูบน้ำ", "volume": 18.9, "sump_depth": 3.5, "pump_amount": "1"}}, {"type": "Feature", "geometry": {"type": "Point", "coordinates": [100.64898, 13.80752], "crs": null}, "properties": {"sump_name": "บ่อสูบน้ำถนนนวมินทร์(ขาออก) หน้าศูนย์ฮอนด้า", "sump_code": "BE.S.056", "district_t": "บึงกุ่ม", "sump_type": "บ่อสูบน้ำ", "volume": 4.96, "sump_depth": 3.1, "pump_amount": "1"}}, {"type": "Feature", "geometry": {"type": "Point", "coordinates": [100.5549, 13.80887], "crs": null}, "properties": {"sump_name": "บ่อสูบน้ำสวนสิริกิตติ์", "sump_code": "BN.S.004", "district_t": "จตุจักร", "sump_type": "บ่อสูบน้ำ", "volume": 110.21, "sump_depth": 3.3, "pump_amount": "3"}}, {"type": "Feature", "geometry": {"type": "Point", "coordinates": [100.55825, 13.81488], "crs": null}, "properties": {"sump_name": "บ่อสูบน้ำสวนรถไฟ ตอนถนนกำแพงเพชร 3", "sump_code": "BN.S.005", "district_t": "จตุจักร", "sump_type": "บ่อสูบน้ำ", "volume": 98.04, "sump_depth": 3.8, "pump_amount": "2"}}, {"type": "Feature", "geometry": {"type": "Point", "coordinates": [100.55794, 13.81638], "crs": null}, "properties": {"sump_name": "บ่อสูบน้ำสวนรถไฟ ตอนซอยนิคมรถไฟ", "sump_code": "BN.S.006", "district_t": "จตุจักร", "sump_type": "บ่อสูบน้ำ", "volume": 54, "sump_depth": 2.25, "pump_amount": "3"}}, {"type": "Feature", "geometry": {"type": "Point", "coordinates": [100.74402, 13.81664], "crs": null}, "properties": {"sump_name": "บ่อสูบน้ำลำรางถนนรามคำแหงตักสุวินทวงศ์", "sump_code": "BE.S.005", "district_t": "มีนบุรี", "sump_type": "บ่อสูบน้ำ", "volume": 241.68, "sump_depth": 6, "pump_amount": "3"}}, {"type": "Feature", "geometry": {"type": "Point", "coordinates": [100.58917, 13.81855], "crs": null}, "properties": {"sump_name": "บ่อสูบน้ำอาภาภิรมย์", "sump_code": "BN.S.052", "district_t": "จตุจักร", "sump_type": "บ่อสูบน้ำ", "volume": 32.38, "sump_depth": 2.5, "pump_amount": "2"}}, {"type": "Feature", "geometry": {"type": "Point", "coordinates": [100.7517, 13.81764], "crs": null}, "properties": {"sump_name": "บ่อสูบน้ำถนนราษฎร์อุทิศ(เขตมีนบุรี)", "sump_code": "BE.S.006", "district_t": "มีนบุรี", "sump_type": "บ่อสูบน้ำ", "volume": 166.87, "sump_depth": 4.2, "pump_amount": "3"}}, {"type": "Feature", "geometry": {"type": "Point", "coordinates": [100.74412, 13.81774], "crs": null}, "properties": {"sump_name": "บ่อสูบน้ำฮอนด้าสุวินทวงศ์", "sump_code": "BE.S.004", "district_t": "มีนบุรี", "sump_type": "บ่อสูบน้ำ", "volume": 263.2, "sump_depth": 4, "pump_amount": "3"}}, {"type": "Feature", "geometry": {"type": "Point", "coordinates": [100.72952, 13.81854], "crs": null}, "properties": {"sump_name": "บ่อสูบน้ำหน้าห้างโลตัส สุวินทวงศ์", "sump_code": "BE.S.003", "district_t": "มีนบุรี", "sump_type": "บ่อสูบน้ำ", "volume": 472.85, "sump_depth": 5, "pump_amount": "3"}}, {"type": "Feature", "geometry": {"type": "Point", "coordinates": [100.73004, 13.81916], "crs": null}, "properties": {"sump_name": "บ่อสูบปั๊มแก้สสุวินทวงศ์", "sump_code": "BE.S.002", "district_t": "มีนบุรี", "sump_type": "บ่อสูบน้ำ", "volume": 204.77, "sump_depth": 5.5, "pump_amount": "3"}}, {"type": "Feature", "geometry": {"type": "Point", "coordinates": [100.74246, 13.82003], "crs": null}, "properties": {"sump_name": "บ่อสูบน้ำโค้งไปรษณีย์มีนบุรี", "sump_code": "BE.S.007", "district_t": "มีนบุรี", "sump_type": "บ่อสูบน้ำ", "volume": 115.27, "sump_depth": 4.5, "pump_amount": "3"}}, {"type": "Feature", "geometry": {"type": "Point", "coordinates": [100.5488, 13.82402], "crs": null}, "properties": {"sump_name": "บ่อสูบน้ำถนนกำแพงเพชร 6 (ตอนกม.11)", "sump_code": "BN.S.007", "district_t": "จตุจักร", "sump_type": "บ่อสูบน้ำ", "volume": 168.15, "sump_depth": 3.4, "pump_amount": "3"}}, {"type": "Feature", "geometry": {"type": "Point", "coordinates": [100.58953, 13.83222], "crs": null}, "properties": {"sump_name": "บ่อสูบน้ำเสนานิคม 1", "sump_code": "BN.S.033", "district_t": "จตุจักร", "sump_type": "บ่อสูบน้ำ", "volume": 612, "sump_depth": 6, "pump_amount": "4"}}, {"type": "Feature", "geometry": {"type": "Point", "coordinates": [100.65986, 13.83282], "crs": null}, "properties": {"sump_name": "บ่อสูบน้ำถนนนวมินทร์(ขาออก) หน้าสหฟาร์ม", "sump_code": "BE.S.057", "district_t": "คันนายาว", "sump_type": "บ่อสูบน้ำ", "volume": 4.96, "sump_depth": 3.1, "pump_amount": "1"}}, {"type": "Feature", "geometry": {"type": "Point", "coordinates": [100.55094, 13.83362], "crs": null}, "properties": {"sump_name": "บ่อสูบน้ำเทศบาลนิมิตใต้ ตอนลงคลองเปรมประชากร", "sump_code": "BN.S.009", "district_t": "จตุจักร", "sump_type": "บ่อสูบน้ำ", "volume": 326.63, "sump_depth": 3.35, "pump_amount": "2"}}, {"type": "Feature", "geometry": {"type": "Point", "coordinates": [100.66019, 13.83295], "crs": null}, "properties": {"sump_name": "บ่อสูบน้ำถนนนวมินทร์(ขาเข้า) ซอยนวมินทร์ 96", "sump_code": "BE.S.058", "district_t": "คันนายาว", "sump_type": "บ่อสูบน้ำ", "volume": 6.56, "sump_depth": 4.1, "pump_amount": "1"}}, {"type": "Feature", "geometry": {"type": "Point", "coordinates": [100.54247, 13.83923], "crs": null}, "properties": {"sump_name": "บ่อสูบน้ำถนนเทศบาลรังสรรใต้ สวนป่าประชานิเวศน์", "sump_code": "BN.S.010", "district_t": "จตุจักร", "sump_type": "บ่อสูบน้ำ", "volume": 19.87, "sump_depth": 3.6, "pump_amount": "3"}}, {"type": "Feature", "geometry": {"type": "Point", "coordinates": [100.5541, 13.83925], "crs": null}, "properties": {"sump_name": "บ่อสูบน้ำเทศบาลสงเคราะห์ ตอนลงคลองเปรมประชากร", "sump_code": "BN.S.008", "district_t": "จตุจักร", "sump_type": "บ่อสูบน้ำ", "volume": 59.4, "sump_depth": 1.8, "pump_amount": "2"}}, {"type": "Feature", "geometry": {"type": "Point", "coordinates": [100.59, 13.84116], "crs": null}, "properties": {"sump_name": "บ่อสูบน้ำถนนประเสริฐมนูกิจ ฝั่งใต้", "sump_code": "BN.S.032", "district_t": "จตุจักร", "sump_type": "บ่อสูบน้ำ", "volume": 101.25, "sump_depth": 3, "pump_amount": "3"}}, {"type": "Feature", "geometry": {"type": "Point", "coordinates": [100.58972, 13.84164], "crs": null}, "properties": {"sump_name": "บ่อสูบน้ำถนนประเสริฐมนูกิจ ฝั่งเหนือ", "sump_code": "BN.S.031", "district_t": "จตุจักร", "sump_type": "บ่อสูบน้ำ", "volume": 101.25, "sump_depth": 3, "pump_amount": "3"}}, {"type": "Feature", "geometry": {"type": "Point", "coordinates": [100.5598, 13.84465], "crs": null}, "properties": {"sump_name": "บ่อสูบน้ำถนนวิภาวดี ตอนลงคลองลาดยาว", "sump_code": "BN.S.011", "district_t": "จตุจักร", "sump_type": "บ่อสูบน้ำ", "volume": 325.73, "sump_depth": 5.8, "pump_amount": "3"}}, {"type": "Feature", "geometry": {"type": "Point", "coordinates": [100.56181, 13.84706], "crs": null}, "properties": {"sump_name": "บ่อสูบน้ำถนนวิภาวดี ตอนตัดถนนงามวงศ์วาน (ใบไม้ร่าเริง)", "sump_code": "BN.S.015", "district_t": "จตุจักร", "sump_type": "บ่อสูบน้ำ", "volume": 457.25, "sump_depth": 6.2, "pump_amount": "3"}}, {"type": "Feature", "geometry": {"type": "Point", "coordinates": [100.56206, 13.84764], "crs": null}, "properties": {"sump_name": "บ่อสูบน้ำถนนงามวงศ์วานตอนหน้าม.เกษตรฯ", "sump_code": "BN.S.050", "district_t": "จตุจักร", "sump_type": "บ่อสูบน้ำ", "volume": 54.4, "sump_depth": 4, "pump_amount": "1"}}, {"type": "Feature", "geometry": {"type": "Point", "coordinates": [100.54375, 13.84898], "crs": null}, "properties": {"sump_name": "บ่อสูบน้ำถนนเทศบาลรังสรรเหนือ ตอนลงคลองบางเขน(เพชรรัชต์)", "sump_code": "BN.S.012", "district_t": "จตุจักร", "sump_type": "บ่อสูบน้ำ", "volume": 81.03, "sump_depth": 3.65, "pump_amount": "2"}}, {"type": "Feature", "geometry": {"type": "Point", "coordinates": [100.55201, 13.85293], "crs": null}, "properties": {"sump_name": "บ่อสูบน้ำถนนงามวงศ์วาน ลงคลองบางเขน (ปากซอยชินเขต 2)", "sump_code": "BN.S.014", "district_t": "หลักสี่", "sump_type": "บ่อสูบน้ำ", "volume": 116.24, "sump_depth": 4.1, "pump_amount": "3"}}, {"type": "Feature", "geometry": {"type": "Point", "coordinates": [100.54553, 13.85597], "crs": null}, "properties": {"sump_name": "บ่อสูบน้ำพงษ์เพชร (บ่อใหม่)", "sump_code": "BN.S.096", "district_t": "หลักสี่", "sump_type": "บ่อสูบน้ำ", "volume": 99.36, "sump_depth": 4, "pump_amount": "4"}}, {"type": "Feature", "geometry": {"type": "Point", "coordinates": [100.58655, 13.85801], "crs": null}, "properties": {"sump_name": "บ่อสูบน้ำถนนพหลโยธิน ตอนคลองบางบัว ฝั่งตะวันออก", "sump_code": "BN.S.029", "district_t": "จตุจักร", "sump_type": "บ่อสูบน้ำ", "volume": 49.67, "sump_depth": 3.3, "pump_amount": "3"}}, {"type": "Feature", "geometry": {"type": "Point", "coordinates": [100.58642, 13.85843], "crs": null}, "properties": {"sump_name": "บ่อสูบน้ำถนนพหลโยธิน ตอนคลองบางบัว ฝั่งตะวันตก", "sump_code": "BN.S.030", "district_t": "จตุจักร", "sump_type": "บ่อสูบน้ำ", "volume": 73.5, "sump_depth": 3, "pump_amount": "3"}}, {"type": "Feature", "geometry": {"type": "Point", "coordinates": [100.5609, 13.86043], "crs": null}, "properties": {"sump_name": "บ่อสูบน้ำน้ำซอยชินเขต 2 ตอนลงคลองลาดโตนด", "sump_code": "BN.S.013", "district_t": "หลักสี่", "sump_type": "บ่อสูบน้ำ", "volume": 385, "sump_depth": 5, "pump_amount": "4"}}, {"type": "Feature", "geometry": {"type": "Point", "coordinates": [100.55864, 13.8751], "crs": null}, "properties": {"sump_name": "บ่อสูบน้ำท่าทราย", "sump_code": "BN.S.025", "district_t": "หลักสี่", "sump_type": "บ่อสูบน้ำ", "volume": 80, "sump_depth": 5, "pump_amount": "3"}}, {"type": "Feature", "geometry": {"type": "Point", "coordinates": [100.57655, 13.8796], "crs": null}, "properties": {"sump_name": "บ่อสูบน้ำแจ้งวัฒนะซอย 5", "sump_code": "BN.S.016", "district_t": "หลักสี่", "sump_type": "บ่อสูบน้ำ", "volume": 250.58, "sump_depth": 3.4, "pump_amount": "4"}}, {"type": "Feature", "geometry": {"type": "Point", "coordinates": [100.56501, 13.912], "crs": null}, "properties": {"sump_name": "บ่อสูบน้ำคลองบางพูด 2 ตอนลงคลองตาอูฐ", "sump_code": "BN.S.020", "district_t": "ดอนเมือง", "sump_type": "บ่อสูบน้ำ", "volume": 270, "sump_depth": 5, "pump_amount": "1"}}, {"type": "Feature", "geometry": {"type": "Point", "coordinates": [100.56264, 13.88166], "crs": null}, "properties": {"sump_name": "บ่อสูบน้ำแยกคลองบางตลาดตอนศูนย์ราชการแจ้งวัฒนะ", "sump_code": "BN.S.017", "district_t": "หลักสี่", "sump_type": "บ่อสูบน้ำ", "volume": 90.91, "sump_depth": 2.1, "pump_amount": "6"}}, {"type": "Feature", "geometry": {"type": "Point", "coordinates": [100.59725, 13.88613], "crs": null}, "properties": {"sump_name": "บ่อสูบน้ำพหลโยธิน 63 คลองรางอ้อรางแก้ว", "sump_code": "BN.S.026", "district_t": "บางเขน", "sump_type": "บ่อสูบน้ำ", "volume": 432, "sump_depth": 4, "pump_amount": "5"}}, {"type": "Feature", "geometry": {"type": "Point", "coordinates": [100.56387, 13.89218], "crs": null}, "properties": {"sump_name": "บ่อสูบน้ำแจ้งวัฒนะ 14", "sump_code": "BN.S.018", "district_t": "หลักสี่", "sump_type": "บ่อสูบน้ำ", "volume": 66.22, "sump_depth": 4.3, "pump_amount": "3"}}, {"type": "Feature", "geometry": {"type": "Point", "coordinates": [100.56493, 13.91185], "crs": null}, "properties": {"sump_name": "บ่อสูบน้ำคลองบางพูด", "sump_code": "BN.S.019", "district_t": "หลักสี่", "sump_type": "บ่อสูบน้ำ", "volume": 94.72, "sump_depth": 3.7, "pump_amount": "3"}}, {"type": "Feature", "geometry": {"type": "Point", "coordinates": [100.59546, 13.91273], "crs": null}, "properties": {"sump_name": "บ่อสูบน้ำเชิดวุฒากาศ ซอย3", "sump_code": "BN.S.049", "district_t": "ดอนเมือง", "sump_type": "บ่อสูบน้ำ", "volume": 182.25, "sump_depth": 4.5, "pump_amount": "3"}}, {"type": "Feature", "geometry": {"type": "Point", "coordinates": [100.59761, 13.92393], "crs": null}, "properties": {"sump_name": "บ่อสูบน้ำคูนายกิมสายสาม สรงประภา 1", "sump_code": "BN.S.097", "district_t": "ดอนเมือง", "sump_type": "บ่อสูบน้ำ", "volume": 372, "sump_depth": 5, "pump_amount": "4"}}, {"type": "Feature", "geometry": {"type": "Point", "coordinates": [100.56941, 13.93213], "crs": null}, "properties": {"sump_name": "บ่อสูบน้ำลำรางสีกัน ตอนคูนายกิมสาย3", "sump_code": "BN.S.021", "district_t": "ดอนเมือง", "sump_type": "บ่อสูบน้ำ", "volume": 292.5, "sump_depth": 5, "pump_amount": "3"}}, {"type": "Feature", "geometry": {"type": "Point", "coordinates": [100.63933, 13.93725], "crs": null}, "properties": {"sump_name": "บ่อสูบน้ำพหลโยธิน 58 โรงขนมจีน", "sump_code": "BN.S.024", "district_t": "สายไหม", "sump_type": "บ่อสูบน้ำ", "volume": 420.75, "sump_depth": 4.5, "pump_amount": "5"}}, {"type": "Feature", "geometry": {"type": "Point", "coordinates": [100.62657, 13.93772], "crs": null}, "properties": {"sump_name": "บ่อสูบน้ำซอยพหลโยธิน 58 แยก1 (แอนแนกซ์)", "sump_code": "BN.S.023", "district_t": "สายไหม", "sump_type": "บ่อสูบน้ำ", "volume": 225, "sump_depth": 5, "pump_amount": "3"}}, {"type": "Feature", "geometry": {"type": "Point", "coordinates": [100.61672, 13.94789], "crs": null}, "properties": {"sump_name": "บ่อสูบน้ำซอยวิภาวดี 45 (คลองลาดเป็ด)", "sump_code": "BN.S.022", "district_t": "ดอนเมือง", "sump_type": "บ่อสูบน้ำ", "volume": 252, "sump_depth": 5, "pump_amount": "3"}}, {"type": "Feature", "geometry": {"type": "Point", "coordinates": [100.74298, 13.81885], "crs": null}, "properties": {"sump_name": "บ่อสูบน้ำวัดแสนสุข", "sump_code": "BE.S.001", "district_t": "มีนบุรี", "sump_type": "บ่อสูบน้ำ", "volume": 294.17, "sump_depth": 5.6, "pump_amount": "3"}}]}