{"type": "FeatureCollection", "features": [{"type": "Feature", "geometry": {"type": "LineString", "coordinates": [[100.5359, 13.80472], [100.53569, 13.80486], [100.53319, 13.80565], [100.532, 13.80601], [100.5312, 13.80628], [100.52864, 13.8064], [100.52342, 13.80642], [100.51894, 13.80641]], "crs": null}, "properties": {"tunnel_name": "อุโมงค์ระบายน้ำคลองเปรมประชากร", "tunnel_code": "1", "tunnel_length": 1880, "owner": "สำนักพัฒนาระบบระบายน้ำ"}}, {"type": "Feature", "geometry": {"type": "LineString", "coordinates": [[100.60352, 13.75066], [100.60091, 13.74806], [100.60053, 13.74775], [100.60019, 13.74733], [100.59984, 13.7464], [100.59939, 13.74466], [100.5988, 13.7433], [100.59847, 13.74232], [100.59837, 13.74199], [100.59794, 13.7411], [100.5979, 13.74102], [100.5987, 13.74078], [100.59881, 13.74061], [100.59885, 13.74044], [100.59853, 13.73954], [100.59838, 13.73904], [100.5983, 13.73868], [100.59831, 13.73835], [100.59863, 13.73818], [100.59827, 13.73684], [100.59808, 13.73608], [100.59791, 13.73548], [100.59768, 13.7346], [100.59751, 13.73387], [100.59739, 13.73338], [100.59719, 13.73266], [100.59701, 13.73202], [100.59646, 13.72999], [100.59624, 13.72913], [100.59607, 13.72827], [100.59598, 13.72768], [100.59595, 13.72688], [100.59593, 13.72584], [100.5959, 13.72472], [100.59585, 13.72213], [100.5958, 13.71991], [100.59577, 13.71855], [100.59576, 13.71787], [100.59572, 13.71747], [100.59555, 13.71687], [100.59532, 13.71618], [100.59486, 13.71504], [100.59443, 13.7139], [100.59416, 13.71324], [100.59412, 13.71317], [100.59413, 13.71313], [100.59431, 13.71299], [100.59613, 13.71175], [100.59705, 13.71109], [100.59717, 13.71098], [100.59678, 13.71031], [100.59666, 13.71016], [100.59606, 13.70994], [100.59563, 13.7098], [100.59539, 13.70988]], "crs": null}, "properties": {"tunnel_name": "อุโมงค์ระบายน้ำคลองแสนแสบและคลองลาดพร้าว", "tunnel_code": "3", "tunnel_length": 5110, "owner": "สำนักพัฒนาระบบระบายน้ำ"}}, {"type": "Feature", "geometry": {"type": "LineString", "coordinates": [[100.57394, 13.7962], [100.57313, 13.79615], [100.5722, 13.79595], [100.57126, 13.7958], [100.56892, 13.79529], [100.56772, 13.79514], [100.56726, 13.79502], [100.56696, 13.79485], [100.5669, 13.79481], [100.56635, 13.79459], [100.56602, 13.79453], [100.56569, 13.79455], [100.565, 13.79465], [100.56435, 13.7947], [100.56345, 13.7948], [100.56319, 13.79483], [100.56247, 13.79488], [100.56183, 13.79491], [100.56159, 13.79493], [100.56144, 13.79494], [100.56083, 13.79505], [100.56047, 13.7951], [100.5601, 13.79509], [100.55993, 13.79508], [100.55964, 13.79511], [100.55937, 13.7952], [100.55917, 13.79529], [100.55893, 13.79533], [100.55874, 13.79529], [100.55815, 13.79537], [100.55781, 13.79528], [100.55754, 13.79527], [100.55706, 13.7953], [100.5566, 13.79539], [100.55598, 13.79553], [100.55569, 13.79554], [100.55548, 13.79549], [100.55525, 13.79548], [100.55479, 13.79564], [100.55466, 13.79565], [100.55451, 13.79564], [100.55435, 13.79563], [100.55411, 13.79564], [100.55357, 13.79586], [100.5534, 13.79588], [100.55311, 13.79585], [100.55241, 13.79591], [100.55178, 13.79596], [100.55158, 13.79599], [100.55132, 13.79607], [100.55119, 13.79608], [100.55085, 13.79601], [100.5507, 13.79602], [100.55005, 13.79619], [100.54932, 13.79637], [100.54854, 13.79651], [100.5463, 13.79671], [100.5448, 13.79688], [100.54408, 13.79698], [100.54276, 13.79713], [100.54115, 13.79732], [100.54026, 13.7974], [100.53935, 13.79752], [100.53868, 13.7976], [100.53781, 13.7977], [100.53736, 13.79779], [100.5354, 13.79864], [100.53375, 13.79946], [100.53316, 13.79973], [100.53235, 13.7982], [100.53179, 13.79831], [100.53139, 13.79834], [100.53103, 13.79835], [100.5303, 13.79844], [100.52978, 13.79857], [100.52917, 13.79878], [100.52891, 13.79881], [100.52841, 13.79882], [100.52794, 13.79875], [100.52733, 13.79861], [100.52691, 13.7986], [100.52671, 13.79865], [100.52639, 13.79881], [100.52625, 13.79893], [100.52598, 13.79907], [100.52582, 13.79919], [100.52563, 13.79925], [100.52544, 13.79926], [100.52519, 13.79914], [100.52505, 13.79912], [100.52423, 13.79939], [100.52393, 13.79951], [100.52357, 13.7996], [100.5229, 13.79971], [100.52228, 13.79989], [100.52188, 13.79993], [100.52132, 13.79983], [100.52103, 13.79984]], "crs": null}, "properties": {"tunnel_name": "อุโมงค์ระบายน้ำคลองบางซื่อจากคลองลาดพร้าว", "tunnel_code": "4", "tunnel_length": 6400, "owner": "สำนักพัฒนาระบบระบายน้ำ"}}, {"type": "Feature", "geometry": {"type": "LineString", "coordinates": [[100.65317, 13.69494], [100.65319, 13.69474], [100.65338, 13.69413], [100.65339, 13.6938], [100.6532, 13.69284], [100.6531, 13.69239], [100.65292, 13.6912], [100.6528, 13.68998], [100.65285, 13.68946], [100.65297, 13.68884], [100.65304, 13.68839], [100.65371, 13.68661], [100.65384, 13.68626], [100.65397, 13.68593], [100.65329, 13.68571], [100.65239, 13.68543], [100.65126, 13.68509], [100.64993, 13.68465], [100.64896, 13.68428], [100.64813, 13.68393], [100.64766, 13.68369], [100.64671, 13.6835], [100.64647, 13.68348], [100.6461, 13.67869], [100.64597, 13.67771], [100.64123, 13.67783], [100.64018, 13.67784], [100.63828, 13.67787], [100.63612, 13.67789], [100.63441, 13.67795], [100.63155, 13.67808], [100.62669, 13.67827], [100.6246, 13.67833], [100.62417, 13.67949], [100.62359, 13.68095], [100.62293, 13.68259], [100.62273, 13.68312], [100.62269, 13.68375], [100.62269, 13.68442], [100.62117, 13.68438], [100.6196, 13.68441], [100.6173, 13.6844], [100.61551, 13.68436], [100.61174, 13.68432], [100.61081, 13.68431], [100.61063, 13.68429], [100.61038, 13.68424], [100.60968, 13.68366], [100.60905, 13.68321], [100.60854, 13.68289], [100.60788, 13.68234], [100.60774, 13.68223], [100.60768, 13.68219], [100.60758, 13.68214], [100.60751, 13.68212], [100.60743, 13.68213], [100.60736, 13.68216], [100.60725, 13.68224], [100.60712, 13.68234], [100.60696, 13.68237], [100.60686, 13.68238], [100.60676, 13.68232], [100.6066, 13.68223], [100.60626, 13.68204], [100.6056, 13.68167], [100.60494, 13.6813], [100.60463, 13.68112], [100.60438, 13.68102], [100.604, 13.68094], [100.60344, 13.68079], [100.60279, 13.68063], [100.60203, 13.68042], [100.60096, 13.68011], [100.60039, 13.67996], [100.60023, 13.67992], [100.59999, 13.67995], [100.59942, 13.68004], [100.59924, 13.68006], [100.59862, 13.68033], [100.59797, 13.68054], [100.59717, 13.6808], [100.59668, 13.68095], [100.59618, 13.68111], [100.59555, 13.68132], [100.59484, 13.68156], [100.59428, 13.68171], [100.59394, 13.6817], [100.59335, 13.68186], [100.59324, 13.68193], [100.59306, 13.68199], [100.59273, 13.68199], [100.59253, 13.68202], [100.59182, 13.68221], [100.59129, 13.68235], [100.59023, 13.68264]], "crs": null}, "properties": {"tunnel_name": "อุโมงค์ระบายน้ำหนองบอน", "tunnel_code": "5", "tunnel_length": 9400, "owner": "สำนักพัฒนาระบบระบายน้ำ"}}, {"type": "Feature", "geometry": {"type": "LineString", "coordinates": [[100.63044, 13.76314], [100.62913, 13.76284], [100.62746, 13.76274], [100.6238, 13.76232], [100.62195, 13.76215], [100.62067, 13.76204], [100.61953, 13.76177], [100.61841, 13.76166], [100.61676, 13.76147], [100.61604, 13.76133], [100.61553, 13.7612], [100.61489, 13.76092], [100.61451, 13.76066], [100.61337, 13.75967], [100.61234, 13.75864], [100.61149, 13.75786], [100.61062, 13.75705], [100.60971, 13.75622], [100.60886, 13.75544], [100.60814, 13.75478], [100.60746, 13.75416], [100.60655, 13.75333], [100.60544, 13.75232], [100.60492, 13.75185], [100.60439, 13.75139], [100.60375, 13.75084], [100.60352, 13.75066]], "crs": null}, "properties": {"tunnel_name": "อุโมงระบายน้ำคลองแสนแสบจากอุโมงค์ระบายน้ำคลองแสนแสบ", "tunnel_code": "7", "tunnel_length": 3800, "owner": "สำนักพัฒนาระบบระบายน้ำ"}}, {"type": "Feature", "geometry": {"type": "LineString", "coordinates": [[100.37339, 13.70812], [100.37363, 13.70763], [100.37407, 13.70671], [100.37463, 13.70553], [100.37507, 13.70465], [100.37527, 13.70421], [100.3756, 13.70354], [100.37591, 13.70287], [100.37622, 13.70221], [100.37654, 13.70153], [100.37677, 13.70103], [100.37705, 13.70044], [100.37754, 13.69941], [100.37796, 13.69853], [100.37813, 13.69818], [100.37836, 13.69767], [100.37866, 13.69703], [100.37892, 13.69647], [100.37911, 13.69605], [100.37931, 13.69558], [100.37949, 13.69516], [100.37966, 13.69479], [100.37994, 13.69423], [100.38026, 13.69361], [100.38047, 13.69317], [100.38065, 13.69279], [100.38087, 13.69233], [100.38109, 13.69188], [100.38123, 13.69157]], "crs": null}, "properties": {"tunnel_name": "อุโมงค์ระบายน้ำคลองทวีวัฒนา บริเวณคอขวด", "tunnel_code": "8", "tunnel_length": 2030, "owner": "สำนักพัฒนาระบบระบายน้ำ"}}, {"type": "Feature", "geometry": {"type": "LineString", "coordinates": [[100.5956, 13.88853], [100.59462, 13.88764], [100.59418, 13.88787], [100.59288, 13.88836], [100.59201, 13.88868], [100.59118, 13.88897], [100.59045, 13.88919], [100.58983, 13.88938], [100.58891, 13.88953], [100.58872, 13.88951], [100.58831, 13.88935], [100.58802, 13.88933], [100.58769, 13.88944], [100.58718, 13.88962], [100.58678, 13.88997], [100.5867, 13.89001], [100.58552, 13.89022], [100.58458, 13.89036], [100.58349, 13.89059], [100.58326, 13.89061], [100.58279, 13.8906], [100.58194, 13.88906], [100.58123, 13.88776], [100.58058, 13.88659], [100.58002, 13.88556], [100.57918, 13.88403], [100.57879, 13.88329], [100.57824, 13.88225], [100.57777, 13.88139], [100.57731, 13.88057], [100.57669, 13.87946], [100.57446, 13.87539], [100.57341, 13.87349], [100.572, 13.87092], [100.57071, 13.86848], [100.56971, 13.86677], [100.56835, 13.86419], [100.56753, 13.86268], [100.56703, 13.86171], [100.5655, 13.85897], [100.56432, 13.85695], [100.56351, 13.85561], [100.56255, 13.85342], [100.56109, 13.85088], [100.56055, 13.84996], [100.55921, 13.84736], [100.55829, 13.84575], [100.55705, 13.84349], [100.55671, 13.84288], [100.55632, 13.84213], [100.55541, 13.8405], [100.55492, 13.8396], [100.55454, 13.83892], [100.5541, 13.83808], [100.55364, 13.83724], [100.55314, 13.83629], [100.55116, 13.83294], [100.55081, 13.83219], [100.54972, 13.83021], [100.54756, 13.83019], [100.54567, 13.83011], [100.54354, 13.83012], [100.5417, 13.83031], [100.54014, 13.83036], [100.53848, 13.83052], [100.53593, 13.83076], [100.53413, 13.83089], [100.53371, 13.83088], [100.53327, 13.83088], [100.53269, 13.83079], [100.53174, 13.83056], [100.53113, 13.83032], [100.53033, 13.82989], [100.52945, 13.82921], [100.52861, 13.82845], [100.5279, 13.82781], [100.52695, 13.82695], [100.52597, 13.82606], [100.52332, 13.8236], [100.52166, 13.82212], [100.51981, 13.82052], [100.51812, 13.81888], [100.51696, 13.81798], [100.51668, 13.81764], [100.51654, 13.81741], [100.5165, 13.81711], [100.51656, 13.81682], [100.51666, 13.81661], [100.51686, 13.81644], [100.51697, 13.81622], [100.51701, 13.81609], [100.51689, 13.81568], [100.51671, 13.81536], [100.51651, 13.81511], [100.51644, 13.8149], [100.51656, 13.81471], [100.51681, 13.81444], [100.51699, 13.81426], [100.51711, 13.81407], [100.51709, 13.81384], [100.51688, 13.81361]], "crs": null}, "properties": {"tunnel_name": "อุโมงค์ระบายน้ำคลองเปรมประชากรจากคลองบางบัว", "tunnel_code": "6", "tunnel_length": 13500, "owner": "สำนักพัฒนาระบบระบายน้ำ"}}, {"type": "Feature", "geometry": {"type": "LineString", "coordinates": [[100.42621, 13.70731], [100.42622, 13.70713], [100.42624, 13.70675], [100.42628, 13.70619], [100.42631, 13.70575], [100.42633, 13.70552], [100.42634, 13.70535], [100.42635, 13.70516], [100.42636, 13.70493], [100.42638, 13.70474], [100.42638, 13.70449], [100.4264, 13.70424], [100.42641, 13.70392], [100.42641, 13.7037], [100.42654, 13.70157], [100.42657, 13.70099], [100.42663, 13.70005], [100.42665, 13.69953], [100.42667, 13.69918], [100.42663, 13.6989], [100.42658, 13.69858], [100.42656, 13.69831], [100.42652, 13.69785], [100.42654, 13.69725], [100.42656, 13.69646], [100.42662, 13.69546], [100.4267, 13.69441], [100.42677, 13.69372], [100.42686, 13.69291], [100.427, 13.69195], [100.42719, 13.6909], [100.42739, 13.69014], [100.4275, 13.68983], [100.42764, 13.68885], [100.42779, 13.68769], [100.42791, 13.68628], [100.42801, 13.68509], [100.42817, 13.68417], [100.42824, 13.68374], [100.42835, 13.68269], [100.42848, 13.68136], [100.42872, 13.67961], [100.42876, 13.67944], [100.42893, 13.67896], [100.4291, 13.67703], [100.42926, 13.67571], [100.4293, 13.67555], [100.4295, 13.67386], [100.42961, 13.67259], [100.42965, 13.67204], [100.4296, 13.67186], [100.42973, 13.67051], [100.42988, 13.66891], [100.43, 13.66756], [100.43004, 13.66724], [100.4302, 13.666], [100.43071, 13.6643], [100.43149, 13.66239], [100.43163, 13.6619], [100.43199, 13.66036], [100.43248, 13.65833], [100.43294, 13.65607], [100.43343, 13.6541], [100.43385, 13.65215], [100.43434, 13.64984], [100.43477, 13.64795], [100.43547, 13.64504], [100.43583, 13.64342], [100.43625, 13.64137], [100.43644, 13.64053], [100.43657, 13.63993], [100.43672, 13.6392], [100.43695, 13.63805], [100.43744, 13.63569], [100.43779, 13.634], [100.43811, 13.63262], [100.43841, 13.63114], [100.4387, 13.62984], [100.43889, 13.62879], [100.43915, 13.62786]], "crs": null}, "properties": {"tunnel_name": "อุโมงค์ระบายน้ำคลองพระยาราชมนตรี", "tunnel_code": "9", "tunnel_length": 9195, "owner": "สำนักพัฒนาระบบระบายน้ำ"}}, {"type": "Feature", "geometry": {"type": "LineString", "coordinates": [[100.54817, 13.75661], [100.54759, 13.75657], [100.54669, 13.75662], [100.54615, 13.75652], [100.54589, 13.75627], [100.54574, 13.75592], [100.54572, 13.75563], [100.54583, 13.7552], [100.54614, 13.75462], [100.54677, 13.75384], [100.54801, 13.7529], [100.5485, 13.75253], [100.54885, 13.75209], [100.54921, 13.75159], [100.5496, 13.75068], [100.54988, 13.7496], [100.55008, 13.74824], [100.55034, 13.74562], [100.55065, 13.74244], [100.55096, 13.74061], [100.55106, 13.7397], [100.55117, 13.73862], [100.55133, 13.73706], [100.55153, 13.73519], [100.55167, 13.73377], [100.55187, 13.73197], [100.55213, 13.73002], [100.55218, 13.72932], [100.55233, 13.72833], [100.5524, 13.72748], [100.55253, 13.7262], [100.55271, 13.72473], [100.55288, 13.72294], [100.553, 13.72217], [100.5531, 13.72054], [100.55317, 13.71973], [100.55323, 13.71922], [100.55335, 13.71841], [100.55359, 13.71666], [100.55383, 13.71412], [100.55402, 13.71196], [100.55408, 13.71083], [100.55391, 13.70987], [100.55353, 13.70905], [100.55292, 13.70848], [100.55191, 13.70752], [100.55004, 13.70566], [100.54946, 13.70509]], "crs": null}, "properties": {"tunnel_name": "อุโมงค์ระบายน้ำบึงมักกะสัน", "tunnel_code": "2", "tunnel_length": 5980, "owner": "สำนักพัฒนาระบบระบายน้ำ"}}]}