{"features":[{"geometry":{"type":"LineString","coordinates":[[100.56429181363701,13.740043528514045],[100.56353301591415,13.74015976562857],[100.56323748413193,13.740205831933306],[100.56280502863927,13.740273297832708],[100.56186326366296,13.740420223608824]],"crs":null},"id":1,"type":"Feature","properties":{"utm_x":669004.5473,"fd_prevent":"13","pipej_type":"ค.ส.ล.","f_el_pipej":"-","year":"2563","pipej_code":"01","shape_length":265.93166388,"utm_y":1519545.0828,"f_pipej":"-","t_el_pipej":"-","discharge":5,"dimension":"-","budget":113,"owner":"สำนักการระบายน้ำ","length_bma":"300","objectid_1":1,"to_pipej":"-","plan_build":"21/07/60-15/07/61","subdistrict_id":"103901","roadcl_id":"-","pipej_name":"ระบบระบายน้ำเพื่อแก้ไขปัญหาน้ำท่วมถนนสุขุมวิท 21 (อโศกมนตรี)","district_t":"วัฒนา","district_id":"1039","SHAPE__Length":273.77010502000655,"objectid":1,"pipej_class":"ท่อขนส่งน้ำ","status":"กำลังก่อสร้าง(จะเสร็จ 11/63)"}},{"geometry":{"type":"LineString","coordinates":[[100.52871187649711,13.769204074114676],[100.52869224794784,13.769164974479791],[100.52843305642715,13.76855547198791],[100.52837367203522,13.768441065029025],[100.5274557346201,13.766157209956612],[100.52706633491559,13.76518836612229],[100.52692647235166,13.764869311497991],[100.52614579073192,13.762945372437787],[100.52613287487405,13.762917343824542],[100.52576443742208,13.762015340833734],[100.52576420666394,13.762014979786544],[100.5256744674783,13.761793754278008],[100.52653664001744,13.761422755974841],[100.52654140250472,13.761427880677248],[100.52662827836907,13.76138477351699],[100.52895306274274,13.760329150806598],[100.5305141810148,13.759620320722714],[100.53062034306751,13.759563992733465],[100.53294087234704,13.758516851852635],[100.53414672653253,13.75794062327902],[100.53432277115276,13.757890275733645],[100.53439774416839,13.757868841371787]],"crs":null},"id":2,"type":"Feature","properties":{"utm_x":665016.1179,"fd_prevent":"06","pipej_type":"ค.ส.ล.(2),เหล็กเหนียว(1)","f_el_pipej":"-","year":"2563","pipej_code":"02","shape_length":1922.64712669,"utm_y":1521873.6393,"f_pipej":"-","t_el_pipej":"-","discharge":0,"dimension":"c1.8,c1.5,c1.2","budget":362.5,"owner":"กองระบบท่อระบายน้ำ","length_bma":"1250,1530,350","objectid_1":2,"to_pipej":"-","plan_build":"16/02/61-30/06/62","subdistrict_id":"103701","roadcl_id":"-","pipej_name":"ระบบระบายน้ำเพื่อแก้ไขปัญหาน้ำท่วมถนนศรีอยุธยาและถนนพระรามที่ 6","district_t":"ราชเทวี","district_id":"1037","SHAPE__Length":1985.4091824390164,"objectid":2,"pipej_class":"ท่อระบายน้ำ(2),ท่อลอด(1)","status":"กำลังก่อสร้าง(จะเสร็จ 12/63)"}},{"geometry":{"type":"LineString","coordinates":[[100.57555902688394,13.839627794930081],[100.5756494390663,13.839596761025145],[100.57570906141315,13.839604147661236],[100.57578880409324,13.839642498396609],[100.57588448495065,13.839692305772925],[100.57598413605379,13.83974209390271],[100.57611563336549,13.839808667904812],[100.57621130523535,13.839857122048492],[100.57637197297834,13.839906335861372],[100.57642136405491,13.839911353002456],[100.57672010859686,13.839916929881753],[100.57679525906448,13.839919793520101],[100.57688864982,13.839923349666078],[100.57689988443666,13.839926891192329],[100.57700369546517,13.839960022943362],[100.57716506650448,13.840033812509951],[100.57738766041018,13.840114704886815],[100.57759823501483,13.840155645849025],[100.57761772427676,13.84016184591726],[100.57821594679693,13.840292652446596],[100.5789596498811,13.840415105374172],[100.57899546118232,13.840419840684424],[100.57910127642347,13.840433799400206],[100.5797184569186,13.840514951358077],[100.58031637727002,13.840600926229694],[100.58099825677122,13.840648944409477],[100.58181793635752,13.8406810681816],[100.58269845681917,13.840652880964463],[100.58433721035063,13.840649796402088],[100.58580878079142,13.840819846149092],[100.5874492837328,13.841063711527877],[100.58749575384923,13.84104379670664],[100.58805447999391,13.841097203564434],[100.5893884063768,13.841305537517632],[100.5902275166292,13.841469716725554]],"crs":null},"id":3,"type":"Feature","properties":{"utm_x":671069.4601,"fd_prevent":"03","pipej_type":"ค.ส.ล.(1),เหล็กเหนียว(2)","f_el_pipej":"-","year":"2563","pipej_code":"03","shape_length":1610.67159132,"utm_y":1530668.7722,"f_pipej":"-","t_el_pipej":"-","discharge":0,"dimension":"c1.8,c1.2,c1.8","budget":172.89,"owner":"กองระบบท่อระบายน้ำ","length_bma":"1325,76,1800","objectid_1":3,"to_pipej":"-","plan_build":"10/02/61-26/05/63","subdistrict_id":"103001","roadcl_id":"-","pipej_name":"ระบบระบายน้ำเพื่อแก้ไขปัญหาน้ำท่วมถนนพหลโยธินบริเวณแยกเกษตร","district_t":"ลาดพร้าว","district_id":"1038","SHAPE__Length":1658.9000305010004,"objectid":3,"pipej_class":"ท่อระบายน้ำ(1),ท่อลอด(2)","status":"แล้วเสร็จ"}},{"geometry":{"type":"LineString","coordinates":[[100.56629898384838,13.734085641200847],[100.56668696811646,13.735867548488198]],"crs":null},"id":4,"type":"Feature","properties":{"utm_x":669377.7101,"fd_prevent":"13","pipej_type":"ค.ส.ล.","f_el_pipej":"-","year":"2563","pipej_code":"04","shape_length":201.55214091,"utm_y":1518966.2078,"f_pipej":"-","t_el_pipej":"-","discharge":4,"dimension":"-","budget":173.75,"owner":"สำนักพัฒนาระบบระบายน้ำ","length_bma":"1075","objectid_1":4,"to_pipej":"-","plan_build":"19/07/60-17/05/63","subdistrict_id":"103901 103902","roadcl_id":"-","pipej_name":"ระบบระบายน้ำเพื่อแก้ไขปัญหาน้ำท่วมถนนสุขุมวิท 31 และซอยสวัสดี","district_t":"วัฒนา","district_id":"1039","SHAPE__Length":208.71783809528497,"objectid":4,"pipej_class":"ท่อขนส่งและระบายน้ำแรงดัน","status":"แล้วเสร็จ"}},{"geometry":{"type":"LineString","coordinates":[[100.58453254319777,13.71996368053918],[100.58461179139879,13.722524874068414],[100.5846167256847,13.723259935546825],[100.58470956398806,13.724392251444398],[100.58485310435826,13.724990049330579],[100.58486554148196,13.72503732812002],[100.58495653285284,13.725383414769405],[100.58514197951722,13.726215909522988],[100.5854361474172,13.727536357237332],[100.58571856057752,13.72844604061179],[100.58593745787876,13.7291508931627],[100.58612542737663,13.729756179496983],[100.58647337285554,13.730818080803965],[100.58683774216983,13.731930395148256],[100.5869078656852,13.73214204583961],[100.58726180545132,13.733210141754402],[100.58756570713305,13.73412718817577],[100.58785357094924,13.734971586887893],[100.58817169623056,13.735904714999426],[100.58832492471089,13.73635414477686],[100.58877175525801,13.737762700808918],[100.58899960759379,13.738480783552259],[100.58902188772574,13.73855112955139],[100.58976542721184,13.740755399728352],[100.58981158632547,13.740895542437073],[100.58986335047508,13.74105291274357],[100.58985626320235,13.741053224169477],[100.58961607426433,13.741220789219403],[100.58920801749427,13.741686576425586],[100.58914642609244,13.741835456410515],[100.58915640566946,13.741992726371159],[100.58919310989569,13.742132296468743],[100.58924087290806,13.742284718477972],[100.58929880898134,13.742469751199042]],"crs":null},"id":5,"type":"Feature","properties":{"utm_x":671564.5863,"fd_prevent":"13","pipej_type":"ค.ส.ล.","f_el_pipej":"-","year":"2563","pipej_code":"05","shape_length":2608.06212474,"utm_y":1518593.6624,"f_pipej":"-","t_el_pipej":"-","discharge":6,"dimension":"c2.0","budget":334.58,"owner":"สำนักการระบายน้ำ","length_bma":"2660","objectid_1":5,"to_pipej":"-","plan_build":"08/11/60-13/01/63","subdistrict_id":"103902 103903","roadcl_id":"-","pipej_name":"ระบบระบายน้ำเพื่อแก้ไขปัญหาน้ำท่วมถนนสุขุมวิท 63 (เอกมัย)","district_t":"คลองเตย","district_id":"1033","SHAPE__Length":2700.0078981558845,"objectid":5,"pipej_class":"ท่อขนส่งน้ำ","status":"กำลังก่อสร้าง(จะเสร็จ 07/63)"}},{"geometry":{"type":"LineString","coordinates":[[100.51226708520494,13.740463900213227],[100.51148468943298,13.739439855523136],[100.51134936103234,13.739262739846692],[100.51079578489315,13.738427622735431],[100.50992097565504,13.73710319819636],[100.50977707542957,13.73688536529128]],"crs":null},"id":6,"type":"Feature","properties":{"utm_x":663371.3831,"fd_prevent":"10","pipej_type":"ค.ส.ล.","f_el_pipej":"-","year":"2563","pipej_code":"06","shape_length":479.04336851,"utm_y":1519340.26,"f_pipej":"-","t_el_pipej":"-","discharge":0,"dimension":"c1.8","budget":101.55,"owner":"กองระบบท่อระบายน้ำ","length_bma":"444","objectid_1":6,"to_pipej":"-","plan_build":"23/8/60-04/06/63","subdistrict_id":"101302","roadcl_id":"-","pipej_name":"ระบบระบายน้ำเพื่อแก้ไขปัญหาน้ำท่วมถนนทรงสวัสดิ์ ถนนเยาวราช และถนนเจริญกรุง","district_t":"สัมพันธวงศ์","district_id":"1013","SHAPE__Length":495.2391399205987,"objectid":6,"pipej_class":"ท่อระบายน้ำ","status":"แล้วเสร็จ"}},{"geometry":{"type":"LineString","coordinates":[[100.55315398123527,13.736039963490947],[100.5530260708937,13.739869389619171],[100.5530172730436,13.740132783766049],[100.55297796675369,13.741309565506333],[100.55299406745821,13.74189011661476],[100.5529964688708,13.741976858133729],[100.55300690376598,13.742090666737495]],"crs":null},"id":7,"type":"Feature","properties":{"utm_x":667921.2671,"fd_prevent":"13","pipej_type":"ค.ส.ล.","f_el_pipej":"-","year":"2563","pipej_code":"07","shape_length":669.78528319,"utm_y":1519409.1569,"f_pipej":"-","t_el_pipej":"-","discharge":4.5,"dimension":"c1.8","budget":141.4,"owner":"สำนักการระบายน้ำ","length_bma":"950","objectid_1":7,"to_pipej":"-","plan_build":"29/12/60-02/02/62","subdistrict_id":"103301","roadcl_id":"-","pipej_name":"ระบบระบายน้ำเพื่อแก้ไขปัญหาน้ำท่วมถนนสุขุมวิท 4 (นานาใต้)","district_t":"คลองเตย","district_id":"1033","SHAPE__Length":693.7983538186111,"objectid":7,"pipej_class":"ท่อขนส่งน้ำ","status":"กำลังก่อสร้าง(จะเสร็จ 08/63)"}},{"geometry":{"type":"LineString","coordinates":[[100.57241433847815,13.738258351012966],[100.57246791309866,13.738299671014802],[100.57248433340042,13.738372497832147],[100.57252240098845,13.739278699195513],[100.57251612211414,13.739937828676796],[100.5725441599811,13.740140810219936],[100.57261498900421,13.740380027186147],[100.57268596242263,13.740629636403373],[100.57271368271184,13.740796197582624],[100.57284548892898,13.7417047160645],[100.57287763695146,13.741926305482588],[100.57290925198583,13.742144222969163],[100.5729193638005,13.742299778208379],[100.57291363157545,13.742331899204375],[100.57287499393418,13.742346695894447],[100.57241988401222,13.742416564038088],[100.57237833704602,13.742440055877616],[100.57237549965518,13.742460497012269],[100.5723788030163,13.7425099083343],[100.5725484798165,13.743393759885151],[100.57269006364554,13.744078338848817],[100.57271502285423,13.744254222444876],[100.57269357212128,13.744363552992404],[100.57275709380171,13.744743601859224],[100.57294863810519,13.745889602002377]],"crs":null},"id":8,"type":"Feature","properties":{"utm_x":670067.3343,"fd_prevent":"13","pipej_type":"ค.ส.ล.","f_el_pipej":"-","year":"2563","pipej_code":"08","shape_length":904.96558972,"utm_y":1519779.07,"f_pipej":"-","t_el_pipej":"-","discharge":6,"dimension":"-","budget":123.74,"owner":"สำนักพัฒนาระบบระบายน้ำ","length_bma":"530","objectid_1":8,"to_pipej":"-","plan_build":"12/01/61-03/08/62","subdistrict_id":"103902","roadcl_id":"-","pipej_name":"ระบบระบายน้ำเพื่อแก้ไขปัญหาน้ำท่วมถนนสุขุมวิท 39","district_t":"วัฒนา","district_id":"1039","SHAPE__Length":936.8879554119216,"objectid":8,"pipej_class":"ท่อขนส่งน้ำ","status":"กำลังก่อสร้าง(จะเสร็จ 11/63)"}},{"geometry":{"type":"LineString","coordinates":[[100.53998481161817,13.71693229481189],[100.54016222959416,13.71665670289506],[100.53939566971478,13.716263110128391],[100.53891456912207,13.716024983735577],[100.53792032691629,13.715533031645865],[100.53638593317832,13.714760294300737],[100.5345425162949,13.713852725929433]],"crs":null},"id":9,"type":"Feature","properties":{"utm_x":666256.3917,"fd_prevent":"11","pipej_type":"ค.ส.ล.(2),เหล็กเหนียว(1)","f_el_pipej":"-","year":"2563","pipej_code":"09","shape_length":718.44301292,"utm_y":1516771.8179,"f_pipej":"-","t_el_pipej":"-","discharge":0,"dimension":"c1.2,c0.8,c1.2","budget":35.65,"owner":"กองระบบท่อระบายน้ำ","length_bma":"114,-,70","objectid_1":9,"to_pipej":"-","plan_build":"05/07/60-21/05/63","subdistrict_id":"102803","roadcl_id":"-","pipej_name":"ระบบระบายน้ำเพื่อแก้ไขปัญหาน้ำท่วมถนนนราธิวาสราชนครินทร์ 17 และถนนสวนพลู","district_t":"สาทร","district_id":"1028","SHAPE__Length":740.5285903143721,"objectid":9,"pipej_class":"ท่อระบายน้ำ(2),ท่อลอด(1)","status":"แล้วเสร็จ"}},{"geometry":{"type":"LineString","coordinates":[[100.60185910777003,13.658347177342353],[100.60609756188613,13.669364925749083]],"crs":null},"id":10,"type":"Feature","properties":{"utm_x":673483.9384,"fd_prevent":"26","pipej_type":"ค.ส.ล.","f_el_pipej":"-","year":"2563","pipej_code":"10","shape_length":1302.32416212,"utm_y":1511124.7061,"f_pipej":"-","t_el_pipej":"-","discharge":6,"dimension":"-","budget":182.97,"owner":"สำนักพัฒนาระบบระบายน้ำ","length_bma":"1300","objectid_1":10,"to_pipej":"-","plan_build":"10/01/61-08/09/62","subdistrict_id":"104702","roadcl_id":"-","pipej_name":"ระบบระบายน้ำเพื่อแก้ไขปัญหาน้ำท่วมถนนสุขุมวิท 107 ถึงคลองบางนา","district_t":"บางนา","district_id":"1047","SHAPE__Length":1347.5154410021394,"objectid":10,"pipej_class":"ท่อขนส่งและระบายน้ำแรงดัน","status":"แล้วเสร็จ"}},{"geometry":{"type":"LineString","coordinates":[[100.7259724072967,13.81844153014456],[100.72777378472745,13.81860172358864],[100.72973611584526,13.818776223897743],[100.72997597459181,13.818797576605627],[100.73126865183171,13.818915967317658],[100.73434717807046,13.819197855041427],[100.73460390756387,13.819221343493549],[100.73461315749623,13.819213961493434],[100.73898748690442,13.819613862155148],[100.73900192668037,13.819616744306334],[100.74156169641742,13.819858206360893],[100.7415948340361,13.819863934702997],[100.74193185799984,13.819884048011126],[100.74212327415037,13.819882689062371],[100.74219793092573,13.819871133052631],[100.74221290841686,13.819868832185815]],"crs":null},"id":11,"type":"Feature","properties":{"utm_x":687437.2481,"fd_prevent":"20","pipej_type":"-","f_el_pipej":"-","year":"2563","pipej_code":"12","shape_length":1763.8502366,"utm_y":1528405.7407,"f_pipej":"-","t_el_pipej":"-","discharge":0,"dimension":"-","budget":80.79,"owner":"กองระบบท่อระบายน้ำ","length_bma":"-","objectid_1":11,"to_pipej":"-","plan_build":"01/11/61-03/07/63","subdistrict_id":"101001","roadcl_id":"-","pipej_name":"ระบบระบายน้ำเพื่อแก้ไขปัญหาน้ำท่วมถนนสุวินทวงศ์","district_t":"มีนบุรี","district_id":"1010","SHAPE__Length":1816.1211145141713,"objectid":11,"pipej_class":"-","status":"กำลังก่อสร้าง(จะเสร็จ 03/64)"}},{"geometry":{"type":"LineString","coordinates":[[100.52863677793788,13.705858063994054],[100.5281182604843,13.70596014121961],[100.5268501920876,13.706216234721333],[100.52675776333017,13.706234877805338],[100.52558204537614,13.706472322461064],[100.52431389581864,13.70672849436551],[100.52427948033359,13.706735666832158],[100.52350808198695,13.706896406935435],[100.52304586919853,13.706992791976717],[100.52048014401848,13.707496971112498],[100.51947677905717,13.707673948296382],[100.51919083187772,13.707724419550766],[100.51869160209078,13.707827712451852]],"crs":null},"id":12,"type":"Feature","properties":{"utm_x":664765.9003,"fd_prevent":"11","pipej_type":"ค.ส.ล.","f_el_pipej":"-","year":"2563","pipej_code":"11","shape_length":1097.58906756,"utm_y":1515826.4147,"f_pipej":"-","t_el_pipej":"-","discharge":0,"dimension":"c1.8","budget":166.82,"owner":"กองระบบท่อระบายน้ำ","length_bma":"1300","objectid_1":12,"to_pipej":"-","plan_build":"25/02/63-20/03/64","subdistrict_id":"102801","roadcl_id":"-","pipej_name":"ระบบระบายน้ำเพื่อแก้ไขปัญหาน้ำท่วมถนนจันทร์","district_t":"ยานนาวา","district_id":"1012","SHAPE__Length":1129.908665400942,"objectid":12,"pipej_class":"ท่อระบายน้ำ","status":"กำลังก่อสร้าง(จะเสร็จ 09/63)"}}],"type":"FeatureCollection","properties":{"exceededTransferLimit":false}}