{"features":[{"geometry":{"type":"LineString","coordinates":[[100.53589960558759,13.804718040262639],[100.53568572236492,13.804855532023524],[100.53318900732644,13.805654016275087],[100.53199549199446,13.806007522211017],[100.53119617689447,13.806279142033038],[100.52864274830641,13.806397163788754],[100.52341841447891,13.80642395025166],[100.51894263048098,13.806406285096786]],"crs":null},"id":1,"type":"Feature","properties":{"tunnel_code":"1","utm_x":665116.89798493,"owner":"สำนักพัฒนาระบบระบายน้ำ","fd_prevent":"03,22","tunnel_length":1880,"f_el_tunnel":"-","year":"2563","to_tunnel":"เจ้าพระยา","tunnel_name":"อุโมงค์ระบายน้ำคลองเปรมประชากร","shape_length":1863.17221912,"objectid_1":1,"benefit":3.5,"utm_y":1526840.9420107,"subdistrict_id":"102901","t_el_tunnel":"-","discharge":30,"SHAPE__Length":1918.7363769414658,"dimension":3.4,"objectid":1,"f_tunnel":"คลองเปรมประชากร","status":"ก่อสร้างแล้วเสร็จ"}},{"geometry":{"type":"LineString","coordinates":[[100.60352313398747,13.750659592794511],[100.6009084470749,13.748062769813064],[100.6005320073202,13.747750364267686],[100.60018673405692,13.747327133364818],[100.59984387485264,13.74640466471354],[100.59938517929002,13.744660366835916],[100.598795639064,13.743302677293917],[100.59846981775624,13.742323365813695],[100.59836893605079,13.741994986548708],[100.59794210565119,13.741095749959872],[100.5979038667996,13.741019412517046],[100.59870019655467,13.740781661182504],[100.5988092788978,13.740607928842948],[100.5988458635969,13.740440339248872],[100.59852927092795,13.739537552574214],[100.59837789268133,13.73903647486473],[100.59830006095045,13.738683837056085],[100.59830652524188,13.738353344760867],[100.59862889232832,13.73818248549816],[100.59827160645217,13.7368403058552],[100.59808076394418,13.736081363208426],[100.59790840739305,13.735481144705409],[100.59767614053399,13.734603337640273],[100.59750870550432,13.733872607064638],[100.59739220824491,13.733379812439527],[100.5971929374037,13.732660634164533],[100.59700867394687,13.732015107234362],[100.59645819616503,13.729990578774832],[100.59624344697409,13.729126837902923],[100.59606643568854,13.728265689129989],[100.5959812658648,13.7276847594122],[100.59594970552791,13.726879399250015],[100.59592817892919,13.725841382732916],[100.59590464624512,13.724721120860114],[100.59584652037125,13.722131780062563],[100.59579961471984,13.719913946058227],[100.59577300658674,13.71855260156053],[100.59576260413367,13.717871910054047],[100.59571926534989,13.717469408007817],[100.59555273592639,13.716869147382791],[100.59531596598205,13.716178571455247],[100.59485564502596,13.715035599538881],[100.59442726050409,13.71389525572757],[100.59415881425227,13.713238920715892],[100.5941235606955,13.713173908539364],[100.59412617470787,13.713131344722155],[100.59430506910543,13.712985529316978],[100.5961303111398,13.711748382520772],[100.5970513398863,13.71108720352322],[100.59717249686598,13.710984307208578],[100.59678498768884,13.710311724948735],[100.5966621058645,13.710159348882032],[100.59606300371603,13.709944807529114],[100.59562686203968,13.709802961728434],[100.59539235160605,13.70987538780114]],"crs":null},"id":2,"type":"Feature","properties":{"tunnel_code":"3","utm_x":672627.78112313,"owner":"สำนักพัฒนาระบบระบายน้ำ","fd_prevent":"09,13","tunnel_length":5110,"f_el_tunnel":"-","year":"2563","to_tunnel":"เจ้าพระยา","tunnel_name":"อุโมงค์ระบายน้ำคลองแสนแสบและคลองลาดพร้าว","shape_length":5166.21001994,"objectid_1":2,"benefit":50,"utm_y":1518457.78586662,"subdistrict_id":"100608 101702 103303 103403 103902 103903","t_el_tunnel":"-","discharge":60,"SHAPE__Length":5344.411745706445,"dimension":5,"objectid":2,"f_tunnel":"คลองแสนแสบและคลองลาดพร้าว","status":"ก่อสร้างแล้วเสร็จ"}},{"geometry":{"type":"LineString","coordinates":[[100.57394145062786,13.796198901726193],[100.57312849388359,13.796153050015633],[100.57220132612602,13.795954753942702],[100.5712628167002,13.795796238255871],[100.56891723848092,13.795286467447921],[100.5677204748275,13.795135258988287],[100.56726113317524,13.795019055287028],[100.56695523028327,13.794845142068384],[100.56689692124935,13.794805802158319],[100.56634547105658,13.794586650435186],[100.56602004792089,13.794531994309175],[100.56569221451453,13.794551101599218],[100.56499920697757,13.794647701412162],[100.56435087026293,13.794697213066533],[100.56345183362554,13.794799374479972],[100.56319375587526,13.794833635452697],[100.56246846235574,13.794876540417206],[100.5618345496375,13.794913188762873],[100.56158794793377,13.794927519760812],[100.56144291338501,13.794939787083644],[100.56083269913755,13.79504861455271],[100.56047457867517,13.7950962721862],[100.56010014362025,13.795090849169647],[100.55992664729912,13.795078476541423],[100.55964241020023,13.795107226902651],[100.55937019706568,13.795198305217758],[100.55916622329775,13.795294622464446],[100.55892701741851,13.795330177598943],[100.55873740593941,13.795294860100888],[100.55815377929245,13.795365218993377],[100.55780786175093,13.795283734258573],[100.55753855496707,13.795266294179289],[100.55705628933262,13.795303387610861],[100.55659612356621,13.795390689241069],[100.55597740391431,13.795530760262734],[100.55569087399377,13.795542147371828],[100.55547504192634,13.795491746000273],[100.55525401004192,13.79547789831562],[100.55478711341237,13.795644661981907],[100.55465801144936,13.795652569848102],[100.55451139308354,13.79564498771339],[100.55435310026351,13.795627551588234],[100.5541050266588,13.795639048002446],[100.55357099495666,13.795858000448309],[100.55340135600275,13.795880346373474],[100.5531065833614,13.795852425104355],[100.55241039723074,13.79590929940018],[100.55178380869697,13.795957222857712],[100.55158376105983,13.795989687280908],[100.55131730034438,13.796073628609305],[100.5511896395538,13.796080107340709],[100.55085177402246,13.796009199177442],[100.55070309061227,13.79601864680167],[100.55004827404257,13.79618729612714],[100.54932099408579,13.796370583103256],[100.54853681113363,13.796507424296337],[100.54629752759567,13.796710152369396],[100.5448039195002,13.796878391179145],[100.54408191368347,13.79698220700165],[100.54275940294927,13.797129503110295],[100.54114696203867,13.797323995611837],[100.54025935599664,13.79740330939561],[100.53935455887382,13.797516767661039],[100.53867885338187,13.79760042240992],[100.53780878795442,13.797699474194054],[100.53735659178042,13.79778739972174],[100.53540309131188,13.798644904309416],[100.53374676378446,13.799455154814085],[100.53316224296786,13.799725437999898],[100.53234544210099,13.798204468039172],[100.53178887112944,13.798310053533115],[100.53139436460702,13.798343714903307],[100.53103448228043,13.798345957294902],[100.53029501102482,13.798444169363327],[100.52977919899391,13.798569352287215],[100.52917398929645,13.798783024540985],[100.52891006604423,13.79881303197607],[100.52841092782597,13.798824646539275],[100.52794025808403,13.798750986420943],[100.52732693316958,13.79861013542015],[100.52690745108272,13.798597140421215],[100.5267147997465,13.798652232291742],[100.52639219045254,13.798807410630051],[100.52625077100353,13.79893026149032],[100.52598319424861,13.799068077472661],[100.52581891028079,13.799191743531246],[100.52563206711271,13.799247911293094],[100.52543757036891,13.799256294144456],[100.5251933177804,13.7991394236401],[100.52505331173033,13.799120653820978],[100.52422933945395,13.799392402616107],[100.52392536175195,13.799512005767667],[100.52356533587533,13.799604298567655],[100.5229042901989,13.799713349803731],[100.52228139832098,13.799887403181938],[100.52188111837226,13.799926757577076],[100.52132034680108,13.799833787088655],[100.52103015196212,13.799841256648437]],"crs":null},"id":3,"type":"Feature","properties":{"tunnel_code":"4","utm_x":667204.84334327,"owner":"สำนักพัฒนาระบบระบายน้ำ","fd_prevent":"03,05,07,22","tunnel_length":6400,"f_el_tunnel":"-","year":"2563","to_tunnel":"ถ.สามเสน","tunnel_name":"อุโมงค์ระบายน้ำคลองบางซื่อจากคลองลาดพร้าว","shape_length":5982.92217589,"objectid_1":3,"benefit":56,"utm_y":1525776.88402287,"subdistrict_id":"100206 101401 101402 102602 102901 103004 103005","t_el_tunnel":"-","discharge":60,"SHAPE__Length":6162.835071594546,"dimension":5,"objectid":3,"f_tunnel":"ถ.รัชดาภิเษก","status":"ก่อสร้างแล้วเสร็จ"}},{"geometry":{"type":"LineString","coordinates":[[100.65316630655062,13.694941017193832],[100.65318520576386,13.694739505178363],[100.65338108090644,13.6941255282661],[100.6533904441155,13.693804949628076],[100.65320097389281,13.692844667113011],[100.6531020766275,13.692391499260092],[100.65291970678511,13.691201418082848],[100.6527951363992,13.689979750190748],[100.65284806668417,13.689458911937374],[100.65297354242043,13.688837605888729],[100.65303571929022,13.68839470855196],[100.65370710733521,13.686606111571228],[100.65383814256863,13.686262028952122],[100.65397215835495,13.685929271962548],[100.65328890401783,13.68570692093726],[100.65239350192326,13.685429254927035],[100.65126268838426,13.685087918330295],[100.64993103593272,13.68464863873746],[100.64895668911146,13.684280720586028],[100.64813037985722,13.683925994128229],[100.6476631195074,13.68368517025301],[100.64671034648899,13.68349863056334],[100.64647378125001,13.683477511406219],[100.64609676727113,13.678692111132799],[100.64597388178399,13.677705847473945],[100.64123486945617,13.677828055022006],[100.6401848759066,13.677840681912677],[100.63828215104947,13.677867454327659],[100.63611834520341,13.67789310016819],[100.6344087241899,13.677949769000117],[100.6315494201714,13.678076401971428],[100.62669480182274,13.678267169186151],[100.62459508603692,13.678334841304782],[100.62417076336096,13.679486391963943],[100.62358613593895,13.680951005340757],[100.62293305200066,13.682586253521604],[100.62273073590505,13.683117998867585],[100.62269446009202,13.68375076869977],[100.62269034580939,13.684420201408916],[100.62116714056036,13.684384795444991],[100.61960081193867,13.684406390871423],[100.61730325855619,13.684398715158636],[100.61550736000981,13.684362218685942],[100.61173738438629,13.684322964480769],[100.61081192490133,13.684311967678278],[100.61063193290764,13.68429186509839],[100.61038064053761,13.684238187780664],[100.6096775831066,13.683658443789449],[100.60904791536225,13.683205861814765],[100.6085351860912,13.682885833532517],[100.60788166186707,13.682336962756512],[100.60773877401846,13.682227266900231],[100.60768052870121,13.682193607563253],[100.60757865627106,13.682143211773965],[100.60751470492546,13.682123771699814],[100.60742774044739,13.68213284551224],[100.60736117720266,13.682155969158163],[100.60725148832034,13.68223610264991],[100.60712456742024,13.682341876915714],[100.60695649740914,13.68236849560253],[100.6068579491879,13.682380480842705],[100.60676183882578,13.682324375317048],[100.60660168278802,13.682234645964606],[100.60625516568898,13.682041176398403],[100.60560282175157,13.681665316761155],[100.60494185454397,13.681300857789951],[100.60463024542968,13.681121340832114],[100.60438005202184,13.681015175325145],[100.60400245760417,13.6809438721291],[100.60343863958158,13.680788679292386],[100.60279066257682,13.680628356782288],[100.60202925112371,13.68042338191095],[100.60096249604764,13.68010691892792],[100.60039291822521,13.67995742888179],[100.6002302475223,13.679924442293423],[100.59998677806254,13.67995437971431],[100.59942457402622,13.680037432484784],[100.59923904158926,13.680055649217355],[100.59861720405395,13.680329131096935],[100.59797171816952,13.680537523602414],[100.59716705364444,13.680800835708435],[100.596683604946,13.680948613443743],[100.59617994614423,13.681110703784032],[100.59554899714999,13.681324670552394],[100.59484274179093,13.68155613957598],[100.59428102645228,13.68171292720735],[100.59394446234062,13.681703747601723],[100.59334789893599,13.681855084540805],[100.59324396800783,13.681929501407609],[100.59306453987385,13.681993058889326],[100.5927337957585,13.681986676708533],[100.59253383430388,13.682016328205556],[100.59181860387457,13.68220813528262],[100.59128867798556,13.682347693306056],[100.59023474159208,13.682643786097467]],"crs":null},"id":4,"type":"Feature","properties":{"tunnel_code":"5","utm_x":675916.12853802,"owner":"สำนักพัฒนาระบบระบายน้ำ","fd_prevent":"14","tunnel_length":9400,"f_el_tunnel":"-","year":"2563","to_tunnel":"เจ้าพระยา","tunnel_name":"อุโมงค์ระบายน้ำหนองบอน","shape_length":9252.68290998,"objectid_1":4,"benefit":0,"utm_y":1512735.79117329,"subdistrict_id":"100901 100902 103202 104701","t_el_tunnel":"-","discharge":60,"SHAPE__Length":9538.94999172818,"dimension":5,"objectid":4,"f_tunnel":"บึงรับน้ำหนองบอน","status":"คาดว่าจะแล้วเสร็จ ปีพ.ศ. 2563"}},{"geometry":{"type":"LineString","coordinates":[[100.63043685320596,13.763136073518373],[100.62912900396745,13.762844064936997],[100.62745683760724,13.762741660429732],[100.62379763257805,13.762323324159102],[100.6219508957623,13.762153957333217],[100.62067328597999,13.762037562888306],[100.61953394308549,13.761772756031327],[100.61840722301758,13.761655357428701],[100.61675772928392,13.761473309058232],[100.61603709349902,13.761330542453093],[100.61552545834468,13.761197747941653],[100.6148851382908,13.7609182998343],[100.61451193029636,13.760659791854437],[100.61336762129591,13.759668853330028],[100.6123449595998,13.758643075225601],[100.61149227204216,13.757860117155166],[100.61061622280012,13.757054614914729],[100.60971098790706,13.75622377251953],[100.6088553773834,13.75543514867939],[100.60814288254664,13.754781738251939],[100.60745960211023,13.754156499174082],[100.60655440869094,13.75332847796017],[100.6054390679044,13.752320287450159],[100.60491937364414,13.751852817760536],[100.6043939169292,13.75139105623171],[100.6037546815903,13.750839266467844],[100.60352349978758,13.750659944744692]],"crs":null},"id":5,"type":"Feature","properties":{"tunnel_code":"7","utm_x":674606.62115143,"owner":"สำนักพัฒนาระบบระบายน้ำ","fd_prevent":"04,09","tunnel_length":3800,"f_el_tunnel":"-","year":"2563","to_tunnel":"ซอยลาดพร้าว130","tunnel_name":"อุโมงระบายน้ำคลองแสนแสบจากอุโมงค์ระบายน้ำคลองแสนแสบ","shape_length":3378.7792485,"objectid_1":5,"benefit":0,"utm_y":1521877.2882042,"subdistrict_id":"100608 101702 103303 103403 103902 103903 104504","t_el_tunnel":"-","discharge":30,"SHAPE__Length":3483.3732250777343,"dimension":3.6,"objectid":5,"f_tunnel":"อุโมงค์ระบายน้ำคลองแสนแสบ","status":"คาดว่าจะก่อสร้าง ปีพ.ศ. 2563-2566"}},{"geometry":{"type":"LineString","coordinates":[[100.37339071502524,13.70812280474638],[100.37362577544555,13.707630740465957],[100.37407014450027,13.706709165034798],[100.37463488164794,13.705531611816358],[100.37506786833855,13.704649812443202],[100.37526843694292,13.704214674998441],[100.37559525935103,13.703537710736027],[100.37590763971103,13.702872174282128],[100.37621711719396,13.702206653707071],[100.37653811552809,13.701526884268338],[100.37676731092833,13.701026341307331],[100.37704534936536,13.700443259753238],[100.37754127145125,13.699410760189382],[100.37795684705848,13.69853189005205],[100.3781259876401,13.698182028402812],[100.37836093073275,13.697672942263516],[100.37865893965457,13.69703301390228],[100.37891969372,13.696472721814894],[100.37911449671033,13.696046123590161],[100.37931488548726,13.69558261774486],[100.37949231227863,13.695161789601848],[100.3796612996848,13.69478639765631],[100.37994235837112,13.694225991628736],[100.38026078330883,13.69360580509394],[100.38047005363833,13.693173452022329],[100.38065057760612,13.692786648407774],[100.38086549990406,13.692328733155595],[100.38109205999848,13.691876426264606],[100.38122664333964,13.691572143375875]],"crs":null},"id":6,"type":"Feature","properties":{"tunnel_code":"8","utm_x":648942.53062212,"owner":"สำนักพัฒนาระบบระบายน้ำ","fd_prevent":"16","tunnel_length":2030,"f_el_tunnel":"-","year":"2563","to_tunnel":"คลองภาษีเจริญ","tunnel_name":"อุโมงค์ระบายน้ำคลองทวีวัฒนา บริเวณคอขวด","shape_length":2017.73894853,"objectid_1":6,"benefit":0,"utm_y":1514956.24599525,"subdistrict_id":"102302 102303 104004","t_el_tunnel":"-","discharge":32,"SHAPE__Length":2087.579859598594,"dimension":3.7,"objectid":6,"f_tunnel":"ถ.เพพชรเกษม","status":"คาดว่าจะก่อสร้าง ปีพ.ศ. 2563-2566"}},{"geometry":{"type":"LineString","coordinates":[[100.59560012644805,13.888534444507776],[100.59462429040518,13.887644496250559],[100.59418453980905,13.887874283252584],[100.59287550209882,13.888359347868716],[100.59200667855022,13.888682695461542],[100.59118403387414,13.888966028457563],[100.59044809869023,13.88919206568297],[100.58983383223058,13.889377597990086],[100.58890573405468,13.889525460498994],[100.58871980420872,13.889509651320877],[100.58830641033826,13.88934782487084],[100.58802176852947,13.88933265700187],[100.58769152300718,13.889442589234594],[100.58717592658007,13.88962180087221],[100.58678342833096,13.88997039973833],[100.58669659849457,13.890010674818086],[100.58551919286496,13.890216873075074],[100.58457947264718,13.890364795171305],[100.58348931688867,13.890593110332162],[100.58326293227186,13.890605923717581],[100.58278670521628,13.89059766460608],[100.58193716522206,13.889060127422306],[100.58122859242009,13.88775710010138],[100.58058480562204,13.886586965316106],[100.58002037470102,13.88555813983658],[100.57918254454972,13.884029021528582],[100.5787943194667,13.88329404612257],[100.57823559686815,13.882248158206957],[100.57776528148565,13.881394577969804],[100.57730677531906,13.880569285605617],[100.57668954209508,13.87945569450093],[100.57446133678525,13.875385518828807],[100.57341495633455,13.87348613587296],[100.57200409752616,13.87091967856251],[100.57071023488506,13.868477263362113],[100.56971166556089,13.866770432489602],[100.5683472659072,13.864192299838168],[100.56752711326341,13.862677193727881],[100.56702709126164,13.861710314501359],[100.56549908681608,13.858968689586359],[100.56432429729318,13.856945266413472],[100.56351412305429,13.855611613067044],[100.56254724194476,13.853416658650051],[100.56109042199974,13.850884442398668],[100.56055008102669,13.849957511581737],[100.5592089677404,13.847356464702951],[100.55829254323332,13.845751158469568],[100.5570466379776,13.843489869841079],[100.55671167911073,13.842884984941778],[100.55632349128109,13.842132937695748],[100.55540695990415,13.840504924848853],[100.55491908729353,13.83960317161726],[100.55454297370062,13.838919121098147],[100.55409616143092,13.83807950862114],[100.55363772207134,13.837237133075675],[100.55314377639144,13.836292865919814],[100.55116212888602,13.83293846142642],[100.55081465248308,13.83219181781748],[100.54971591164781,13.83021319747907],[100.54755607669615,13.830187126397883],[100.54567459589573,13.830113896113565],[100.54353816728796,13.830116006936617],[100.54170491975381,13.830314751115633],[100.54013774343598,13.830364309988749],[100.53848419360635,13.830522189850166],[100.5359254892447,13.830759480068169],[100.5341324160059,13.830889838970641],[100.53370855072647,13.830881144401053],[100.5332673438125,13.830883903577645],[100.53269194475565,13.830785385394405],[100.5317441305955,13.830555874423078],[100.53112718584903,13.8303186208979],[100.53032899849504,13.829886774500165],[100.52944794509852,13.829211499753294],[100.52861278413702,13.828450837921299],[100.5279003535064,13.82781421679209],[100.52695423581567,13.8269521237742],[100.52597307212865,13.826056206134352],[100.52331563032504,13.823604918910547],[100.5216572243239,13.822117506967533],[100.51981233812373,13.820517774554414],[100.51811819009988,13.818883053900748],[100.51696290441835,13.817982497028298],[100.51668205722149,13.817643845030148],[100.5165411934689,13.817406443861687],[100.51650445482622,13.817111667638917],[100.5165605970942,13.816816317515611],[100.51666376642454,13.816611447722066],[100.51686003644569,13.816440040074301],[100.51697474282165,13.81622375275066],[100.51700869155378,13.816087387476701],[100.51688994810962,13.81567965582729],[100.51671374196178,13.81536304914839],[100.51651475598884,13.815114660771314],[100.51644370121647,13.814899520340465],[100.51655855418761,13.814705924598234],[100.51681228585016,13.814443392088569],[100.5169852609904,13.8142607831968],[100.51711172307296,13.814067115521391],[100.51708703410365,13.813840342604006],[100.51687658714904,13.813614717510562]],"crs":null},"id":7,"type":"Feature","properties":{"tunnel_code":"6","utm_x":668534.71500297,"owner":"สำนักพัฒนาระบบระบายน้ำ","fd_prevent":"01,02,03,22","tunnel_length":13500,"f_el_tunnel":"-","year":"2563","to_tunnel":"เจ้าพระยา","tunnel_name":"อุโมงค์ระบายน้ำคลองเปรมประชากรจากคลองบางบัว","shape_length":13711.72246852,"objectid_1":7,"benefit":109,"utm_y":1531444.97870474,"subdistrict_id":"102902 103005 103604 103605 104101 104102","t_el_tunnel":"-","discharge":60,"SHAPE__Length":14169.150762810541,"dimension":5.7,"objectid":7,"f_tunnel":"คลองบางบัว","status":"คาดว่าจะก่อสร้าง ปีพ.ศ. 2563-2567"}},{"geometry":{"type":"LineString","coordinates":[[100.42620938481801,13.707311746037053],[100.42621989439732,13.707130137313552],[100.42624083652147,13.70675415442845],[100.4262823750458,13.706185157981322],[100.4263094816893,13.705748860024638],[100.42632552842957,13.705523250200033],[100.42633610644219,13.705352987712343],[100.42634874959163,13.705164275014472],[100.42636477063829,13.704934410340794],[100.42637735814893,13.704736478359647],[100.42638385559108,13.704491066975011],[100.42639540162416,13.704240661858936],[100.42640794808437,13.703915788157376],[100.42641462954145,13.703700870262328],[100.42653523002616,13.701569108761799],[100.42656655322413,13.70099024188366],[100.4266275998849,13.700048107232641],[100.42665348098353,13.699528843410295],[100.42666588205027,13.699179858846005],[100.42662939026948,13.698902072778123],[100.42658102114821,13.698578968582574],[100.42655616846567,13.698306789589232],[100.42651858304163,13.697847461559332],[100.42653816529689,13.697245968954288],[100.42655661947087,13.696457261282514],[100.42662025912766,13.695464051532838],[100.42670092989927,13.69440833606349],[100.42677221979761,13.69372144445994],[100.4268601642733,13.692909642736327],[100.4269994373378,13.69195003676346],[100.4271903832004,13.690899358689387],[100.42739471038254,13.690143619072126],[100.42750307011057,13.689830957655666],[100.42764223733488,13.688854332134891],[100.4277860774968,13.687690457131266],[100.4279052373099,13.686282769537323],[100.42801409200173,13.685090729538624],[100.42817100528795,13.684170734762036],[100.42824386499366,13.683744810501077],[100.42835354033396,13.682688927325774],[100.428484779197,13.681360596395919],[100.42872372192139,13.679611813429991],[100.42876330905898,13.679441383458911],[100.42893449105063,13.678963831129138],[100.42909691052598,13.677033941036285],[100.42926300802478,13.67571391874132],[100.42930266285093,13.675554834996024],[100.4294955257365,13.67386305157409],[100.42961259732105,13.672591536112064],[100.4296528070862,13.672043821576384],[100.42959947994764,13.671859744167966],[100.42973060931011,13.670514393331182],[100.42988340521589,13.668913614888588],[100.42999709510755,13.667562691162704],[100.43004155773927,13.667239051252363],[100.4302023433525,13.666001323304773],[100.43071421465984,13.664296352256855],[100.43149171594104,13.66238560494788],[100.43163384126699,13.661902546161903],[100.43199001753888,13.660357326421117],[100.43247670967395,13.658329115312904],[100.43293878538714,13.656068436692093],[100.43342584113238,13.654102629144836],[100.43385494643691,13.652148502572725],[100.4343399338746,13.649842303638474],[100.43476940452408,13.647950581672449],[100.43547116581605,13.645038911109582],[100.43582973905269,13.64341708477125],[100.43625246508098,13.641372218841534],[100.4364417193926,13.640531462804157],[100.436571487466,13.639926495654109],[100.43671503665728,13.639202307976255],[100.43694589020797,13.638046437835692],[100.43744212496586,13.635689109047371],[100.43779154686753,13.633996416740349],[100.438108048804,13.63261595132014],[100.43840656237869,13.6311391414359],[100.43870033680861,13.629838234662392],[100.43889124160195,13.628793225646376],[100.43914663884826,13.627861310644082]],"crs":null},"id":8,"type":"Feature","properties":{"tunnel_code":"9","utm_x":654665.75836695,"owner":"สำนักพัฒนาระบบระบายน้ำ","fd_prevent":"16,17,18","tunnel_length":9195,"f_el_tunnel":"-","year":"2563","to_tunnel":"คลองสนามชัย","tunnel_name":"อุโมงค์ระบายน้ำคลองพระยาราชมนตรี","shape_length":8934.33415073,"objectid_1":8,"benefit":0,"utm_y":1511377.65545629,"subdistrict_id":"102107 102201 104001 105003 105004","t_el_tunnel":"-","discharge":48,"SHAPE__Length":9250.563781945866,"dimension":5,"objectid":8,"f_tunnel":"คลองภาษีเจริญ","status":"คาดว่าจะก่อสร้าง ปีพ.ศ. 2564-2568"}},{"geometry":{"type":"LineString","coordinates":[[100.54816848287196,13.756608515886802],[100.54758783629063,13.756566777962993],[100.54669439766371,13.756617772235334],[100.54614819897088,13.756519084427465],[100.54589120694034,13.756271080836681],[100.54573800744691,13.755920309639805],[100.54572446425244,13.75562539357849],[100.54582617065121,13.755204947158271],[100.5461357583002,13.754624350151092],[100.5467689950186,13.753837490382885],[100.54800625260597,13.752897918067353],[100.54849711658979,13.75252608486721],[100.54885409168514,13.752092687093254],[100.54921057954411,13.751585542717528],[100.54959927428844,13.75068107962285],[100.54987654592064,13.749601450314787],[100.55008231086452,13.748238616727658],[100.55033637897719,13.74561747278385],[100.55065208213227,13.742441397065248],[100.55095923585542,13.740612732626929],[100.55105772039269,13.73970442019113],[100.55117245558239,13.738620139198781],[100.55133051706797,13.737064720493372],[100.55153291168459,13.735191329261532],[100.55167445809755,13.73377216765036],[100.55186569132836,13.731966924473443],[100.55212562413837,13.730019421000224],[100.55217902493105,13.729315623239549],[100.55232920674081,13.728327561326324],[100.55240484756082,13.727476122397265],[100.55252991418021,13.726198891446607],[100.55271173761652,13.724728418999714],[100.55287986480886,13.722940339663593],[100.55299668263035,13.722173737958432],[100.55310202424788,13.720544898810427],[100.55316631909255,13.719733243082503],[100.55323259150522,13.719222248808446],[100.55335199078569,13.718407410083238],[100.55358712250258,13.716661456801633],[100.55382575097646,13.714124085414632],[100.55402038249754,13.71195574162937],[100.55408262289819,13.710832078571896],[100.5539051117784,13.709868768275133],[100.55352839249343,13.709054210978316],[100.5529168306624,13.708476666309773],[100.55190522068818,13.707521323826706],[100.55003621748689,13.705660924170544],[100.54946380633736,13.705085855331143]],"crs":null},"id":9,"type":"Feature","properties":{"tunnel_code":"2","utm_x":667801.59077358,"owner":"สำนักพัฒนาระบบระบายน้ำ","fd_prevent":"06,11,12,13","tunnel_length":5980,"f_el_tunnel":"-","year":"2563","to_tunnel":"เจ้าพระยา","tunnel_name":"อุโมงค์ระบายน้ำบึงมักกะสัน","shape_length":6305.72180803,"objectid_1":9,"benefit":26,"utm_y":1518596.26207762,"subdistrict_id":"100704 101203 102803 103301 103704 103901","t_el_tunnel":"-","discharge":45,"SHAPE__Length":6525.7395951728095,"dimension":4.6,"objectid":9,"f_tunnel":"บึงมักกะสัน","status":"ก่อสร้างแล้วเสร็จ"}}],"type":"FeatureCollection","properties":{"exceededTransferLimit":false}}